{
"type": "FeatureCollection",
"name": "ok_counties",
"crs": { "type": "name", "properties": { "name": "urn:ogc:def:crs:OGC:1.3:CRS84" } },
"xy_coordinate_resolution": 1e-06,
"features": [
{ "type": "Feature", "properties": { "FEATURECLA": "Admin-2 scale rank", "SCALERANK": 0, "ADM2_CODE": "USA-40025", "ISO_3166_2": "US-40", "ISO_A2": "US", "ADM0_SR": 1, "NAME": "Cimarron", "NAME_ALT": "Cimarron County", "NAME_LOCAL": null, "TYPE": "County", "TYPE_EN": "County", "CODE_LOCAL": "40025", "REGION": "OK", "REGION_COD": "40", "ABBREV": null, "AREA_SQKM": 4801, "SAMEASCITY": 0, "LABELRANK": 0, "NAME_LEN": 8, "MAPCOLOR9": 1, "MAPCOLOR13": 1, "FIPS": "US40025", "SOV_A3": "US1", "ADM0_A3": "USA", "ADM0_LABEL": 2, "ADMIN": "United States of America", "GEONUNIT": "United States of America", "GU_A3": "USA", "MIN_LABEL": 8, "MAX_LABEL": 10, "MIN_ZOOM": 6.6, "WIKIDATAID": "Q485044", "NE_ID": 1730094143, "latitude": 36.749992, "longitude": -102.515101, "NAME_AR": "سيمارون", "NAME_BN": null, "NAME_DE": "Cimarron", "NAME_EL": null, "NAME_EN": "Cimarron", "NAME_ES": "Cimarron", "NAME_FA": "شهرستان سیمران، اکلاهما", "NAME_FR": "Cimarron", "NAME_HE": "מחוז סימארון", "NAME_HI": null, "NAME_HU": "Cimarron", "NAME_ID": null, "NAME_IT": "Cimarron", "NAME_JA": "シマロン郡", "NAME_KO": "시머론", "NAME_NL": "Cimarron", "NAME_PL": "Cimarron", "NAME_PT": "Cimarron", "NAME_RU": "Симаррон", "NAME_SV": "Cimarron", "NAME_TR": "Cimarron", "NAME_UK": "Сімаррон", "NAME_UR": "سیمارون کاؤنٹی، اوکلاہوما", "NAME_VI": "Cimarron", "NAME_ZH": "锡马龙县", "NAME_ZHT": "錫馬龍縣" }, "geometry": { "type": "MultiPolygon", "coordinates": [ [ [ [ -103.000238, 36.500199 ], [ -103.00036, 36.625126 ], [ -103.000531, 36.750004 ], [ -103.000678, 36.874882 ], [ -103.0008, 36.999809 ], [ -102.877313, 36.999809 ], [ -102.753803, 36.999809 ], [ -102.630292, 36.999809 ], [ -102.506757, 36.999809 ], [ -102.383246, 36.999809 ], [ -102.259735, 36.999809 ], [ -102.1362, 36.999809 ], [ -102.039569, 36.999809 ], [ -102.028195, 36.999809 ], [ -102.028316, 36.849138 ], [ -102.031997, 36.848665 ], [ -102.032329, 36.500151 ], [ -102.072455, 36.500151 ], [ -102.162454, 36.500159 ], [ -102.320184, 36.500175 ], [ -102.542108, 36.500175 ], [ -102.729657, 36.500199 ], [ -102.874286, 36.500199 ], [ -102.967352, 36.500199 ], [ -103.000238, 36.500199 ] ] ] ] } },
{ "type": "Feature", "properties": { "FEATURECLA": "Admin-2 scale rank", "SCALERANK": 0, "ADM2_CODE": "USA-40007", "ISO_3166_2": "US-40", "ISO_A2": "US", "ADM0_SR": 1, "NAME": "Beaver", "NAME_ALT": "Beaver County", "NAME_LOCAL": null, "TYPE": "County", "TYPE_EN": "County", "CODE_LOCAL": "40007", "REGION": "OK", "REGION_COD": "40", "ABBREV": null, "AREA_SQKM": 4696, "SAMEASCITY": 0, "LABELRANK": 0, "NAME_LEN": 6, "MAPCOLOR9": 1, "MAPCOLOR13": 1, "FIPS": "US40007", "SOV_A3": "US1", "ADM0_A3": "USA", "ADM0_LABEL": 2, "ADMIN": "United States of America", "GEONUNIT": "United States of America", "GU_A3": "USA", "MIN_LABEL": 8, "MAX_LABEL": 10, "MIN_ZOOM": 6.6, "WIKIDATAID": "Q485047", "NE_ID": 1730094123, "latitude": 36.749949, "longitude": -100.477347, "NAME_AR": "بيفر", "NAME_BN": null, "NAME_DE": "Beaver", "NAME_EL": null, "NAME_EN": "Beaver", "NAME_ES": "Beaver", "NAME_FA": "شهرستان بیور، اکلاهما", "NAME_FR": "Beaver", "NAME_HE": "מחוז ביבר", "NAME_HI": null, "NAME_HU": "Beaver", "NAME_ID": null, "NAME_IT": "Beaver", "NAME_JA": "ビーバー郡", "NAME_KO": "비버", "NAME_NL": "Beaver", "NAME_PL": "Beaver", "NAME_PT": "Beaver", "NAME_RU": "Бивер", "NAME_SV": "Beaver", "NAME_TR": "Beaver", "NAME_UK": "Бівер", "NAME_UR": "بیور کاؤنٹی، اوکلاہوما", "NAME_VI": null, "NAME_ZH": "比佛县", "NAME_ZHT": "比佛縣" }, "geometry": { "type": "MultiPolygon", "coordinates": [ [ [ [ -100.747968, 36.500102 ], [ -100.954313, 36.500142 ], [ -100.953894, 36.846747 ], [ -100.945542, 36.848648 ], [ -100.945454, 36.999809 ], [ -100.857318, 36.999809 ], [ -100.626239, 36.999809 ], [ -100.395136, 36.999809 ], [ -100.164056, 36.999809 ], [ -100.089474, 36.999809 ], [ -100.002554, 36.999809 ], [ -100.003866, 36.764216 ], [ -100.003132, 36.593226 ], [ -100.002387, 36.499858 ], [ -100.013422, 36.500053 ], [ -100.067841, 36.500053 ], [ -100.100775, 36.500053 ], [ -100.193866, 36.500053 ], [ -100.338471, 36.500053 ], [ -100.526044, 36.500102 ], [ -100.546136, 36.500102 ], [ -100.747968, 36.500102 ] ] ] ] } },
{ "type": "Feature", "properties": { "FEATURECLA": "Admin-2 scale rank", "SCALERANK": 0, "ADM2_CODE": "USA-40139", "ISO_3166_2": "US-40", "ISO_A2": "US", "ADM0_SR": 1, "NAME": "Texas", "NAME_ALT": "Texas County", "NAME_LOCAL": null, "TYPE": "County", "TYPE_EN": "County", "CODE_LOCAL": "40139", "REGION": "OK", "REGION_COD": "40", "ABBREV": null, "AREA_SQKM": 5345, "SAMEASCITY": 0, "LABELRANK": 0, "NAME_LEN": 5, "MAPCOLOR9": 1, "MAPCOLOR13": 1, "FIPS": "US40139", "SOV_A3": "US1", "ADM0_A3": "USA", "ADM0_LABEL": 2, "ADMIN": "United States of America", "GEONUNIT": "United States of America", "GU_A3": "USA", "MIN_LABEL": 8, "MAX_LABEL": 10, "MIN_ZOOM": 6.6, "WIKIDATAID": "Q485017", "NE_ID": 1730094269, "latitude": 36.74998, "longitude": -101.491504, "NAME_AR": "تكساس", "NAME_BN": null, "NAME_DE": "Texas", "NAME_EL": null, "NAME_EN": "Texas", "NAME_ES": "Texas", "NAME_FA": "شهرستان استپلس، اکلاهما", "NAME_FR": "Texas", "NAME_HE": "מחוז טקסס", "NAME_HI": null, "NAME_HU": "Texas", "NAME_ID": null, "NAME_IT": "Texas", "NAME_JA": "テキサス郡", "NAME_KO": "텍사스", "NAME_NL": "Texas", "NAME_PL": "Texas", "NAME_PT": "Texas", "NAME_RU": "Тексас", "NAME_SV": "Texas", "NAME_TR": "Texas", "NAME_UK": "Техас", "NAME_UR": "ٹیکساس کاؤنٹی، اوکلاہوما", "NAME_VI": "Texas", "NAME_ZH": "德克萨斯县", "NAME_ZHT": "德克薩斯縣" }, "geometry": { "type": "MultiPolygon", "coordinates": [ [ [ [ -100.954313, 36.500142 ], [ -100.995697, 36.500151 ], [ -101.085147, 36.500151 ], [ -101.26059, 36.500151 ], [ -101.534076, 36.500151 ], [ -101.623906, 36.500151 ], [ -101.807538, 36.500151 ], [ -102.032329, 36.500151 ], [ -102.031997, 36.848665 ], [ -102.028316, 36.849138 ], [ -102.028195, 36.999809 ], [ -101.781659, 36.999809 ], [ -101.550604, 36.999809 ], [ -101.319525, 36.999809 ], [ -101.088422, 36.999809 ], [ -101.066733, 36.999809 ], [ -100.945454, 36.999809 ], [ -100.945542, 36.848648 ], [ -100.953894, 36.846747 ], [ -100.954313, 36.500142 ] ] ] ] } },
{ "type": "Feature", "properties": { "FEATURECLA": "Admin-2 scale rank", "SCALERANK": 0, "ADM2_CODE": "USA-40057", "ISO_3166_2": "US-40", "ISO_A2": "US", "ADM0_SR": 1, "NAME": "Harmon", "NAME_ALT": "Harmon County", "NAME_LOCAL": null, "TYPE": "County", "TYPE_EN": "County", "CODE_LOCAL": "40057", "REGION": "OK", "REGION_COD": "40", "ABBREV": null, "AREA_SQKM": 1363, "SAMEASCITY": 0, "LABELRANK": 0, "NAME_LEN": 6, "MAPCOLOR9": 1, "MAPCOLOR13": 1, "FIPS": "US40057", "SOV_A3": "US1", "ADM0_A3": "USA", "ADM0_LABEL": 2, "ADMIN": "United States of America", "GEONUNIT": "United States of America", "GU_A3": "USA", "MIN_LABEL": 8, "MAX_LABEL": 10, "MIN_ZOOM": 6.6, "WIKIDATAID": "Q486626", "NE_ID": 1730094179, "latitude": 34.745141, "longitude": -99.858576, "NAME_AR": "هارمون، أوكلاهوما", "NAME_BN": null, "NAME_DE": "Harmon", "NAME_EL": null, "NAME_EN": "Harmon", "NAME_ES": "Harmon", "NAME_FA": "شهرستان هارمون، اکلاهما", "NAME_FR": "Harmon", "NAME_HE": "מחוז הרמון", "NAME_HI": null, "NAME_HU": "Harmon", "NAME_ID": null, "NAME_IT": "Harmon", "NAME_JA": "ハーモン郡", "NAME_KO": "하먼", "NAME_NL": "Harmon", "NAME_PL": "Harmon", "NAME_PT": "Harmon", "NAME_RU": "Хармон", "NAME_SV": "Harmon", "NAME_TR": "Harmon", "NAME_UK": "Гармон", "NAME_UR": "ہارمن کاؤنٹی، اوکلاہوما", "NAME_VI": "Harmon", "NAME_ZH": "哈蒙县", "NAME_ZHT": "哈蒙郡" }, "geometry": { "type": "MultiPolygon", "coordinates": [ [ [ [ -99.999286, 34.575468 ], [ -99.999286, 34.585697 ], [ -99.999384, 34.632035 ], [ -99.999579, 34.745683 ], [ -99.999725, 34.85933 ], [ -99.999921, 34.973002 ], [ -100.000021, 35.03133 ], [ -99.888563, 35.030256 ], [ -99.888417, 34.94394 ], [ -99.73188, 34.944059 ], [ -99.731039, 34.856979 ], [ -99.719992, 34.857027 ], [ -99.720058, 34.768444 ], [ -99.685151, 34.76838 ], [ -99.684704, 34.753738 ], [ -99.667137, 34.753736 ], [ -99.666841, 34.724549 ], [ -99.666504, 34.507877 ], [ -99.809175, 34.50709 ], [ -99.882001, 34.564921 ], [ -99.891693, 34.570414 ], [ -99.913837, 34.573832 ], [ -99.922968, 34.578251 ], [ -99.938397, 34.581987 ], [ -99.983319, 34.576713 ], [ -99.999286, 34.575468 ] ] ] ] } },
{ "type": "Feature", "properties": { "FEATURECLA": "Admin-2 scale rank", "SCALERANK": 0, "ADM2_CODE": "USA-40009", "ISO_3166_2": "US-40", "ISO_A2": "US", "ADM0_SR": 1, "NAME": "Beckham", "NAME_ALT": "Beckham County", "NAME_LOCAL": null, "TYPE": "County", "TYPE_EN": "County", "CODE_LOCAL": "40009", "REGION": "OK", "REGION_COD": "40", "ABBREV": null, "AREA_SQKM": 2349, "SAMEASCITY": 0, "LABELRANK": 0, "NAME_LEN": 7, "MAPCOLOR9": 1, "MAPCOLOR13": 1, "FIPS": "US40009", "SOV_A3": "US1", "ADM0_A3": "USA", "ADM0_LABEL": 2, "ADMIN": "United States of America", "GEONUNIT": "United States of America", "GU_A3": "USA", "MIN_LABEL": 8, "MAX_LABEL": 10, "MIN_ZOOM": 6.6, "WIKIDATAID": "Q491646", "NE_ID": 1730094125, "latitude": 35.269248, "longitude": -99.68262, "NAME_AR": "بيكهام", "NAME_BN": null, "NAME_DE": "Beckham", "NAME_EL": null, "NAME_EN": "Beckham", "NAME_ES": "Beckham", "NAME_FA": "شهرستان بکهام، اکلاهما", "NAME_FR": "Beckham", "NAME_HE": "מחוז בקהאם", "NAME_HI": null, "NAME_HU": "Beckham", "NAME_ID": null, "NAME_IT": "Beckham", "NAME_JA": "ベッカム郡", "NAME_KO": "베컴", "NAME_NL": "Beckham", "NAME_PL": "Beckham", "NAME_PT": "Beckham", "NAME_RU": "Бекхэм", "NAME_SV": "Beckham", "NAME_TR": "Beckham", "NAME_UK": "Бекгем", "NAME_UR": "بیکہم کاؤنٹی، اوکلاہوما", "NAME_VI": "Beckham", "NAME_ZH": "贝坎县", "NAME_ZHT": "貝坎縣" }, "geometry": { "type": "MultiPolygon", "coordinates": [ [ [ [ -100.000021, 35.03133 ], [ -100.000116, 35.08665 ], [ -100.000281, 35.182696 ], [ -100.000311, 35.200273 ], [ -100.000507, 35.31392 ], [ -100.000678, 35.427592 ], [ -99.69357, 35.42171 ], [ -99.575812, 35.421649 ], [ -99.57559, 35.508855 ], [ -99.364133, 35.508787 ], [ -99.364209, 35.465322 ], [ -99.364281, 35.20446 ], [ -99.360211, 35.204458 ], [ -99.360218, 35.116732 ], [ -99.398668, 35.114503 ], [ -99.43999, 35.109098 ], [ -99.451766, 35.116831 ], [ -99.782719, 35.116774 ], [ -99.782941, 35.030105 ], [ -99.888563, 35.030256 ], [ -100.000021, 35.03133 ] ] ] ] } },
{ "type": "Feature", "properties": { "FEATURECLA": "Admin-2 scale rank", "SCALERANK": 0, "ADM2_CODE": "USA-40129", "ISO_3166_2": "US-40", "ISO_A2": "US", "ADM0_SR": 1, "NAME": "Roger Mills", "NAME_ALT": "Roger Mills County", "NAME_LOCAL": null, "TYPE": "County", "TYPE_EN": "County", "CODE_LOCAL": "40129", "REGION": "OK", "REGION_COD": "40", "ABBREV": null, "AREA_SQKM": 3015, "SAMEASCITY": 0, "LABELRANK": 0, "NAME_LEN": 11, "MAPCOLOR9": 1, "MAPCOLOR13": 1, "FIPS": "US40129", "SOV_A3": "US1", "ADM0_A3": "USA", "ADM0_LABEL": 2, "ADMIN": "United States of America", "GEONUNIT": "United States of America", "GU_A3": "USA", "MIN_LABEL": 8, "MAX_LABEL": 10, "MIN_ZOOM": 6.6, "WIKIDATAID": "Q489332", "NE_ID": 1730094259, "latitude": 35.658212, "longitude": -99.754227, "NAME_AR": "روجر ميلز", "NAME_BN": null, "NAME_DE": "Roger Mills", "NAME_EL": null, "NAME_EN": "Roger Mills", "NAME_ES": "Roger Mills", "NAME_FA": "شهرستان کورنبرگ میل، اکلاهما", "NAME_FR": "Roger Mills", "NAME_HE": null, "NAME_HI": null, "NAME_HU": "Roger Mills", "NAME_ID": null, "NAME_IT": "Roger Mills", "NAME_JA": "ロジャーミルズ郡", "NAME_KO": "로저밀스", "NAME_NL": "Roger Mills", "NAME_PL": "Roger Mills", "NAME_PT": "Roger Mills", "NAME_RU": "Роджер-Миллс", "NAME_SV": "Roger Mills", "NAME_TR": "Roger Mills", "NAME_UK": "Роджер-Міллс", "NAME_UR": "راجر ملز کاؤنٹی، اوکلاہوما", "NAME_VI": "Roger Mills", "NAME_ZH": "罗杰米尔斯县", "NAME_ZHT": "羅傑米爾斯郡" }, "geometry": { "type": "MultiPolygon", "coordinates": [ [ [ [ -100.000678, 35.427592 ], [ -100.000897, 35.541239 ], [ -100.001031, 35.619108 ], [ -100.001093, 35.654936 ], [ -100.001288, 35.768534 ], [ -100.001434, 35.882157 ], [ -100.001448, 35.89 ], [ -99.982004, 35.890448 ], [ -99.957183, 35.894355 ], [ -99.93578, 35.900662 ], [ -99.926666, 35.907986 ], [ -99.923329, 35.913682 ], [ -99.908315, 35.926215 ], [ -99.904937, 35.935004 ], [ -99.906606, 35.969672 ], [ -99.904937, 35.980007 ], [ -99.892323, 36.002753 ], [ -99.874745, 36.015001 ], [ -99.854482, 36.020046 ], [ -99.833608, 36.020941 ], [ -99.812245, 36.014268 ], [ -99.8037, 35.997423 ], [ -99.802561, 35.952704 ], [ -99.788401, 35.918728 ], [ -99.755727, 35.89411 ], [ -99.672841, 35.863308 ], [ -99.62621, 35.856391 ], [ -99.584828, 35.863878 ], [ -99.549672, 35.883165 ], [ -99.522043, 35.911689 ], [ -99.513911, 35.927295 ], [ -99.483388, 35.979682 ], [ -99.45816, 36.006903 ], [ -99.418324, 36.020941 ], [ -99.381441, 36.022748 ], [ -99.381074, 35.898824 ], [ -99.375823, 35.898748 ], [ -99.375809, 35.812182 ], [ -99.377044, 35.551735 ], [ -99.364104, 35.550171 ], [ -99.364133, 35.508787 ], [ -99.57559, 35.508855 ], [ -99.575812, 35.421649 ], [ -99.69357, 35.42171 ], [ -100.000678, 35.427592 ] ] ] ] } },
{ "type": "Feature", "properties": { "FEATURECLA": "Admin-2 scale rank", "SCALERANK": 0, "ADM2_CODE": "USA-40045", "ISO_3166_2": "US-40", "ISO_A2": "US", "ADM0_SR": 1, "NAME": "Ellis", "NAME_ALT": "Ellis County", "NAME_LOCAL": null, "TYPE": "County", "TYPE_EN": "County", "CODE_LOCAL": "40045", "REGION": "OK", "REGION_COD": "40", "ABBREV": null, "AREA_SQKM": 3150, "SAMEASCITY": 0, "LABELRANK": 0, "NAME_LEN": 5, "MAPCOLOR9": 1, "MAPCOLOR13": 1, "FIPS": "US40045", "SOV_A3": "US1", "ADM0_A3": "USA", "ADM0_LABEL": 2, "ADMIN": "United States of America", "GEONUNIT": "United States of America", "GU_A3": "USA", "MIN_LABEL": 8, "MAX_LABEL": 10, "MIN_ZOOM": 6.6, "WIKIDATAID": "Q485013", "NE_ID": 1730094167, "latitude": 36.207356, "longitude": -99.792396, "NAME_AR": "إليس", "NAME_BN": null, "NAME_DE": "Ellis", "NAME_EL": null, "NAME_EN": "Ellis", "NAME_ES": "Ellis", "NAME_FA": "شهرستان الیس، اکلاهما", "NAME_FR": "'Ellis", "NAME_HE": "מחוז אליס", "NAME_HI": null, "NAME_HU": "Ellis", "NAME_ID": null, "NAME_IT": "Ellis", "NAME_JA": "エリス郡", "NAME_KO": "엘리스", "NAME_NL": "Ellis", "NAME_PL": "Ellis", "NAME_PT": "Ellis", "NAME_RU": "Эллис", "NAME_SV": "Ellis", "NAME_TR": "Ellis", "NAME_UK": "Елліс", "NAME_UR": "ایلس کاؤنٹی، اوکلاہوما", "NAME_VI": "Ellis", "NAME_ZH": "埃利斯县", "NAME_ZHT": "埃利斯郡" }, "geometry": { "type": "MultiPolygon", "coordinates": [ [ [ [ -100.001448, 35.89 ], [ -100.00163, 35.995854 ], [ -100.001732, 36.055669 ], [ -100.001825, 36.109477 ], [ -100.001971, 36.223173 ], [ -100.002191, 36.33682 ], [ -100.002362, 36.450444 ], [ -100.002387, 36.499858 ], [ -100.003132, 36.593226 ], [ -99.605557, 36.592747 ], [ -99.604937, 36.50003 ], [ -99.605597, 36.34808 ], [ -99.604778, 36.246623 ], [ -99.595817, 36.246695 ], [ -99.59595, 36.164053 ], [ -99.382066, 36.164295 ], [ -99.381441, 36.022748 ], [ -99.418324, 36.020941 ], [ -99.45816, 36.006903 ], [ -99.483388, 35.979682 ], [ -99.513911, 35.927295 ], [ -99.522043, 35.911689 ], [ -99.549672, 35.883165 ], [ -99.584828, 35.863878 ], [ -99.62621, 35.856391 ], [ -99.672841, 35.863308 ], [ -99.755727, 35.89411 ], [ -99.788401, 35.918728 ], [ -99.802561, 35.952704 ], [ -99.8037, 35.997423 ], [ -99.812245, 36.014268 ], [ -99.833608, 36.020941 ], [ -99.854482, 36.020046 ], [ -99.874745, 36.015001 ], [ -99.892323, 36.002753 ], [ -99.904937, 35.980007 ], [ -99.906606, 35.969672 ], [ -99.904937, 35.935004 ], [ -99.908315, 35.926215 ], [ -99.923329, 35.913682 ], [ -99.926666, 35.907986 ], [ -99.93578, 35.900662 ], [ -99.957183, 35.894355 ], [ -99.982004, 35.890448 ], [ -100.001448, 35.89 ] ] ] ] } },
{ "type": "Feature", "properties": { "FEATURECLA": "Admin-2 scale rank", "SCALERANK": 0, "ADM2_CODE": "USA-40065", "ISO_3166_2": "US-40", "ISO_A2": "US", "ADM0_SR": 1, "NAME": "Jackson", "NAME_ALT": "Jackson County", "NAME_LOCAL": null, "TYPE": "County", "TYPE_EN": "County", "CODE_LOCAL": "40065", "REGION": "OK", "REGION_COD": "40", "ABBREV": null, "AREA_SQKM": 2006, "SAMEASCITY": 0, "LABELRANK": 0, "NAME_LEN": 7, "MAPCOLOR9": 1, "MAPCOLOR13": 1, "FIPS": "US40065", "SOV_A3": "US1", "ADM0_A3": "USA", "ADM0_LABEL": 2, "ADMIN": "United States of America", "GEONUNIT": "United States of America", "GU_A3": "USA", "MIN_LABEL": 8, "MAX_LABEL": 10, "MIN_ZOOM": 6.6, "WIKIDATAID": "Q485030", "NE_ID": 1730094189, "latitude": 34.565939, "longitude": -99.500497, "NAME_AR": "جاكسون", "NAME_BN": "জ্যাকসন কাউন্টি", "NAME_DE": "Jackson", "NAME_EL": null, "NAME_EN": "Jackson", "NAME_ES": "Jackson", "NAME_FA": "شهرستان جکسون، اکلاهما", "NAME_FR": "Jackson", "NAME_HE": null, "NAME_HI": null, "NAME_HU": "Jackson", "NAME_ID": null, "NAME_IT": "Jackson", "NAME_JA": "ジャクソン郡", "NAME_KO": "잭슨", "NAME_NL": "Jackson", "NAME_PL": "Jackson", "NAME_PT": "Jackson", "NAME_RU": "Джексон", "NAME_SV": "Jackson", "NAME_TR": "Jackson", "NAME_UK": "Джексон", "NAME_UR": "جیکسن کاؤنٹی، اوکلاہوما", "NAME_VI": "Jackson", "NAME_ZH": "杰克逊县", "NAME_ZHT": "傑克遜縣" }, "geometry": { "type": "MultiPolygon", "coordinates": [ [ [ [ -99.601727, 34.385038 ], [ -99.66225, 34.389897 ], [ -99.680804, 34.394682 ], [ -99.693573, 34.406156 ], [ -99.713153, 34.430839 ], [ -99.809175, 34.50709 ], [ -99.666504, 34.507877 ], [ -99.666841, 34.724549 ], [ -99.423193, 34.725014 ], [ -99.437033, 34.736458 ], [ -99.440369, 34.762093 ], [ -99.434971, 34.769122 ], [ -99.406021, 34.769029 ], [ -99.404765, 34.813039 ], [ -99.250353, 34.812729 ], [ -99.245168, 34.835984 ], [ -99.237416, 34.83869 ], [ -99.204742, 34.8664 ], [ -99.19518, 34.86933 ], [ -99.183339, 34.869167 ], [ -99.168309, 34.864294 ], [ -99.159151, 34.860362 ], [ -99.156809, 34.855414 ], [ -99.154408, 34.836778 ], [ -99.15567, 34.818386 ], [ -99.168121, 34.755194 ], [ -99.16808, 34.746283 ], [ -99.165842, 34.738308 ], [ -99.160634, 34.730984 ], [ -99.1433, 34.718085 ], [ -99.133127, 34.713731 ], [ -99.122914, 34.711493 ], [ -99.111399, 34.711615 ], [ -99.065582, 34.7178 ], [ -99.061594, 34.707302 ], [ -99.070861, 34.691119 ], [ -99.09496, 34.666571 ], [ -99.098053, 34.658881 ], [ -99.09557, 34.650458 ], [ -99.087218, 34.639123 ], [ -99.083485, 34.632758 ], [ -99.081207, 34.624864 ], [ -99.085032, 34.618191 ], [ -99.102162, 34.606553 ], [ -99.132797, 34.593786 ], [ -99.173781, 34.585783 ], [ -99.184153, 34.578803 ], [ -99.197906, 34.564521 ], [ -99.212473, 34.540229 ], [ -99.222768, 34.505316 ], [ -99.227284, 34.46072 ], [ -99.239003, 34.433946 ], [ -99.240468, 34.425727 ], [ -99.237662, 34.417 ], [ -99.230458, 34.412177 ], [ -99.211171, 34.400702 ], [ -99.20523, 34.393581 ], [ -99.202707, 34.385199 ], [ -99.200999, 34.358954 ], [ -99.209393, 34.33975 ], [ -99.240204, 34.362553 ], [ -99.249481, 34.378324 ], [ -99.255682, 34.396562 ], [ -99.265497, 34.411552 ], [ -99.285516, 34.417802 ], [ -99.304804, 34.418876 ], [ -99.314887, 34.420805 ], [ -99.323358, 34.424003 ], [ -99.33205, 34.43101 ], [ -99.3362, 34.438261 ], [ -99.339081, 34.445243 ], [ -99.343866, 34.451322 ], [ -99.362372, 34.46226 ], [ -99.377362, 34.462699 ], [ -99.387396, 34.451445 ], [ -99.393378, 34.401664 ], [ -99.401386, 34.386381 ], [ -99.416473, 34.380375 ], [ -99.440057, 34.382426 ], [ -99.460809, 34.389311 ], [ -99.475126, 34.395879 ], [ -99.499017, 34.40684 ], [ -99.547284, 34.412455 ], [ -99.556122, 34.410356 ], [ -99.564984, 34.405644 ], [ -99.576508, 34.394633 ], [ -99.583466, 34.389897 ], [ -99.601727, 34.385038 ] ] ] ] } },
{ "type": "Feature", "properties": { "FEATURECLA": "Admin-2 scale rank", "SCALERANK": 0, "ADM2_CODE": "USA-40141", "ISO_3166_2": "US-40", "ISO_A2": "US", "ADM0_SR": 1, "NAME": "Tillman", "NAME_ALT": "Tillman County", "NAME_LOCAL": null, "TYPE": "County", "TYPE_EN": "County", "CODE_LOCAL": "40141", "REGION": "OK", "REGION_COD": "40", "ABBREV": null, "AREA_SQKM": 2253, "SAMEASCITY": 0, "LABELRANK": 0, "NAME_LEN": 7, "MAPCOLOR9": 1, "MAPCOLOR13": 1, "FIPS": "US40141", "SOV_A3": "US1", "ADM0_A3": "USA", "ADM0_LABEL": 2, "ADMIN": "United States of America", "GEONUNIT": "United States of America", "GU_A3": "USA", "MIN_LABEL": 8, "MAX_LABEL": 10, "MIN_ZOOM": 6.6, "WIKIDATAID": "Q489324", "NE_ID": 1730094271, "latitude": 34.404205, "longitude": -98.984729, "NAME_AR": "تيليمان", "NAME_BN": null, "NAME_DE": "Tillman", "NAME_EL": null, "NAME_EN": "Tillman", "NAME_ES": "Tillman", "NAME_FA": "شهرستان تیلمن، اکلاهما", "NAME_FR": "Tillman", "NAME_HE": "מחוז טילמן", "NAME_HI": null, "NAME_HU": "Tillman", "NAME_ID": null, "NAME_IT": "Tillman", "NAME_JA": "ティルマン郡", "NAME_KO": "틸먼", "NAME_NL": "Tillman", "NAME_PL": "Tillman", "NAME_PT": "Tillman", "NAME_RU": "Тиллман", "NAME_SV": "Tillman", "NAME_TR": "Tillman", "NAME_UK": "Тіллман", "NAME_UR": "ٹلمیں کاؤنٹی، اوکلاہوما", "NAME_VI": "Tillman", "NAME_ZH": "蒂尔曼县", "NAME_ZHT": "蒂爾曼郡" }, "geometry": { "type": "MultiPolygon", "coordinates": [ [ [ [ -99.153534, 34.216923 ], [ -99.175922, 34.22061 ], [ -99.193036, 34.232231 ], [ -99.197137, 34.248295 ], [ -99.199725, 34.302445 ], [ -99.196137, 34.31414 ], [ -99.192059, 34.322221 ], [ -99.209393, 34.33975 ], [ -99.200999, 34.358954 ], [ -99.202707, 34.385199 ], [ -99.20523, 34.393581 ], [ -99.211171, 34.400702 ], [ -99.230458, 34.412177 ], [ -99.237662, 34.417 ], [ -99.240468, 34.425727 ], [ -99.239003, 34.433946 ], [ -99.227284, 34.46072 ], [ -99.222768, 34.505316 ], [ -99.212473, 34.540229 ], [ -99.197906, 34.564521 ], [ -99.184153, 34.578803 ], [ -99.173781, 34.585783 ], [ -99.132797, 34.593786 ], [ -99.102162, 34.606553 ], [ -99.085032, 34.618191 ], [ -99.081207, 34.624864 ], [ -99.083485, 34.632758 ], [ -99.087218, 34.639123 ], [ -99.001226, 34.637868 ], [ -99.001099, 34.59436 ], [ -98.826, 34.594407 ], [ -98.826066, 34.507364 ], [ -98.662332, 34.507454 ], [ -98.661948, 34.405942 ], [ -98.661711, 34.333461 ], [ -98.609494, 34.333684 ], [ -98.618549, 34.162919 ], [ -98.630682, 34.163334 ], [ -98.653168, 34.159672 ], [ -98.720062, 34.136625 ], [ -98.732147, 34.142094 ], [ -98.857538, 34.164799 ], [ -98.877704, 34.17078 ], [ -98.952826, 34.211723 ], [ -98.975262, 34.215898 ], [ -98.991351, 34.212748 ], [ -99.007098, 34.207231 ], [ -99.028558, 34.204301 ], [ -99.048529, 34.206547 ], [ -99.086444, 34.216313 ], [ -99.10705, 34.218583 ], [ -99.153534, 34.216923 ] ] ] ] } },
{ "type": "Feature", "properties": { "FEATURECLA": "Admin-2 scale rank", "SCALERANK": 0, "ADM2_CODE": "USA-40033", "ISO_3166_2": "US-40", "ISO_A2": "US", "ADM0_SR": 1, "NAME": "Cotton", "NAME_ALT": "Cotton County", "NAME_LOCAL": null, "TYPE": "County", "TYPE_EN": "County", "CODE_LOCAL": "40033", "REGION": "OK", "REGION_COD": "40", "ABBREV": null, "AREA_SQKM": 1669, "SAMEASCITY": 0, "LABELRANK": 0, "NAME_LEN": 6, "MAPCOLOR9": 1, "MAPCOLOR13": 1, "FIPS": "US40033", "SOV_A3": "US1", "ADM0_A3": "USA", "ADM0_LABEL": 2, "ADMIN": "United States of America", "GEONUNIT": "United States of America", "GU_A3": "USA", "MIN_LABEL": 8, "MAX_LABEL": 10, "MIN_ZOOM": 6.6, "WIKIDATAID": "Q483857", "NE_ID": 1730094153, "latitude": 34.290899, "longitude": -98.373864, "NAME_AR": "كوتون، أوكلاهوما", "NAME_BN": null, "NAME_DE": "Cotton", "NAME_EL": null, "NAME_EN": "Cotton", "NAME_ES": "Cotton", "NAME_FA": "شهرستان کاتن، اکلاهما", "NAME_FR": "Cotton", "NAME_HE": "מחוז קוטון", "NAME_HI": null, "NAME_HU": "Cotton", "NAME_ID": null, "NAME_IT": "Cotton", "NAME_JA": "コットン郡", "NAME_KO": "코튼", "NAME_NL": "Cotton", "NAME_PL": "Cotton", "NAME_PT": "Cotton", "NAME_RU": "Коттон", "NAME_SV": "Cotton", "NAME_TR": "Cotton", "NAME_UK": "Коттон", "NAME_UR": "کاٹن کاؤنٹی، اوکلاہوما", "NAME_VI": "Cotton", "NAME_ZH": "卡顿县", "NAME_ZHT": "卡頓縣" }, "geometry": { "type": "MultiPolygon", "coordinates": [ [ [ [ -98.490692, 34.075175 ], [ -98.50578, 34.082572 ], [ -98.539179, 34.11497 ], [ -98.551874, 34.122367 ], [ -98.55871, 34.127787 ], [ -98.574725, 34.151689 ], [ -98.586005, 34.157109 ], [ -98.618549, 34.162919 ], [ -98.609494, 34.333684 ], [ -98.661711, 34.333461 ], [ -98.661948, 34.405942 ], [ -98.609528, 34.406137 ], [ -98.609553, 34.420617 ], [ -98.50498, 34.42042 ], [ -98.50495, 34.449408 ], [ -98.29592, 34.449037 ], [ -98.295879, 34.463529 ], [ -98.244144, 34.463717 ], [ -98.244112, 34.507115 ], [ -98.14214, 34.506988 ], [ -98.139226, 34.507012 ], [ -98.139218, 34.289759 ], [ -98.131879, 34.146488 ], [ -98.178778, 34.132353 ], [ -98.20954, 34.129179 ], [ -98.34328, 34.143461 ], [ -98.368597, 34.137529 ], [ -98.384296, 34.122904 ], [ -98.396405, 34.10474 ], [ -98.410956, 34.088212 ], [ -98.416547, 34.079008 ], [ -98.440692, 34.075297 ], [ -98.490692, 34.075175 ] ] ] ] } },
{ "type": "Feature", "properties": { "FEATURECLA": "Admin-2 scale rank", "SCALERANK": 0, "ADM2_CODE": "USA-40067", "ISO_3166_2": "US-40", "ISO_A2": "US", "ADM0_SR": 1, "NAME": "Jefferson", "NAME_ALT": "Jefferson County", "NAME_LOCAL": null, "TYPE": "County", "TYPE_EN": "County", "CODE_LOCAL": "40067", "REGION": "OK", "REGION_COD": "40", "ABBREV": null, "AREA_SQKM": 1938, "SAMEASCITY": 0, "LABELRANK": 0, "NAME_LEN": 9, "MAPCOLOR9": 1, "MAPCOLOR13": 1, "FIPS": "US40067", "SOV_A3": "US1", "ADM0_A3": "USA", "ADM0_LABEL": 2, "ADMIN": "United States of America", "GEONUNIT": "United States of America", "GU_A3": "USA", "MIN_LABEL": 8, "MAX_LABEL": 10, "MIN_ZOOM": 6.6, "WIKIDATAID": "Q485024", "NE_ID": 1730094191, "latitude": 34.114585, "longitude": -97.832098, "NAME_AR": "جيفيرسون", "NAME_BN": "জেফারসন কাউন্টি", "NAME_DE": "Jefferson", "NAME_EL": null, "NAME_EN": "Jefferson", "NAME_ES": "Jefferson", "NAME_FA": "شهرستان جفرسون، اکلاهما", "NAME_FR": "Jefferson", "NAME_HE": null, "NAME_HI": null, "NAME_HU": "Jefferson", "NAME_ID": null, "NAME_IT": "Jefferson", "NAME_JA": "ジェファーソン郡", "NAME_KO": "제퍼슨", "NAME_NL": "Jefferson", "NAME_PL": "Jefferson", "NAME_PT": "Jefferson", "NAME_RU": "Джефферсон", "NAME_SV": "Jefferson", "NAME_TR": "Jefferson", "NAME_UK": "Джефферсон", "NAME_UR": "جیفرسن کاؤنٹی، اوکلاہوما", "NAME_VI": "Jefferson", "NAME_ZH": "杰佛逊县", "NAME_ZHT": "傑佛遜縣" }, "geometry": { "type": "MultiPolygon", "coordinates": [ [ [ [ -97.965936, 33.993266 ], [ -98.001434, 34.003569 ], [ -98.050507, 34.011918 ], [ -98.088397, 34.027836 ], [ -98.090057, 34.060917 ], [ -98.095331, 34.082109 ], [ -98.091278, 34.11182 ], [ -98.090668, 34.138285 ], [ -98.106512, 34.149662 ], [ -98.131879, 34.146488 ], [ -98.139218, 34.289759 ], [ -97.998951, 34.289073 ], [ -97.562566, 34.289179 ], [ -97.562715, 34.125088 ], [ -97.560756, 34.071083 ], [ -97.56084, 34.005505 ], [ -97.544645, 33.986599 ], [ -97.560918, 33.983958 ], [ -97.570941, 33.898979 ], [ -97.585736, 33.906352 ], [ -97.594745, 33.925004 ], [ -97.593915, 33.962113 ], [ -97.602826, 33.978984 ], [ -97.640643, 33.994511 ], [ -97.679974, 33.9835 ], [ -97.71496, 33.960038 ], [ -97.800751, 33.887846 ], [ -97.840228, 33.868022 ], [ -97.884003, 33.86165 ], [ -97.926654, 33.873149 ], [ -97.949286, 33.883158 ], [ -97.9591, 33.893022 ], [ -97.956683, 33.907865 ], [ -97.95495, 33.914067 ], [ -97.952875, 33.924369 ], [ -97.946088, 33.945024 ], [ -97.94621, 33.954667 ], [ -97.952875, 33.965312 ], [ -97.946649, 33.977055 ], [ -97.948602, 33.987431 ], [ -97.955951, 33.995317 ], [ -97.965936, 33.993266 ] ] ] ] } },
{ "type": "Feature", "properties": { "FEATURECLA": "Admin-2 scale rank", "SCALERANK": 0, "ADM2_CODE": "USA-40089", "ISO_3166_2": "US-40", "ISO_A2": "US", "ADM0_SR": 1, "NAME": "McCurtain", "NAME_ALT": "McCurtain County", "NAME_LOCAL": null, "TYPE": "County", "TYPE_EN": "County", "CODE_LOCAL": "40089", "REGION": "OK", "REGION_COD": "40", "ABBREV": null, "AREA_SQKM": 4897, "SAMEASCITY": 0, "LABELRANK": 0, "NAME_LEN": 9, "MAPCOLOR9": 1, "MAPCOLOR13": 1, "FIPS": "US40089", "SOV_A3": "US1", "ADM0_A3": "USA", "ADM0_LABEL": 2, "ADMIN": "United States of America", "GEONUNIT": "United States of America", "GU_A3": "USA", "MIN_LABEL": 8, "MAX_LABEL": 10, "MIN_ZOOM": 6.6, "WIKIDATAID": "Q495851", "NE_ID": 1730094213, "latitude": 34.122994, "longitude": -94.771109, "NAME_AR": "ماكورتاين، أوكلاهوما", "NAME_BN": null, "NAME_DE": "McCurtain", "NAME_EL": null, "NAME_EN": "McCurtain", "NAME_ES": "McCurtain", "NAME_FA": "شهرستان مکورتاین، اکلاهما", "NAME_FR": "McCurtain", "NAME_HE": null, "NAME_HI": null, "NAME_HU": "McCurtain", "NAME_ID": null, "NAME_IT": "McCurtain", "NAME_JA": "マカーテン郡", "NAME_KO": "매커튼", "NAME_NL": "McCurtain", "NAME_PL": "McCurtain", "NAME_PT": "McCurtain", "NAME_RU": "Мак-Кертен", "NAME_SV": "McCurtain", "NAME_TR": "McCurtain", "NAME_UK": "Маккертен", "NAME_UR": "مککرٹن کاؤنٹی، اوکلاہوما", "NAME_VI": "McCurtain", "NAME_ZH": "麦柯廷县", "NAME_ZHT": "麥柯廷郡" }, "geometry": { "type": "MultiPolygon", "coordinates": [ [ [ [ -94.707929, 33.691581 ], [ -94.713666, 33.693608 ], [ -94.722186, 33.702616 ], [ -94.739618, 33.709989 ], [ -94.755487, 33.733427 ], [ -94.769696, 33.738774 ], [ -94.781928, 33.739653 ], [ -94.807245, 33.746195 ], [ -94.872748, 33.755912 ], [ -94.910272, 33.786576 ], [ -94.924921, 33.808427 ], [ -94.930145, 33.814506 ], [ -94.939911, 33.820414 ], [ -94.948676, 33.823564 ], [ -94.954999, 33.829765 ], [ -94.95744, 33.844926 ], [ -94.960077, 33.849711 ], [ -94.966522, 33.855253 ], [ -94.974481, 33.859794 ], [ -94.981659, 33.86165 ], [ -95.0164, 33.862577 ], [ -95.031757, 33.866728 ], [ -95.047455, 33.875932 ], [ -95.079413, 33.903056 ], [ -95.096991, 33.912992 ], [ -95.128314, 33.91934 ], [ -95.13371, 33.925151 ], [ -95.137665, 33.932109 ], [ -95.143036, 33.938041 ], [ -95.154315, 33.944194 ], [ -95.156524, 34.156956 ], [ -95.151287, 34.157018 ], [ -95.151226, 34.2439 ], [ -95.046578, 34.243665 ], [ -95.046739, 34.507223 ], [ -94.937597, 34.506881 ], [ -94.706681, 34.507202 ], [ -94.461591, 34.516801 ], [ -94.46723, 34.299467 ], [ -94.47005, 34.189851 ], [ -94.472821, 34.082109 ], [ -94.475815, 33.966725 ], [ -94.478461, 33.86475 ], [ -94.4841, 33.647416 ], [ -94.489398, 33.648466 ], [ -94.51474, 33.649272 ], [ -94.532904, 33.656864 ], [ -94.532904, 33.650004 ], [ -94.580341, 33.663481 ], [ -94.594965, 33.669877 ], [ -94.591742, 33.675541 ], [ -94.588446, 33.679252 ], [ -94.609857, 33.681059 ], [ -94.635956, 33.677323 ], [ -94.643573, 33.685795 ], [ -94.655048, 33.691581 ], [ -94.66872, 33.695414 ], [ -94.683099, 33.697782 ], [ -94.689471, 33.697319 ], [ -94.701068, 33.692778 ], [ -94.707929, 33.691581 ] ] ] ] } },
{ "type": "Feature", "properties": { "FEATURECLA": "Admin-2 scale rank", "SCALERANK": 0, "ADM2_CODE": "USA-40023", "ISO_3166_2": "US-40", "ISO_A2": "US", "ADM0_SR": 1, "NAME": "Choctaw", "NAME_ALT": "Choctaw County", "NAME_LOCAL": null, "TYPE": "County", "TYPE_EN": "County", "CODE_LOCAL": "40023", "REGION": "OK", "REGION_COD": "40", "ABBREV": null, "AREA_SQKM": 2023, "SAMEASCITY": 0, "LABELRANK": 0, "NAME_LEN": 7, "MAPCOLOR9": 1, "MAPCOLOR13": 1, "FIPS": "US40023", "SOV_A3": "US1", "ADM0_A3": "USA", "ADM0_LABEL": 2, "ADMIN": "United States of America", "GEONUNIT": "United States of America", "GU_A3": "USA", "MIN_LABEL": 8, "MAX_LABEL": 10, "MIN_ZOOM": 6.6, "WIKIDATAID": "Q490745", "NE_ID": 1730094141, "latitude": 34.013377, "longitude": -95.42043, "NAME_AR": "تشوكتاو", "NAME_BN": null, "NAME_DE": "Choctaw", "NAME_EL": null, "NAME_EN": "Choctaw", "NAME_ES": "Choctaw", "NAME_FA": "شهرستان چاکتاو، اکلاهما", "NAME_FR": "Choctaw", "NAME_HE": null, "NAME_HI": null, "NAME_HU": "Choctaw", "NAME_ID": null, "NAME_IT": "Choctaw", "NAME_JA": "チョクトー郡", "NAME_KO": "촉토", "NAME_NL": "Choctaw", "NAME_PL": "Choctaw", "NAME_PT": "Choctaw", "NAME_RU": "Чокто", "NAME_SV": "Choctaw", "NAME_TR": "Choctaw", "NAME_UK": "Чокто", "NAME_UR": "چاکتاو کاؤنٹی، اوکلاہوما", "NAME_VI": "Choctaw", "NAME_ZH": "乔克托县", "NAME_ZHT": "喬克托縣" }, "geometry": { "type": "MultiPolygon", "coordinates": [ [ [ [ -95.154315, 33.944194 ], [ -95.220306, 33.962944 ], [ -95.236737, 33.960673 ], [ -95.255682, 33.947953 ], [ -95.261786, 33.933061 ], [ -95.263251, 33.915458 ], [ -95.268597, 33.90457 ], [ -95.280194, 33.910063 ], [ -95.286249, 33.902104 ], [ -95.293744, 33.8981 ], [ -95.30285, 33.894975 ], [ -95.313715, 33.889604 ], [ -95.324847, 33.895341 ], [ -95.331757, 33.895512 ], [ -95.334833, 33.886503 ], [ -95.335492, 33.878617 ], [ -95.337689, 33.874369 ], [ -95.341913, 33.871781 ], [ -95.348456, 33.86912 ], [ -95.35705, 33.868217 ], [ -95.440595, 33.870536 ], [ -95.451508, 33.86912 ], [ -95.457831, 33.876176 ], [ -95.464423, 33.880522 ], [ -95.472015, 33.882792 ], [ -95.48161, 33.883403 ], [ -95.486078, 33.881181 ], [ -95.491962, 33.877177 ], [ -95.497089, 33.875321 ], [ -95.49931, 33.879667 ], [ -95.503436, 33.88455 ], [ -95.505707, 33.888017 ], [ -95.505536, 33.889604 ], [ -95.537128, 33.889921 ], [ -95.549774, 33.895732 ], [ -95.540253, 33.910063 ], [ -95.54809, 33.925541 ], [ -95.559125, 33.933232 ], [ -95.571893, 33.938871 ], [ -95.584955, 33.947953 ], [ -95.598114, 33.952079 ], [ -95.609515, 33.943461 ], [ -95.622821, 33.924369 ], [ -95.630389, 33.924662 ], [ -95.646991, 33.929765 ], [ -95.650116, 33.92747 ], [ -95.673724, 33.916899 ], [ -95.683954, 33.914823 ], [ -95.69516, 33.909623 ], [ -95.705096, 33.902934 ], [ -95.711591, 33.89644 ], [ -95.721991, 33.897294 ], [ -95.736981, 33.895658 ], [ -95.769623, 33.89644 ], [ -95.776556, 33.890019 ], [ -95.772284, 33.861869 ], [ -95.78327, 33.855448 ], [ -95.790155, 33.857597 ], [ -95.795575, 33.86226 ], [ -95.800946, 33.86912 ], [ -95.808881, 33.866874 ], [ -95.81474, 33.86226 ], [ -95.820819, 33.855448 ], [ -95.840637, 33.874126 ], [ -95.858803, 33.887816 ], [ -95.878789, 33.916015 ], [ -95.917532, 33.924174 ], [ -95.937936, 33.953309 ], [ -95.938143, 34.125094 ], [ -95.951253, 34.14474 ], [ -95.99157, 34.156809 ], [ -95.778933, 34.156704 ], [ -95.664186, 34.156616 ], [ -95.362271, 34.156817 ], [ -95.156524, 34.156956 ], [ -95.154315, 33.944194 ] ] ] ] } },
{ "type": "Feature", "properties": { "FEATURECLA": "Admin-2 scale rank", "SCALERANK": 0, "ADM2_CODE": "USA-40095", "ISO_3166_2": "US-40", "ISO_A2": "US", "ADM0_SR": 1, "NAME": "Marshall", "NAME_ALT": "Marshall County", "NAME_LOCAL": null, "TYPE": "County", "TYPE_EN": "County", "CODE_LOCAL": "40095", "REGION": "OK", "REGION_COD": "40", "ABBREV": null, "AREA_SQKM": 1062, "SAMEASCITY": 0, "LABELRANK": 0, "NAME_LEN": 8, "MAPCOLOR9": 1, "MAPCOLOR13": 1, "FIPS": "US40095", "SOV_A3": "US1", "ADM0_A3": "USA", "ADM0_LABEL": 2, "ADMIN": "United States of America", "GEONUNIT": "United States of America", "GU_A3": "USA", "MIN_LABEL": 8, "MAX_LABEL": 10, "MIN_ZOOM": 6.6, "WIKIDATAID": "Q489306", "NE_ID": 1730094221, "latitude": 34.029347, "longitude": -96.771702, "NAME_AR": "مارشال، أوكلاهوما", "NAME_BN": null, "NAME_DE": "Marshall", "NAME_EL": null, "NAME_EN": "Marshall", "NAME_ES": "Marshall", "NAME_FA": "شهرستان مارشال، اکلاهما", "NAME_FR": "Marshall", "NAME_HE": "מחוז מרשל", "NAME_HI": null, "NAME_HU": "Marshall", "NAME_ID": null, "NAME_IT": "Marshall", "NAME_JA": "マーシャル郡", "NAME_KO": "마셜", "NAME_NL": "Marshall", "NAME_PL": "Marshall", "NAME_PT": "Marshall", "NAME_RU": "Маршалл", "NAME_SV": "Marshall", "NAME_TR": "Marshall", "NAME_UK": "Маршалл", "NAME_UR": "مارشل کاؤنٹی، اوکلاہوما", "NAME_VI": "Marshall", "NAME_ZH": "马歇尔县", "NAME_ZHT": "馬歇爾郡" }, "geometry": { "type": "MultiPolygon", "coordinates": [ [ [ [ -96.833954, 33.869291 ], [ -96.843524, 33.869926 ], [ -96.850775, 33.871928 ], [ -96.85556, 33.874833 ], [ -96.867621, 33.885331 ], [ -96.873895, 33.893656 ], [ -96.878558, 33.903422 ], [ -96.88476, 33.931571 ], [ -96.889203, 33.941459 ], [ -96.894061, 33.946269 ], [ -96.900897, 33.950834 ], [ -96.91452, 33.955937 ], [ -96.924091, 33.957328 ], [ -96.932709, 33.957328 ], [ -96.934783, 34.012936 ], [ -96.969714, 34.013002 ], [ -96.969998, 34.070824 ], [ -96.968201, 34.07434 ], [ -96.968407, 34.172611 ], [ -96.933663, 34.172547 ], [ -96.669958, 34.172248 ], [ -96.656139, 34.161188 ], [ -96.643369, 34.16806 ], [ -96.611064, 34.148403 ], [ -96.575577, 34.115785 ], [ -96.561529, 34.094211 ], [ -96.5572, 34.079657 ], [ -96.560536, 34.060614 ], [ -96.591786, 34.023505 ], [ -96.624935, 34.008846 ], [ -96.600141, 33.978869 ], [ -96.580068, 33.968817 ], [ -96.574208, 33.955146 ], [ -96.592499, 33.897831 ], [ -96.6008, 33.904887 ], [ -96.625555, 33.913383 ], [ -96.639276, 33.916166 ], [ -96.649359, 33.915971 ], [ -96.654535, 33.913481 ], [ -96.658807, 33.910185 ], [ -96.665155, 33.901664 ], [ -96.67807, 33.870658 ], [ -96.68078, 33.865898 ], [ -96.684003, 33.861698 ], [ -96.687616, 33.85789 ], [ -96.691962, 33.854618 ], [ -96.699481, 33.851689 ], [ -96.709686, 33.849247 ], [ -96.728851, 33.847172 ], [ -96.739813, 33.847612 ], [ -96.748407, 33.848881 ], [ -96.753705, 33.851371 ], [ -96.779828, 33.867875 ], [ -96.790106, 33.872196 ], [ -96.798309, 33.873344 ], [ -96.833954, 33.869291 ] ] ] ] } },
{ "type": "Feature", "properties": { "FEATURECLA": "Admin-2 scale rank", "SCALERANK": 0, "ADM2_CODE": "USA-40085", "ISO_3166_2": "US-40", "ISO_A2": "US", "ADM0_SR": 1, "NAME": "Love", "NAME_ALT": "Love County", "NAME_LOCAL": null, "TYPE": "County", "TYPE_EN": "County", "CODE_LOCAL": "40085", "REGION": "OK", "REGION_COD": "40", "ABBREV": null, "AREA_SQKM": 1395, "SAMEASCITY": 0, "LABELRANK": 0, "NAME_LEN": 4, "MAPCOLOR9": 1, "MAPCOLOR13": 1, "FIPS": "US40085", "SOV_A3": "US1", "ADM0_A3": "USA", "ADM0_LABEL": 2, "ADMIN": "United States of America", "GEONUNIT": "United States of America", "GU_A3": "USA", "MIN_LABEL": 8, "MAX_LABEL": 10, "MIN_ZOOM": 6.6, "WIKIDATAID": "Q489312", "NE_ID": 1730094209, "latitude": 33.974429, "longitude": -97.305588, "NAME_AR": "لوف، أوكلاهوما", "NAME_BN": null, "NAME_DE": "Love", "NAME_EL": null, "NAME_EN": "Love", "NAME_ES": "Love", "NAME_FA": "شهرستان لاو، اکلاهما", "NAME_FR": "Love", "NAME_HE": "מחוז לאב", "NAME_HI": null, "NAME_HU": "Love", "NAME_ID": null, "NAME_IT": "Love", "NAME_JA": "ラブ郡", "NAME_KO": "러브", "NAME_NL": "Love", "NAME_PL": "Love", "NAME_PT": "Love", "NAME_RU": "Лав", "NAME_SV": "Love", "NAME_TR": "Love", "NAME_UK": "Лав", "NAME_UR": "لوو کاؤنٹی، اوکلاہوما", "NAME_VI": "Love", "NAME_ZH": "拉夫县", "NAME_ZHT": "拉夫郡" }, "geometry": { "type": "MultiPolygon", "coordinates": [ [ [ [ -96.932709, 33.957328 ], [ -96.945509, 33.955363 ], [ -96.966888, 33.952079 ], [ -96.972601, 33.950004 ], [ -96.977875, 33.947538 ], [ -96.985077, 33.939897 ], [ -96.984174, 33.926835 ], [ -96.986542, 33.902641 ], [ -97.002167, 33.875321 ], [ -97.01767, 33.858549 ], [ -97.039813, 33.853593 ], [ -97.075238, 33.86165 ], [ -97.073846, 33.846195 ], [ -97.066571, 33.839408 ], [ -97.058539, 33.834428 ], [ -97.054755, 33.824418 ], [ -97.059149, 33.817265 ], [ -97.078314, 33.807914 ], [ -97.082684, 33.797123 ], [ -97.084955, 33.767924 ], [ -97.093817, 33.742338 ], [ -97.112518, 33.726103 ], [ -97.14411, 33.725126 ], [ -97.167548, 33.737577 ], [ -97.187177, 33.760112 ], [ -97.20058, 33.786576 ], [ -97.205585, 33.810771 ], [ -97.201337, 33.82769 ], [ -97.182416, 33.852934 ], [ -97.177655, 33.86912 ], [ -97.180316, 33.881596 ], [ -97.188104, 33.892875 ], [ -97.199188, 33.90247 ], [ -97.211786, 33.910063 ], [ -97.217987, 33.906987 ], [ -97.230585, 33.902714 ], [ -97.236005, 33.89954 ], [ -97.240424, 33.894828 ], [ -97.243646, 33.887382 ], [ -97.261444, 33.861772 ], [ -97.267035, 33.855448 ], [ -97.293744, 33.875444 ], [ -97.30578, 33.877983 ], [ -97.321649, 33.86912 ], [ -97.323846, 33.866093 ], [ -97.329486, 33.855912 ], [ -97.332489, 33.851737 ], [ -97.337762, 33.847343 ], [ -97.348212, 33.841923 ], [ -97.352679, 33.838407 ], [ -97.360443, 33.833647 ], [ -97.371747, 33.830497 ], [ -97.436444, 33.826957 ], [ -97.45246, 33.835356 ], [ -97.458832, 33.858549 ], [ -97.461249, 33.879277 ], [ -97.469257, 33.892143 ], [ -97.484003, 33.899296 ], [ -97.506635, 33.902641 ], [ -97.570941, 33.898979 ], [ -97.560918, 33.983958 ], [ -97.544645, 33.986599 ], [ -97.56084, 34.005505 ], [ -97.560756, 34.071083 ], [ -97.230855, 34.070868 ], [ -96.969998, 34.070824 ], [ -96.969714, 34.013002 ], [ -96.934783, 34.012936 ], [ -96.932709, 33.957328 ] ] ] ] } },
{ "type": "Feature", "properties": { "FEATURECLA": "Admin-2 scale rank", "SCALERANK": 0, "ADM2_CODE": "USA-40013", "ISO_3166_2": "US-40", "ISO_A2": "US", "ADM0_SR": 1, "NAME": "Bryan", "NAME_ALT": "Bryan County", "NAME_LOCAL": null, "TYPE": "County", "TYPE_EN": "County", "CODE_LOCAL": "40013", "REGION": "OK", "REGION_COD": "40", "ABBREV": null, "AREA_SQKM": 2347, "SAMEASCITY": 0, "LABELRANK": 0, "NAME_LEN": 5, "MAPCOLOR9": 1, "MAPCOLOR13": 1, "FIPS": "US40013", "SOV_A3": "US1", "ADM0_A3": "USA", "ADM0_LABEL": 2, "ADMIN": "United States of America", "GEONUNIT": "United States of America", "GU_A3": "USA", "MIN_LABEL": 8, "MAX_LABEL": 10, "MIN_ZOOM": 6.6, "WIKIDATAID": "Q491616", "NE_ID": 1730094131, "latitude": 33.961247, "longitude": -96.269002, "NAME_AR": "براين", "NAME_BN": null, "NAME_DE": "Bryan", "NAME_EL": null, "NAME_EN": "Bryan", "NAME_ES": "Bryan", "NAME_FA": "شهرستان برایان، اوکلاهاما", "NAME_FR": "Bryan", "NAME_HE": "מחוז בריאן", "NAME_HI": null, "NAME_HU": "Bryan", "NAME_ID": null, "NAME_IT": "Bryan", "NAME_JA": "ブライアン郡", "NAME_KO": "브라이언", "NAME_NL": "Bryan", "NAME_PL": "Bryan", "NAME_PT": "Bryan", "NAME_RU": "Брайан", "NAME_SV": "Bryan", "NAME_TR": "Bryan", "NAME_UK": "Браян", "NAME_UR": "برائن کاؤنٹی، اوکلاہوما", "NAME_VI": null, "NAME_ZH": "布赖恩县", "NAME_ZHT": "布賴恩縣" }, "geometry": { "type": "MultiPolygon", "coordinates": [ [ [ [ -96.540887, 33.828178 ], [ -96.581976, 33.838725 ], [ -96.594232, 33.84976 ], [ -96.598065, 33.853373 ], [ -96.601068, 33.857768 ], [ -96.602509, 33.862846 ], [ -96.602557, 33.868266 ], [ -96.600702, 33.873222 ], [ -96.589862, 33.891899 ], [ -96.592499, 33.897831 ], [ -96.574208, 33.955146 ], [ -96.580068, 33.968817 ], [ -96.600141, 33.978869 ], [ -96.624935, 34.008846 ], [ -96.591786, 34.023505 ], [ -96.560536, 34.060614 ], [ -96.5572, 34.079657 ], [ -96.561529, 34.094211 ], [ -96.575577, 34.115785 ], [ -96.453832, 34.1144 ], [ -96.453894, 34.157342 ], [ -96.407633, 34.157311 ], [ -96.233946, 34.157041 ], [ -95.99157, 34.156809 ], [ -95.951253, 34.14474 ], [ -95.938143, 34.125094 ], [ -95.937936, 33.953309 ], [ -95.917532, 33.924174 ], [ -95.878789, 33.916015 ], [ -95.858803, 33.887816 ], [ -95.840637, 33.874126 ], [ -95.820819, 33.855448 ], [ -95.848895, 33.851493 ], [ -95.860394, 33.853959 ], [ -95.916962, 33.884062 ], [ -95.927582, 33.893022 ], [ -95.937885, 33.895561 ], [ -95.950458, 33.889457 ], [ -95.96098, 33.879985 ], [ -95.965424, 33.872538 ], [ -95.972528, 33.873027 ], [ -95.987836, 33.866264 ], [ -96.006415, 33.855448 ], [ -96.040204, 33.84329 ], [ -96.054218, 33.841801 ], [ -96.105414, 33.841801 ], [ -96.115302, 33.839701 ], [ -96.135858, 33.830278 ], [ -96.146698, 33.828178 ], [ -96.156415, 33.821171 ], [ -96.174091, 33.786723 ], [ -96.183905, 33.773539 ], [ -96.202728, 33.763676 ], [ -96.22077, 33.76204 ], [ -96.263373, 33.766044 ], [ -96.28952, 33.763041 ], [ -96.295868, 33.754057 ], [ -96.295477, 33.739115 ], [ -96.301215, 33.718315 ], [ -96.328778, 33.70186 ], [ -96.358612, 33.725614 ], [ -96.383359, 33.757987 ], [ -96.387054, 33.762821 ], [ -96.410468, 33.786576 ], [ -96.428705, 33.789726 ], [ -96.496454, 33.786576 ], [ -96.504047, 33.789921 ], [ -96.507806, 33.797856 ], [ -96.510199, 33.807133 ], [ -96.513495, 33.814506 ], [ -96.518915, 33.818754 ], [ -96.540887, 33.828178 ] ] ] ] } },
{ "type": "Feature", "properties": { "FEATURECLA": "Admin-2 scale rank", "SCALERANK": 0, "ADM2_CODE": "USA-40115", "ISO_3166_2": "US-40", "ISO_A2": "US", "ADM0_SR": 1, "NAME": "Ottawa", "NAME_ALT": "Ottawa County", "NAME_LOCAL": null, "TYPE": "County", "TYPE_EN": "County", "CODE_LOCAL": "40115", "REGION": "OK", "REGION_COD": "40", "ABBREV": null, "AREA_SQKM": 1261, "SAMEASCITY": 0, "LABELRANK": 0, "NAME_LEN": 6, "MAPCOLOR9": 1, "MAPCOLOR13": 1, "FIPS": "US40115", "SOV_A3": "US1", "ADM0_A3": "USA", "ADM0_LABEL": 2, "ADMIN": "United States of America", "GEONUNIT": "United States of America", "GU_A3": "USA", "MIN_LABEL": 8, "MAX_LABEL": 10, "MIN_ZOOM": 6.6, "WIKIDATAID": "Q495564", "NE_ID": 1730094243, "latitude": 36.835216, "longitude": -94.810601, "NAME_AR": "أوتاوا", "NAME_BN": null, "NAME_DE": "Ottawa", "NAME_EL": null, "NAME_EN": "Ottawa", "NAME_ES": "Ottawa", "NAME_FA": "شهرستان اتاوا، اکلاهما", "NAME_FR": "'Ottawa", "NAME_HE": "מחוז אוטווה", "NAME_HI": null, "NAME_HU": "Ottawa", "NAME_ID": null, "NAME_IT": "Ottawa", "NAME_JA": "オタワ郡", "NAME_KO": "오타와", "NAME_NL": "Ottawa", "NAME_PL": "Ottawa", "NAME_PT": "Ottawa", "NAME_RU": "Оттава", "NAME_SV": "Ottawa", "NAME_TR": "Ottawa", "NAME_UK": "Оттава", "NAME_UR": "اوٹاوا کاؤنٹی، اوکلاہوما", "NAME_VI": "Ottawa", "NAME_ZH": "渥太华县", "NAME_ZHT": "渥太華縣" }, "geometry": { "type": "MultiPolygon", "coordinates": [ [ [ [ -95.049571, 36.999809 ], [ -94.849091, 36.999809 ], [ -94.618036, 36.999809 ], [ -94.61806, 36.874809 ], [ -94.618166, 36.766553 ], [ -94.618182, 36.749809 ], [ -94.618214, 36.667862 ], [ -94.779236, 36.667756 ], [ -94.782228, 36.670615 ], [ -94.99956, 36.670677 ], [ -94.999008, 36.946579 ], [ -95.032867, 36.979193 ], [ -95.049571, 36.999809 ] ] ] ] } },
{ "type": "Feature", "properties": { "FEATURECLA": "Admin-2 scale rank", "SCALERANK": 0, "ADM2_CODE": "USA-40035", "ISO_3166_2": "US-40", "ISO_A2": "US", "ADM0_SR": 1, "NAME": "Craig", "NAME_ALT": "Craig County", "NAME_LOCAL": null, "TYPE": "County", "TYPE_EN": "County", "CODE_LOCAL": "40035", "REGION": "OK", "REGION_COD": "40", "ABBREV": null, "AREA_SQKM": 1975, "SAMEASCITY": 0, "LABELRANK": 0, "NAME_LEN": 5, "MAPCOLOR9": 1, "MAPCOLOR13": 1, "FIPS": "US40035", "SOV_A3": "US1", "ADM0_A3": "USA", "ADM0_LABEL": 2, "ADMIN": "United States of America", "GEONUNIT": "United States of America", "GU_A3": "USA", "MIN_LABEL": 8, "MAX_LABEL": 10, "MIN_ZOOM": 6.6, "WIKIDATAID": "Q490799", "NE_ID": 1730094155, "latitude": 36.763595, "longitude": -95.205707, "NAME_AR": "كريغ", "NAME_BN": null, "NAME_DE": "Craig", "NAME_EL": null, "NAME_EN": "Craig", "NAME_ES": "Craig", "NAME_FA": "شهرستان کریگ، اکلاهما", "NAME_FR": "Craig", "NAME_HE": "מחוז קרייג", "NAME_HI": null, "NAME_HU": "Craig", "NAME_ID": null, "NAME_IT": "Craig", "NAME_JA": "クレイグ郡", "NAME_KO": "크레이그", "NAME_NL": "Craig", "NAME_PL": "Craig", "NAME_PT": "Craig", "NAME_RU": "Крейг", "NAME_SV": "Craig", "NAME_TR": "Craig", "NAME_UK": "Крейґ", "NAME_UR": "کریگ کاؤنٹی، اوکلاہوما", "NAME_VI": "Craig", "NAME_ZH": "克雷格县", "NAME_ZHT": "克雷格郡" }, "geometry": { "type": "MultiPolygon", "coordinates": [ [ [ [ -95.080145, 36.999809 ], [ -95.049571, 36.999809 ], [ -95.032867, 36.979193 ], [ -94.999008, 36.946579 ], [ -94.99956, 36.670677 ], [ -94.999589, 36.597959 ], [ -95.005679, 36.597438 ], [ -95.005711, 36.509772 ], [ -95.328021, 36.510256 ], [ -95.328411, 36.597566 ], [ -95.431502, 36.597545 ], [ -95.431726, 36.942771 ], [ -95.407837, 36.942642 ], [ -95.407678, 36.999809 ], [ -95.311224, 36.999809 ], [ -95.080145, 36.999809 ] ] ] ] } },
{ "type": "Feature", "properties": { "FEATURECLA": "Admin-2 scale rank", "SCALERANK": 0, "ADM2_CODE": "USA-40105", "ISO_3166_2": "US-40", "ISO_A2": "US", "ADM0_SR": 1, "NAME": "Nowata", "NAME_ALT": "Nowata County", "NAME_LOCAL": null, "TYPE": "County", "TYPE_EN": "County", "CODE_LOCAL": "40105", "REGION": "OK", "REGION_COD": "40", "ABBREV": null, "AREA_SQKM": 1507, "SAMEASCITY": 0, "LABELRANK": 0, "NAME_LEN": 6, "MAPCOLOR9": 1, "MAPCOLOR13": 1, "FIPS": "US40105", "SOV_A3": "US1", "ADM0_A3": "USA", "ADM0_LABEL": 2, "ADMIN": "United States of America", "GEONUNIT": "United States of America", "GU_A3": "USA", "MIN_LABEL": 8, "MAX_LABEL": 10, "MIN_ZOOM": 6.6, "WIKIDATAID": "Q495918", "NE_ID": 1730094231, "latitude": 36.798658, "longitude": -95.620038, "NAME_AR": "نوواتا، أوكلاهوما", "NAME_BN": null, "NAME_DE": "Nowata", "NAME_EL": null, "NAME_EN": "Nowata", "NAME_ES": "Nowata", "NAME_FA": "شهرستان نوواتا، اکلاهما", "NAME_FR": "Nowata", "NAME_HE": "מחוז נאווטה", "NAME_HI": null, "NAME_HU": "Nowata", "NAME_ID": null, "NAME_IT": "Nowata", "NAME_JA": "ノワタ郡", "NAME_KO": "노와타", "NAME_NL": "Nowata", "NAME_PL": "Nowata", "NAME_PT": "Nowata", "NAME_RU": "Новата", "NAME_SV": "Nowata", "NAME_TR": "Nowata", "NAME_UK": "Новата", "NAME_UR": "نوواٹا کاؤنٹی، اوکلاہوما", "NAME_VI": "Nowata", "NAME_ZH": "诺瓦塔县", "NAME_ZHT": "諾瓦塔郡" }, "geometry": { "type": "MultiPolygon", "coordinates": [ [ [ [ -95.522408, 36.999809 ], [ -95.407678, 36.999809 ], [ -95.407837, 36.942642 ], [ -95.431726, 36.942771 ], [ -95.431502, 36.597545 ], [ -95.80961, 36.59747 ], [ -95.809985, 36.941868 ], [ -95.786812, 36.941912 ], [ -95.786755, 36.999809 ], [ -95.773407, 36.999809 ], [ -95.542328, 36.999809 ], [ -95.522408, 36.999809 ] ] ] ] } },
{ "type": "Feature", "properties": { "FEATURECLA": "Admin-2 scale rank", "SCALERANK": 0, "ADM2_CODE": "USA-40147", "ISO_3166_2": "US-40", "ISO_A2": "US", "ADM0_SR": 1, "NAME": "Washington", "NAME_ALT": "Washington County", "NAME_LOCAL": null, "TYPE": "County", "TYPE_EN": "County", "CODE_LOCAL": "40147", "REGION": "OK", "REGION_COD": "40", "ABBREV": null, "AREA_SQKM": 1105, "SAMEASCITY": 0, "LABELRANK": 0, "NAME_LEN": 10, "MAPCOLOR9": 1, "MAPCOLOR13": 1, "FIPS": "US40147", "SOV_A3": "US1", "ADM0_A3": "USA", "ADM0_LABEL": 2, "ADMIN": "United States of America", "GEONUNIT": "United States of America", "GU_A3": "USA", "MIN_LABEL": 8, "MAX_LABEL": 10, "MIN_ZOOM": 6.6, "WIKIDATAID": "Q489486", "NE_ID": 1730094279, "latitude": 36.716068, "longitude": -95.906173, "NAME_AR": "واشنطن، أوكلاهوما", "NAME_BN": "ওয়াশিংটন কাউন্টি", "NAME_DE": "Washington", "NAME_EL": null, "NAME_EN": "Washington", "NAME_ES": "Washington", "NAME_FA": "شهرستان واشینگتن، اکلاهما", "NAME_FR": "Washington", "NAME_HE": "מחוז וושינגטון", "NAME_HI": null, "NAME_HU": "Washington", "NAME_ID": null, "NAME_IT": "Washington", "NAME_JA": "ワシントン郡", "NAME_KO": "워싱턴", "NAME_NL": "Washington", "NAME_PL": "Washington", "NAME_PT": "Washington", "NAME_RU": "Вашингтон", "NAME_SV": "Washington", "NAME_TR": "Washington", "NAME_UK": "Вашингтон", "NAME_UR": "واشنگٹن کاؤنٹی، اوکلاہوما", "NAME_VI": "Washington", "NAME_ZH": "华盛顿县", "NAME_ZHT": "華盛頓縣" }, "geometry": { "type": "MultiPolygon", "coordinates": [ [ [ [ -95.964262, 36.999809 ], [ -95.786755, 36.999809 ], [ -95.786812, 36.941912 ], [ -95.809985, 36.941868 ], [ -95.80961, 36.59747 ], [ -95.812441, 36.59751 ], [ -95.812673, 36.423554 ], [ -96.001165, 36.42368 ], [ -96.00093, 36.735722 ], [ -96.004511, 36.999809 ], [ -95.964262, 36.999809 ] ] ] ] } },
{ "type": "Feature", "properties": { "FEATURECLA": "Admin-2 scale rank", "SCALERANK": 0, "ADM2_CODE": "USA-40113", "ISO_3166_2": "US-40", "ISO_A2": "US", "ADM0_SR": 1, "NAME": "Osage", "NAME_ALT": "Osage County", "NAME_LOCAL": null, "TYPE": "County", "TYPE_EN": "County", "CODE_LOCAL": "40113", "REGION": "OK", "REGION_COD": "40", "ABBREV": null, "AREA_SQKM": 5891, "SAMEASCITY": 0, "LABELRANK": 0, "NAME_LEN": 5, "MAPCOLOR9": 1, "MAPCOLOR13": 1, "FIPS": "US40113", "SOV_A3": "US1", "ADM0_A3": "USA", "ADM0_LABEL": 2, "ADMIN": "United States of America", "GEONUNIT": "United States of America", "GU_A3": "USA", "MIN_LABEL": 8, "MAX_LABEL": 10, "MIN_ZOOM": 6.6, "WIKIDATAID": "Q495925", "NE_ID": 1730094241, "latitude": 36.653014, "longitude": -96.332761, "NAME_AR": "أوسايج", "NAME_BN": null, "NAME_DE": "Osage", "NAME_EL": null, "NAME_EN": "Osage", "NAME_ES": "Osage", "NAME_FA": "شهرستان اوسیج، اکلاهما", "NAME_FR": "'Osage", "NAME_HE": "מחוז אוסאגי", "NAME_HI": null, "NAME_HU": "Osage", "NAME_ID": null, "NAME_IT": "Osage", "NAME_JA": "オーセージ郡", "NAME_KO": "오세이지", "NAME_NL": "Osage", "NAME_PL": "Osage", "NAME_PT": "Osage", "NAME_RU": "Осейдж", "NAME_SV": "Osage", "NAME_TR": "Osage", "NAME_UK": "Осадж", "NAME_UR": "آسیج کاؤنٹی، اوکلاہوما", "NAME_VI": "Osage", "NAME_ZH": "欧塞奇县", "NAME_ZHT": "歐塞奇郡" }, "geometry": { "type": "MultiPolygon", "coordinates": [ [ [ [ -96.525488, 36.999809 ], [ -96.466693, 36.999809 ], [ -96.23559, 36.999809 ], [ -96.004511, 36.999809 ], [ -96.00093, 36.735722 ], [ -96.001165, 36.42368 ], [ -96.001611, 36.161309 ], [ -96.161475, 36.160979 ], [ -96.263539, 36.16413 ], [ -96.261383, 36.169867 ], [ -96.255971, 36.176378 ], [ -96.252919, 36.188544 ], [ -96.253163, 36.209174 ], [ -96.257151, 36.223009 ], [ -96.269154, 36.232489 ], [ -96.293853, 36.240058 ], [ -96.338938, 36.246649 ], [ -96.36144, 36.252468 ], [ -96.379633, 36.26298 ], [ -96.429026, 36.304633 ], [ -96.43106, 36.315212 ], [ -96.437856, 36.316433 ], [ -96.440745, 36.318427 ], [ -96.442209, 36.320624 ], [ -96.444692, 36.322618 ], [ -96.455149, 36.326931 ], [ -96.462717, 36.328681 ], [ -96.482574, 36.328884 ], [ -96.492421, 36.32453 ], [ -96.510365, 36.305772 ], [ -96.516998, 36.30154 ], [ -96.542633, 36.306952 ], [ -96.550852, 36.320665 ], [ -96.548085, 36.33865 ], [ -96.534169, 36.377997 ], [ -96.532216, 36.398017 ], [ -96.53893, 36.406806 ], [ -96.557973, 36.394314 ], [ -96.574208, 36.391059 ], [ -96.591461, 36.40412 ], [ -96.608225, 36.421739 ], [ -96.622874, 36.432481 ], [ -96.695139, 36.439399 ], [ -96.705434, 36.449246 ], [ -96.707784, 36.490518 ], [ -96.711741, 36.506293 ], [ -96.718414, 36.521267 ], [ -96.741363, 36.559597 ], [ -96.758209, 36.572089 ], [ -96.777415, 36.565294 ], [ -96.867055, 36.488593 ], [ -96.901235, 36.467475 ], [ -96.938547, 36.459581 ], [ -96.979115, 36.473456 ], [ -96.989735, 36.485216 ], [ -97.002024, 36.505886 ], [ -97.005605, 36.52558 ], [ -96.98998, 36.534247 ], [ -96.967437, 36.535956 ], [ -96.942494, 36.541083 ], [ -96.919789, 36.549628 ], [ -96.904042, 36.561591 ], [ -96.898793, 36.590115 ], [ -96.93871, 36.592108 ], [ -96.993886, 36.587592 ], [ -97.034413, 36.5963 ], [ -97.041127, 36.61164 ], [ -97.0419, 36.650946 ], [ -97.051422, 36.668321 ], [ -97.059193, 36.687201 ], [ -97.040395, 36.696845 ], [ -97.012766, 36.700019 ], [ -96.993398, 36.699327 ], [ -96.970123, 36.695502 ], [ -96.947662, 36.694607 ], [ -96.926584, 36.700263 ], [ -96.906724, 36.716132 ], [ -96.894154, 36.731635 ], [ -96.882558, 36.742784 ], [ -96.869008, 36.750108 ], [ -96.821667, 36.75783 ], [ -96.822579, 36.767553 ], [ -96.788681, 36.767548 ], [ -96.788653, 36.781966 ], [ -96.752711, 36.782042 ], [ -96.752143, 36.941255 ], [ -96.74983, 36.999809 ], [ -96.697772, 36.999809 ], [ -96.525488, 36.999809 ] ] ] ] } },
{ "type": "Feature", "properties": { "FEATURECLA": "Admin-2 scale rank", "SCALERANK": 0, "ADM2_CODE": "USA-40071", "ISO_3166_2": "US-40", "ISO_A2": "US", "ADM0_SR": 1, "NAME": "Kay", "NAME_ALT": "Kay County", "NAME_LOCAL": null, "TYPE": "County", "TYPE_EN": "County", "CODE_LOCAL": "40071", "REGION": "OK", "REGION_COD": "40", "ABBREV": null, "AREA_SQKM": 2458, "SAMEASCITY": 0, "LABELRANK": 0, "NAME_LEN": 3, "MAPCOLOR9": 1, "MAPCOLOR13": 1, "FIPS": "US40071", "SOV_A3": "US1", "ADM0_A3": "USA", "ADM0_LABEL": 2, "ADMIN": "United States of America", "GEONUNIT": "United States of America", "GU_A3": "USA", "MIN_LABEL": 8, "MAX_LABEL": 10, "MIN_ZOOM": 6.6, "WIKIDATAID": "Q489318", "NE_ID": 1730094195, "latitude": 36.825301, "longitude": -97.167682, "NAME_AR": "كاي", "NAME_BN": null, "NAME_DE": "Kay", "NAME_EL": null, "NAME_EN": "Kay", "NAME_ES": "Kay", "NAME_FA": "شهرستان کی، اکلاهما", "NAME_FR": "Kay", "NAME_HE": "מחוז קיי", "NAME_HI": null, "NAME_HU": "Kay", "NAME_ID": null, "NAME_IT": "Kay", "NAME_JA": "ケイ郡", "NAME_KO": "케이", "NAME_NL": "Kay", "NAME_PL": "Kay", "NAME_PT": "Kay", "NAME_RU": "Кей", "NAME_SV": "Kay", "NAME_TR": "Kay", "NAME_UK": "Кей", "NAME_UR": "کے کاؤنٹی، اوکلاہوما", "NAME_VI": "Kay", "NAME_ZH": "凯县", "NAME_ZHT": "凱郡" }, "geometry": { "type": "MultiPolygon", "coordinates": [ [ [ [ -97.147713, 36.999809 ], [ -96.928851, 36.999809 ], [ -96.74983, 36.999809 ], [ -96.752143, 36.941255 ], [ -96.752711, 36.782042 ], [ -96.788653, 36.781966 ], [ -96.788681, 36.767548 ], [ -96.822579, 36.767553 ], [ -96.821667, 36.75783 ], [ -96.869008, 36.750108 ], [ -96.882558, 36.742784 ], [ -96.894154, 36.731635 ], [ -96.906724, 36.716132 ], [ -96.926584, 36.700263 ], [ -96.947662, 36.694607 ], [ -96.970123, 36.695502 ], [ -96.993398, 36.699327 ], [ -97.012766, 36.700019 ], [ -97.040395, 36.696845 ], [ -97.059193, 36.687201 ], [ -97.051422, 36.668321 ], [ -97.0419, 36.650946 ], [ -97.041127, 36.61164 ], [ -97.034413, 36.5963 ], [ -97.068858, 36.593847 ], [ -97.461595, 36.593631 ], [ -97.462451, 36.593621 ], [ -97.462206, 36.781725 ], [ -97.462338, 36.999809 ], [ -97.391058, 36.999809 ], [ -97.159955, 36.999809 ], [ -97.147713, 36.999809 ] ] ] ] } },
{ "type": "Feature", "properties": { "FEATURECLA": "Admin-2 scale rank", "SCALERANK": 0, "ADM2_CODE": "USA-40053", "ISO_3166_2": "US-40", "ISO_A2": "US", "ADM0_SR": 1, "NAME": "Grant", "NAME_ALT": "Grant County", "NAME_LOCAL": null, "TYPE": "County", "TYPE_EN": "County", "CODE_LOCAL": "40053", "REGION": "OK", "REGION_COD": "40", "ABBREV": null, "AREA_SQKM": 2607, "SAMEASCITY": 0, "LABELRANK": 0, "NAME_LEN": 5, "MAPCOLOR9": 1, "MAPCOLOR13": 1, "FIPS": "US40053", "SOV_A3": "US1", "ADM0_A3": "USA", "ADM0_LABEL": 2, "ADMIN": "United States of America", "GEONUNIT": "United States of America", "GU_A3": "USA", "MIN_LABEL": 8, "MAX_LABEL": 10, "MIN_ZOOM": 6.6, "WIKIDATAID": "Q486621", "NE_ID": 1730094175, "latitude": 36.796499, "longitude": -97.785612, "NAME_AR": "غرانت", "NAME_BN": null, "NAME_DE": "Grant", "NAME_EL": null, "NAME_EN": "Grant", "NAME_ES": "Grant", "NAME_FA": "شهرستان گرانت، اکلاهما", "NAME_FR": "Grant", "NAME_HE": "מחוז גרנט", "NAME_HI": null, "NAME_HU": "Grant", "NAME_ID": null, "NAME_IT": "Grant", "NAME_JA": "グラント郡", "NAME_KO": "그랜트", "NAME_NL": "Grant", "NAME_PL": "Grant", "NAME_PT": "Grant", "NAME_RU": "Грант", "NAME_SV": "Grant", "NAME_TR": "Grant", "NAME_UK": "Ґрант", "NAME_UR": "گرانٹ کاؤنٹی، اوکلاہوما", "NAME_VI": "Grant", "NAME_ZH": "格兰特县", "NAME_ZHT": "格蘭特縣" }, "geometry": { "type": "MultiPolygon", "coordinates": [ [ [ [ -97.802305, 36.999809 ], [ -97.622137, 36.999809 ], [ -97.462338, 36.999809 ], [ -97.462206, 36.781725 ], [ -97.462451, 36.593621 ], [ -97.76504, 36.593165 ], [ -98.104278, 36.593572 ], [ -98.109303, 36.593582 ], [ -98.110246, 36.764683 ], [ -98.109568, 36.942032 ], [ -98.111977, 36.999809 ], [ -98.084271, 36.999809 ], [ -97.853217, 36.999809 ], [ -97.802305, 36.999809 ] ] ] ] } },
{ "type": "Feature", "properties": { "FEATURECLA": "Admin-2 scale rank", "SCALERANK": 0, "ADM2_CODE": "USA-40003", "ISO_3166_2": "US-40", "ISO_A2": "US", "ADM0_SR": 1, "NAME": "Alfalfa", "NAME_ALT": "Alfalfa County", "NAME_LOCAL": null, "TYPE": "County", "TYPE_EN": "County", "CODE_LOCAL": "40003", "REGION": "OK", "REGION_COD": "40", "ABBREV": null, "AREA_SQKM": 2291, "SAMEASCITY": 0, "LABELRANK": 0, "NAME_LEN": 7, "MAPCOLOR9": 1, "MAPCOLOR13": 1, "FIPS": "US40003", "SOV_A3": "US1", "ADM0_A3": "USA", "ADM0_LABEL": 2, "ADMIN": "United States of America", "GEONUNIT": "United States of America", "GU_A3": "USA", "MIN_LABEL": 8, "MAX_LABEL": 10, "MIN_ZOOM": 6.6, "WIKIDATAID": "Q490796", "NE_ID": 1730094119, "latitude": 36.731423, "longitude": -98.323809, "NAME_AR": "الفالفا", "NAME_BN": null, "NAME_DE": "Alfalfa", "NAME_EL": null, "NAME_EN": "Alfalfa", "NAME_ES": "Alfalfa", "NAME_FA": "شهرستان الفالفا، اکلاهما", "NAME_FR": "'Alfalfa", "NAME_HE": "מחוז אלפהאלפה", "NAME_HI": null, "NAME_HU": "Alfalfa", "NAME_ID": null, "NAME_IT": "Alfalfa", "NAME_JA": "アルファルファ郡", "NAME_KO": "앨팰파", "NAME_NL": "Alfalfa", "NAME_PL": "Alfalfa", "NAME_PT": "Alfalfa", "NAME_RU": "Алфалфа", "NAME_SV": "Alfalfa", "NAME_TR": "Alfalfa", "NAME_UK": "Алфалфа", "NAME_UR": "الفالفا کاؤنٹی، اوکلاہوما", "NAME_VI": null, "NAME_ZH": "亚尔发法县", "NAME_ZHT": "亞爾發法縣" }, "geometry": { "type": "MultiPolygon", "coordinates": [ [ [ [ -98.347141, 36.999809 ], [ -98.31535, 36.999809 ], [ -98.111977, 36.999809 ], [ -98.109568, 36.942032 ], [ -98.110246, 36.764683 ], [ -98.109303, 36.593582 ], [ -98.104278, 36.593572 ], [ -98.104419, 36.463099 ], [ -98.427277, 36.46301 ], [ -98.533609, 36.463224 ], [ -98.533392, 36.594211 ], [ -98.540492, 36.594204 ], [ -98.540229, 36.942222 ], [ -98.544981, 36.942235 ], [ -98.546454, 36.999809 ], [ -98.347141, 36.999809 ] ] ] ] } },
{ "type": "Feature", "properties": { "FEATURECLA": "Admin-2 scale rank", "SCALERANK": 0, "ADM2_CODE": "USA-40151", "ISO_3166_2": "US-40", "ISO_A2": "US", "ADM0_SR": 1, "NAME": "Woods", "NAME_ALT": "Woods County", "NAME_LOCAL": null, "TYPE": "County", "TYPE_EN": "County", "CODE_LOCAL": "40151", "REGION": "OK", "REGION_COD": "40", "ABBREV": null, "AREA_SQKM": 3224, "SAMEASCITY": 0, "LABELRANK": 0, "NAME_LEN": 5, "MAPCOLOR9": 1, "MAPCOLOR13": 1, "FIPS": "US40151", "SOV_A3": "US1", "ADM0_A3": "USA", "ADM0_LABEL": 2, "ADMIN": "United States of America", "GEONUNIT": "United States of America", "GU_A3": "USA", "MIN_LABEL": 8, "MAX_LABEL": 10, "MIN_ZOOM": 6.6, "WIKIDATAID": "Q489468", "NE_ID": 1730094283, "latitude": 36.761432, "longitude": -98.780578, "NAME_AR": "وودز، أوكلاهوما", "NAME_BN": null, "NAME_DE": "Woods", "NAME_EL": null, "NAME_EN": "Woods", "NAME_ES": "Woods", "NAME_FA": "شهرستان وودز، اکلاهما", "NAME_FR": "Woods", "NAME_HE": "מחוז וודס", "NAME_HI": null, "NAME_HU": "Woods", "NAME_ID": null, "NAME_IT": "Woods", "NAME_JA": "ウッズ郡", "NAME_KO": "우즈", "NAME_NL": "Woods", "NAME_PL": "Woods", "NAME_PT": "Woods", "NAME_RU": "Вудс", "NAME_SV": "Woods", "NAME_TR": "Woods", "NAME_UK": "Вудс", "NAME_UR": "ووڈز کاؤنٹی، اوکلاہوما", "NAME_VI": "Woods", "NAME_ZH": "伍兹县", "NAME_ZHT": "伍茲郡" }, "geometry": { "type": "MultiPolygon", "coordinates": [ [ [ [ -99.008612, 36.999809 ], [ -98.777509, 36.999809 ], [ -98.546454, 36.999809 ], [ -98.544981, 36.942235 ], [ -98.540229, 36.942222 ], [ -98.540492, 36.594204 ], [ -98.533392, 36.594211 ], [ -98.533609, 36.463224 ], [ -98.533542, 36.418484 ], [ -98.553049, 36.421658 ], [ -98.608833, 36.409288 ], [ -98.62857, 36.410224 ], [ -98.666127, 36.422309 ], [ -98.708811, 36.442654 ], [ -98.720608, 36.460395 ], [ -98.747141, 36.466579 ], [ -98.785471, 36.471869 ], [ -98.797271, 36.476589 ], [ -98.817494, 36.487901 ], [ -98.833648, 36.505723 ], [ -98.960326, 36.506908 ], [ -98.959968, 36.610173 ], [ -98.985463, 36.626654 ], [ -98.999664, 36.64643 ], [ -99.022776, 36.65823 ], [ -99.028717, 36.663926 ], [ -99.044993, 36.696153 ], [ -99.092356, 36.741075 ], [ -99.100942, 36.753363 ], [ -99.136464, 36.786973 ], [ -99.169667, 36.800238 ], [ -99.188547, 36.806098 ], [ -99.220123, 36.805732 ], [ -99.236037, 36.803548 ], [ -99.24942, 36.804226 ], [ -99.284983, 36.820095 ], [ -99.295494, 36.824937 ], [ -99.306142, 36.831244 ], [ -99.316486, 36.851874 ], [ -99.318023, 36.860948 ], [ -99.32429, 36.876532 ], [ -99.339508, 36.885525 ], [ -99.363108, 36.890082 ], [ -99.373402, 36.893907 ], [ -99.383625, 36.900092 ], [ -99.390126, 36.919379 ], [ -99.409657, 36.939887 ], [ -99.419342, 36.953559 ], [ -99.425526, 36.983018 ], [ -99.441111, 36.999809 ], [ -99.239691, 36.999809 ], [ -99.008612, 36.999809 ] ] ] ] } },
{ "type": "Feature", "properties": { "FEATURECLA": "Admin-2 scale rank", "SCALERANK": 0, "ADM2_CODE": "USA-40059", "ISO_3166_2": "US-40", "ISO_A2": "US", "ADM0_SR": 1, "NAME": "Harper", "NAME_ALT": "Harper County", "NAME_LOCAL": null, "TYPE": "County", "TYPE_EN": "County", "CODE_LOCAL": "40059", "REGION": "OK", "REGION_COD": "40", "ABBREV": null, "AREA_SQKM": 2712, "SAMEASCITY": 0, "LABELRANK": 0, "NAME_LEN": 6, "MAPCOLOR9": 1, "MAPCOLOR13": 1, "FIPS": "US40059", "SOV_A3": "US1", "ADM0_A3": "USA", "ADM0_LABEL": 2, "ADMIN": "United States of America", "GEONUNIT": "United States of America", "GU_A3": "USA", "MIN_LABEL": 8, "MAX_LABEL": 10, "MIN_ZOOM": 6.6, "WIKIDATAID": "Q485001", "NE_ID": 1730094181, "latitude": 36.796314, "longitude": -99.664916, "NAME_AR": "هاربر، أوكلاهوما", "NAME_BN": null, "NAME_DE": "Harper", "NAME_EL": null, "NAME_EN": "Harper", "NAME_ES": "Harper", "NAME_FA": "شهرستان هارپر، اکلاهما", "NAME_FR": "Harper", "NAME_HE": "מחוז הארפר", "NAME_HI": null, "NAME_HU": "Harper", "NAME_ID": null, "NAME_IT": "Harper", "NAME_JA": "ハーパー郡", "NAME_KO": "하퍼", "NAME_NL": "Harper", "NAME_PL": "Harper", "NAME_PT": "Harper", "NAME_RU": "Харпер", "NAME_SV": "Harper", "NAME_TR": "Harper", "NAME_UK": "Гарпер", "NAME_UR": "ہارپر کاؤنٹی، اوکلاہوما", "NAME_VI": "Harper", "NAME_ZH": "哈珀县", "NAME_ZHT": "哈珀郡" }, "geometry": { "type": "MultiPolygon", "coordinates": [ [ [ [ -99.541108, 36.999809 ], [ -99.470795, 36.999809 ], [ -99.441111, 36.999809 ], [ -99.425526, 36.983018 ], [ -99.419342, 36.953559 ], [ -99.409657, 36.939887 ], [ -99.390126, 36.919379 ], [ -99.383625, 36.900092 ], [ -99.373402, 36.893907 ], [ -99.363108, 36.890082 ], [ -99.339508, 36.885525 ], [ -99.32429, 36.876532 ], [ -99.318023, 36.860948 ], [ -99.316486, 36.851874 ], [ -99.306142, 36.831244 ], [ -99.295494, 36.824937 ], [ -99.295249, 36.595117 ], [ -99.605557, 36.592747 ], [ -100.003132, 36.593226 ], [ -100.003866, 36.764216 ], [ -100.002554, 36.999809 ], [ -99.932977, 36.999809 ], [ -99.701874, 36.999809 ], [ -99.541108, 36.999809 ] ] ] ] } },
{ "type": "Feature", "properties": { "FEATURECLA": "Admin-2 scale rank", "SCALERANK": 0, "ADM2_CODE": "USA-40041", "ISO_3166_2": "US-40", "ISO_A2": "US", "ADM0_SR": 1, "NAME": "Delaware", "NAME_ALT": "Delaware County", "NAME_LOCAL": null, "TYPE": "County", "TYPE_EN": "County", "CODE_LOCAL": "40041", "REGION": "OK", "REGION_COD": "40", "ABBREV": null, "AREA_SQKM": 2051, "SAMEASCITY": 0, "LABELRANK": 0, "NAME_LEN": 8, "MAPCOLOR9": 1, "MAPCOLOR13": 1, "FIPS": "US40041", "SOV_A3": "US1", "ADM0_A3": "USA", "ADM0_LABEL": 2, "ADMIN": "United States of America", "GEONUNIT": "United States of America", "GU_A3": "USA", "MIN_LABEL": 8, "MAX_LABEL": 10, "MIN_ZOOM": 6.6, "WIKIDATAID": "Q484752", "NE_ID": 1730094161, "latitude": 36.407061, "longitude": -94.805773, "NAME_AR": "ديلوير", "NAME_BN": null, "NAME_DE": "Delaware", "NAME_EL": null, "NAME_EN": "Delaware", "NAME_ES": "Delaware", "NAME_FA": "شهرستان دلاویر، اکلاهما", "NAME_FR": "Delaware", "NAME_HE": "מחוז דלאוור", "NAME_HI": null, "NAME_HU": "Delaware", "NAME_ID": null, "NAME_IT": "Delaware", "NAME_JA": "デラウェア郡", "NAME_KO": "델라웨어", "NAME_NL": "Delaware", "NAME_PL": "Delaware", "NAME_PT": "Delaware", "NAME_RU": "Делавэр", "NAME_SV": "Delaware", "NAME_TR": "Delaware", "NAME_UK": "Делавер", "NAME_UR": "ڈیلاویئر کاؤنٹی، اوکلاہوما", "NAME_VI": "Delaware", "NAME_ZH": "特拉华县", "NAME_ZHT": "特拉華縣" }, "geometry": { "type": "MultiPolygon", "coordinates": [ [ [ [ -94.618214, 36.667862 ], [ -94.618231, 36.624809 ], [ -94.618329, 36.499833 ], [ -94.595917, 36.360624 ], [ -94.573505, 36.221415 ], [ -94.563895, 36.161716 ], [ -94.797272, 36.161384 ], [ -95.011296, 36.161792 ], [ -95.011372, 36.249462 ], [ -95.005965, 36.250083 ], [ -95.005711, 36.509772 ], [ -95.005679, 36.597438 ], [ -94.999589, 36.597959 ], [ -94.99956, 36.670677 ], [ -94.782228, 36.670615 ], [ -94.779236, 36.667756 ], [ -94.618214, 36.667862 ] ] ] ] } },
{ "type": "Feature", "properties": { "FEATURECLA": "Admin-2 scale rank", "SCALERANK": 0, "ADM2_CODE": "USA-40001", "ISO_3166_2": "US-40", "ISO_A2": "US", "ADM0_SR": 1, "NAME": "Adair", "NAME_ALT": "Adair County", "NAME_LOCAL": null, "TYPE": "County", "TYPE_EN": "County", "CODE_LOCAL": "40001", "REGION": "OK", "REGION_COD": "40", "ABBREV": null, "AREA_SQKM": 1471, "SAMEASCITY": 0, "LABELRANK": 0, "NAME_LEN": 5, "MAPCOLOR9": 1, "MAPCOLOR13": 1, "FIPS": "US40001", "SOV_A3": "US1", "ADM0_A3": "USA", "ADM0_LABEL": 2, "ADMIN": "United States of America", "GEONUNIT": "United States of America", "GU_A3": "USA", "MIN_LABEL": 8, "MAX_LABEL": 10, "MIN_ZOOM": 6.6, "WIKIDATAID": "Q346959", "NE_ID": 1730094117, "latitude": 35.88018, "longitude": -94.658741, "NAME_AR": "أداير", "NAME_BN": null, "NAME_DE": "Adair", "NAME_EL": null, "NAME_EN": "Adair", "NAME_ES": "Adair", "NAME_FA": "شهرستان ادیر، اکلاهما", "NAME_FR": "'Adair", "NAME_HE": "מחוז אדייר", "NAME_HI": null, "NAME_HU": "Adair", "NAME_ID": null, "NAME_IT": "Adair", "NAME_JA": "アデア郡", "NAME_KO": "아데어", "NAME_NL": "Adair", "NAME_PL": "Adair", "NAME_PT": "Adair", "NAME_RU": "Адэйр", "NAME_SV": "Adair", "NAME_TR": "Adair", "NAME_UK": "Адер", "NAME_UR": "اڈئیر کاؤنٹی، اوکلاہوما", "NAME_VI": null, "NAME_ZH": "亞代爾縣", "NAME_ZHT": "亞代爾縣" }, "geometry": { "type": "MultiPolygon", "coordinates": [ [ [ [ -94.563895, 36.161716 ], [ -94.554265, 36.101893 ], [ -94.551093, 36.082182 ], [ -94.52868, 35.942997 ], [ -94.506317, 35.803813 ], [ -94.498975, 35.758218 ], [ -94.483905, 35.664628 ], [ -94.479522, 35.63744 ], [ -94.683546, 35.638209 ], [ -94.80729, 35.638598 ], [ -94.807322, 35.900272 ], [ -94.7972, 35.900911 ], [ -94.797272, 36.161384 ], [ -94.563895, 36.161716 ] ] ] ] } },
{ "type": "Feature", "properties": { "FEATURECLA": "Admin-2 scale rank", "SCALERANK": 0, "ADM2_CODE": "USA-40135", "ISO_3166_2": "US-40", "ISO_A2": "US", "ADM0_SR": 1, "NAME": "Sequoyah", "NAME_ALT": "Sequoyah County", "NAME_LOCAL": null, "TYPE": "County", "TYPE_EN": "County", "CODE_LOCAL": "40135", "REGION": "OK", "REGION_COD": "40", "ABBREV": null, "AREA_SQKM": 1800, "SAMEASCITY": 0, "LABELRANK": 0, "NAME_LEN": 8, "MAPCOLOR9": 1, "MAPCOLOR13": 1, "FIPS": "US40135", "SOV_A3": "US1", "ADM0_A3": "USA", "ADM0_LABEL": 2, "ADMIN": "United States of America", "GEONUNIT": "United States of America", "GU_A3": "USA", "MIN_LABEL": 8, "MAX_LABEL": 10, "MIN_ZOOM": 6.6, "WIKIDATAID": "Q495845", "NE_ID": 1730094265, "latitude": 35.500316, "longitude": -94.750842, "NAME_AR": "سيكوياه", "NAME_BN": null, "NAME_DE": "Sequoyah", "NAME_EL": null, "NAME_EN": "Sequoyah", "NAME_ES": "Sequoyah", "NAME_FA": "شهرستان سیکوویا، اکلاهما", "NAME_FR": "Sequoyah", "NAME_HE": "מחוז סקוייה", "NAME_HI": null, "NAME_HU": "Sequoyah", "NAME_ID": null, "NAME_IT": "Sequoyah", "NAME_JA": "セコイア郡", "NAME_KO": "시쿼야", "NAME_NL": "Sequoyah", "NAME_PL": "Sequoyah", "NAME_PT": "Sequoyah", "NAME_RU": null, "NAME_SV": "Sequoyah", "NAME_TR": "Sequoyah", "NAME_UK": "Секвоя", "NAME_UR": "سیقوئیاہ کاؤنٹی، اوکلاہوما", "NAME_VI": "Sequoyah", "NAME_ZH": "塞阔雅县", "NAME_ZHT": "塞闊雅縣" }, "geometry": { "type": "MultiPolygon", "coordinates": [ [ [ [ -94.479522, 35.63744 ], [ -94.461469, 35.525444 ], [ -94.439081, 35.38621 ], [ -94.474147, 35.375235 ], [ -94.486681, 35.364874 ], [ -94.48149, 35.350081 ], [ -94.492381, 35.330245 ], [ -94.481354, 35.308921 ], [ -94.495734, 35.301463 ], [ -94.529205, 35.303778 ], [ -94.548818, 35.31212 ], [ -94.564036, 35.325222 ], [ -94.585276, 35.339179 ], [ -94.602854, 35.332709 ], [ -94.629791, 35.300971 ], [ -94.651967, 35.282782 ], [ -94.658675, 35.287049 ], [ -94.662587, 35.304999 ], [ -94.673248, 35.325222 ], [ -94.689117, 35.338731 ], [ -94.708079, 35.350369 ], [ -94.72936, 35.358669 ], [ -94.752065, 35.362413 ], [ -94.783729, 35.344035 ], [ -94.794367, 35.32708 ], [ -94.813622, 35.323338 ], [ -94.827453, 35.337406 ], [ -94.828965, 35.36154 ], [ -94.841458, 35.370914 ], [ -94.86215, 35.358399 ], [ -94.901973, 35.346703 ], [ -94.915307, 35.358644 ], [ -94.89465, 35.372976 ], [ -94.901825, 35.397934 ], [ -94.922375, 35.393093 ], [ -95.019886, 35.439989 ], [ -95.024926, 35.453089 ], [ -95.055165, 35.458604 ], [ -95.061227, 35.465089 ], [ -95.084494, 35.463024 ], [ -95.09621, 35.485503 ], [ -95.111594, 35.506248 ], [ -95.13243, 35.526687 ], [ -95.12753, 35.55179 ], [ -95.127457, 35.638888 ], [ -95.003225, 35.638288 ], [ -94.80729, 35.638598 ], [ -94.683546, 35.638209 ], [ -94.479522, 35.63744 ] ] ] ] } },
{ "type": "Feature", "properties": { "FEATURECLA": "Admin-2 scale rank", "SCALERANK": 0, "ADM2_CODE": "USA-40079", "ISO_3166_2": "US-40", "ISO_A2": "US", "ADM0_SR": 1, "NAME": "Le Flore", "NAME_ALT": "Le Flore County", "NAME_LOCAL": null, "TYPE": "County", "TYPE_EN": "County", "CODE_LOCAL": "40079", "REGION": "OK", "REGION_COD": "40", "ABBREV": null, "AREA_SQKM": 4140, "SAMEASCITY": 0, "LABELRANK": 0, "NAME_LEN": 8, "MAPCOLOR9": 1, "MAPCOLOR13": 1, "FIPS": "US40079", "SOV_A3": "US1", "ADM0_A3": "USA", "ADM0_LABEL": 2, "ADMIN": "United States of America", "GEONUNIT": "United States of America", "GU_A3": "USA", "MIN_LABEL": 8, "MAX_LABEL": 10, "MIN_ZOOM": 6.6, "WIKIDATAID": "Q495944", "NE_ID": 1730096925, "latitude": 34.890881, "longitude": -94.699661, "NAME_AR": "لي فلوري، أوكلاهوما", "NAME_BN": null, "NAME_DE": "Le Flore", "NAME_EL": null, "NAME_EN": "LeFlore", "NAME_ES": "Le Flore", "NAME_FA": "شهرستان ل فلور، اکلاهما", "NAME_FR": "Le Flore", "NAME_HE": null, "NAME_HI": null, "NAME_HU": "Le Flore", "NAME_ID": null, "NAME_IT": "Le Flore", "NAME_JA": "ル・フロア郡", "NAME_KO": "르플로어", "NAME_NL": "Le Flore", "NAME_PL": "Le Flore", "NAME_PT": "Le Flore", "NAME_RU": "Ле-Флор", "NAME_SV": "Le Flore", "NAME_TR": "Le Flore", "NAME_UK": "Лефлор", "NAME_UR": "لے فلور کاؤنٹی، اوکلاہوما", "NAME_VI": "Le Flore", "NAME_ZH": "利福勒县", "NAME_ZHT": "利福勒郡" }, "geometry": { "type": "MultiPolygon", "coordinates": [ [ [ [ -94.439081, 35.38621 ], [ -94.444721, 35.168827 ], [ -94.450336, 34.951518 ], [ -94.45079, 34.934009 ], [ -94.455975, 34.734159 ], [ -94.461591, 34.516801 ], [ -94.706681, 34.507202 ], [ -94.937597, 34.506881 ], [ -94.937745, 34.680871 ], [ -95.059609, 34.68073 ], [ -95.059505, 34.855013 ], [ -94.997808, 34.855049 ], [ -94.998151, 34.94133 ], [ -94.927825, 34.942207 ], [ -94.927856, 35.058273 ], [ -94.927935, 35.201999 ], [ -94.814907, 35.202331 ], [ -94.813622, 35.323338 ], [ -94.794367, 35.32708 ], [ -94.783729, 35.344035 ], [ -94.752065, 35.362413 ], [ -94.72936, 35.358669 ], [ -94.708079, 35.350369 ], [ -94.689117, 35.338731 ], [ -94.673248, 35.325222 ], [ -94.662587, 35.304999 ], [ -94.658675, 35.287049 ], [ -94.651967, 35.282782 ], [ -94.629791, 35.300971 ], [ -94.602854, 35.332709 ], [ -94.585276, 35.339179 ], [ -94.564036, 35.325222 ], [ -94.548818, 35.31212 ], [ -94.529205, 35.303778 ], [ -94.495734, 35.301463 ], [ -94.481354, 35.308921 ], [ -94.492381, 35.330245 ], [ -94.48149, 35.350081 ], [ -94.486681, 35.364874 ], [ -94.474147, 35.375235 ], [ -94.439081, 35.38621 ] ] ] ] } },
{ "type": "Feature", "properties": { "FEATURECLA": "Admin-2 scale rank", "SCALERANK": 0, "ADM2_CODE": "USA-40021", "ISO_3166_2": "US-40", "ISO_A2": "US", "ADM0_SR": 1, "NAME": "Cherokee", "NAME_ALT": "Cherokee County", "NAME_LOCAL": null, "TYPE": "County", "TYPE_EN": "County", "CODE_LOCAL": "40021", "REGION": "OK", "REGION_COD": "40", "ABBREV": null, "AREA_SQKM": 2012, "SAMEASCITY": 0, "LABELRANK": 0, "NAME_LEN": 8, "MAPCOLOR9": 1, "MAPCOLOR13": 1, "FIPS": "US40021", "SOV_A3": "US1", "ADM0_A3": "USA", "ADM0_LABEL": 2, "ADMIN": "United States of America", "GEONUNIT": "United States of America", "GU_A3": "USA", "MIN_LABEL": 8, "MAX_LABEL": 10, "MIN_ZOOM": 6.6, "WIKIDATAID": "Q491633", "NE_ID": 1730094139, "latitude": 35.92809, "longitude": -94.994985, "NAME_AR": "شيروكي", "NAME_BN": null, "NAME_DE": "Cherokee", "NAME_EL": null, "NAME_EN": "Cherokee", "NAME_ES": "Cherokee", "NAME_FA": "شهرستان چروکی، اکلاهما", "NAME_FR": "Cherokee", "NAME_HE": null, "NAME_HI": null, "NAME_HU": "Cherokee", "NAME_ID": null, "NAME_IT": "Cherokee", "NAME_JA": "チェロキー郡", "NAME_KO": "체로키", "NAME_NL": "Cherokee", "NAME_PL": "Cherokee", "NAME_PT": "Cherokee", "NAME_RU": "Чероки", "NAME_SV": "Cherokee", "NAME_TR": "Cherokee", "NAME_UK": "Черокі", "NAME_UR": "چروکی کاؤنٹی، اوکلاہوما", "NAME_VI": "Cherokee", "NAME_ZH": "切罗基县", "NAME_ZHT": "切羅基縣" }, "geometry": { "type": "MultiPolygon", "coordinates": [ [ [ [ -94.797272, 36.161384 ], [ -94.7972, 35.900911 ], [ -94.807322, 35.900272 ], [ -94.80729, 35.638598 ], [ -95.003225, 35.638288 ], [ -95.127457, 35.638888 ], [ -95.127156, 35.812749 ], [ -95.288247, 35.814128 ], [ -95.278188, 35.822089 ], [ -95.274526, 35.835557 ], [ -95.236318, 35.857611 ], [ -95.239491, 35.881456 ], [ -95.261708, 35.916083 ], [ -95.279286, 35.949286 ], [ -95.27538, 35.988349 ], [ -95.256407, 35.985492 ], [ -95.23843, 35.987993 ], [ -95.225459, 36.009194 ], [ -95.225334, 36.039835 ], [ -95.207959, 36.039873 ], [ -95.207939, 36.074702 ], [ -95.118191, 36.074425 ], [ -95.11845, 36.161632 ], [ -95.011296, 36.161792 ], [ -94.797272, 36.161384 ] ] ] ] } },
{ "type": "Feature", "properties": { "FEATURECLA": "Admin-2 scale rank", "SCALERANK": 0, "ADM2_CODE": "USA-40047", "ISO_3166_2": "US-40", "ISO_A2": "US", "ADM0_SR": 1, "NAME": "Garfield", "NAME_ALT": "Garfield County", "NAME_LOCAL": null, "TYPE": "County", "TYPE_EN": "County", "CODE_LOCAL": "40047", "REGION": "OK", "REGION_COD": "40", "ABBREV": null, "AREA_SQKM": 2745, "SAMEASCITY": 0, "LABELRANK": 0, "NAME_LEN": 8, "MAPCOLOR9": 1, "MAPCOLOR13": 1, "FIPS": "US40047", "SOV_A3": "US1", "ADM0_A3": "USA", "ADM0_LABEL": 2, "ADMIN": "United States of America", "GEONUNIT": "United States of America", "GU_A3": "USA", "MIN_LABEL": 8, "MAX_LABEL": 10, "MIN_ZOOM": 6.6, "WIKIDATAID": "Q484729", "NE_ID": 1730094169, "latitude": 36.378924, "longitude": -97.78275, "NAME_AR": "غارفيلد", "NAME_BN": null, "NAME_DE": "Garfield", "NAME_EL": null, "NAME_EN": "Garfield", "NAME_ES": "Garfield", "NAME_FA": "شهرستان گارفیلد، اکلاهما", "NAME_FR": "Garfield", "NAME_HE": "מחוז גארפילד", "NAME_HI": null, "NAME_HU": "Garfield", "NAME_ID": null, "NAME_IT": "Garfield", "NAME_JA": "ガーフィールド郡", "NAME_KO": "가필드", "NAME_NL": "Garfield", "NAME_PL": "Garfield", "NAME_PT": "Garfield", "NAME_RU": "Гарфилд", "NAME_SV": "Garfield", "NAME_TR": "Garfield", "NAME_UK": "Ґарфілд", "NAME_UR": "گارفیلڈ کاؤنٹی، اوکلاہوما", "NAME_VI": "Garfield", "NAME_ZH": "加菲尔德县", "NAME_ZHT": "加菲爾德縣" }, "geometry": { "type": "MultiPolygon", "coordinates": [ [ [ [ -98.104419, 36.463099 ], [ -98.104278, 36.593572 ], [ -97.76504, 36.593165 ], [ -97.462451, 36.593621 ], [ -97.461595, 36.593631 ], [ -97.461055, 36.361754 ], [ -97.460779, 36.164456 ], [ -97.675613, 36.164657 ], [ -97.920721, 36.164669 ], [ -98.103896, 36.164871 ], [ -98.104419, 36.463099 ] ] ] ] } },
{ "type": "Feature", "properties": { "FEATURECLA": "Admin-2 scale rank", "SCALERANK": 0, "ADM2_CODE": "USA-40093", "ISO_3166_2": "US-40", "ISO_A2": "US", "ADM0_SR": 1, "NAME": "Major", "NAME_ALT": "Major County", "NAME_LOCAL": null, "TYPE": "County", "TYPE_EN": "County", "CODE_LOCAL": "40093", "REGION": "OK", "REGION_COD": "40", "ABBREV": null, "AREA_SQKM": 2539, "SAMEASCITY": 0, "LABELRANK": 0, "NAME_LEN": 5, "MAPCOLOR9": 1, "MAPCOLOR13": 1, "FIPS": "US40093", "SOV_A3": "US1", "ADM0_A3": "USA", "ADM0_LABEL": 2, "ADMIN": "United States of America", "GEONUNIT": "United States of America", "GU_A3": "USA", "MIN_LABEL": 8, "MAX_LABEL": 10, "MIN_ZOOM": 6.6, "WIKIDATAID": "Q495839", "NE_ID": 1730094217, "latitude": 36.292071, "longitude": -98.538267, "NAME_AR": "ميجر، أوكلاهوما", "NAME_BN": null, "NAME_DE": "Major", "NAME_EL": null, "NAME_EN": "Major", "NAME_ES": "Major", "NAME_FA": "شهرستان تروما، اکلاهما", "NAME_FR": "Major", "NAME_HE": null, "NAME_HI": null, "NAME_HU": "Major", "NAME_ID": null, "NAME_IT": "Major", "NAME_JA": "メジャー郡", "NAME_KO": "메이저", "NAME_NL": "Major", "NAME_PL": "Major", "NAME_PT": "Major", "NAME_RU": "Мейджор", "NAME_SV": "Major", "NAME_TR": "Major", "NAME_UK": "Мейджор", "NAME_UR": "میجر کاؤنٹی، اوکلاہوما", "NAME_VI": "Major", "NAME_ZH": "梅杰县", "NAME_ZHT": "梅傑郡" }, "geometry": { "type": "MultiPolygon", "coordinates": [ [ [ [ -98.533609, 36.463224 ], [ -98.427277, 36.46301 ], [ -98.104419, 36.463099 ], [ -98.103896, 36.164871 ], [ -98.210536, 36.164884 ], [ -98.636892, 36.164891 ], [ -98.860071, 36.161252 ], [ -98.955841, 36.161571 ], [ -98.955935, 36.246742 ], [ -98.960877, 36.246766 ], [ -98.960326, 36.506908 ], [ -98.833648, 36.505723 ], [ -98.817494, 36.487901 ], [ -98.797271, 36.476589 ], [ -98.785471, 36.471869 ], [ -98.747141, 36.466579 ], [ -98.720608, 36.460395 ], [ -98.708811, 36.442654 ], [ -98.666127, 36.422309 ], [ -98.62857, 36.410224 ], [ -98.608833, 36.409288 ], [ -98.553049, 36.421658 ], [ -98.533542, 36.418484 ], [ -98.533609, 36.463224 ] ] ] ] } },
{ "type": "Feature", "properties": { "FEATURECLA": "Admin-2 scale rank", "SCALERANK": 0, "ADM2_CODE": "USA-40005", "ISO_3166_2": "US-40", "ISO_A2": "US", "ADM0_SR": 1, "NAME": "Atoka", "NAME_ALT": "Atoka County", "NAME_LOCAL": null, "TYPE": "County", "TYPE_EN": "County", "CODE_LOCAL": "40005", "REGION": "OK", "REGION_COD": "40", "ABBREV": null, "AREA_SQKM": 2565, "SAMEASCITY": 0, "LABELRANK": 0, "NAME_LEN": 5, "MAPCOLOR9": 1, "MAPCOLOR13": 1, "FIPS": "US40005", "SOV_A3": "US1", "ADM0_A3": "USA", "ADM0_LABEL": 2, "ADMIN": "United States of America", "GEONUNIT": "United States of America", "GU_A3": "USA", "MIN_LABEL": 8, "MAX_LABEL": 10, "MIN_ZOOM": 6.6, "WIKIDATAID": "Q485042", "NE_ID": 1730094121, "latitude": 34.355577, "longitude": -95.971361, "NAME_AR": "أتوكا", "NAME_BN": null, "NAME_DE": "Atoka", "NAME_EL": null, "NAME_EN": "Atoka", "NAME_ES": "Atoka", "NAME_FA": "شهرستان آتوکا، اکلاهما", "NAME_FR": "'Atoka", "NAME_HE": "מחוז אטוקה", "NAME_HI": null, "NAME_HU": "Atoka", "NAME_ID": null, "NAME_IT": "Atoka", "NAME_JA": "アトカ郡", "NAME_KO": "애토카", "NAME_NL": "Atoka", "NAME_PL": "Atoka", "NAME_PT": "Atoka", "NAME_RU": "Атока", "NAME_SV": "Atoka", "NAME_TR": "Atoka", "NAME_UK": "Атока", "NAME_UR": "اٹوکا کاؤنٹی، اوکلاہوما", "NAME_VI": "Atoka", "NAME_ZH": "阿托卡县", "NAME_ZHT": "阿托卡縣" }, "geometry": { "type": "MultiPolygon", "coordinates": [ [ [ [ -95.671969, 34.593846 ], [ -95.671693, 34.506793 ], [ -95.77938, 34.506253 ], [ -95.778933, 34.156704 ], [ -95.99157, 34.156809 ], [ -96.233946, 34.157041 ], [ -96.407633, 34.157311 ], [ -96.407327, 34.418534 ], [ -96.145089, 34.418671 ], [ -96.144966, 34.506086 ], [ -96.091866, 34.506149 ], [ -96.092162, 34.68058 ], [ -95.882096, 34.680469 ], [ -95.882164, 34.593515 ], [ -95.671969, 34.593846 ] ] ] ] } },
{ "type": "Feature", "properties": { "FEATURECLA": "Admin-2 scale rank", "SCALERANK": 0, "ADM2_CODE": "USA-40127", "ISO_3166_2": "US-40", "ISO_A2": "US", "ADM0_SR": 1, "NAME": "Pushmataha", "NAME_ALT": "Pushmataha County", "NAME_LOCAL": null, "TYPE": "County", "TYPE_EN": "County", "CODE_LOCAL": "40127", "REGION": "OK", "REGION_COD": "40", "ABBREV": null, "AREA_SQKM": 3684, "SAMEASCITY": 0, "LABELRANK": 0, "NAME_LEN": 10, "MAPCOLOR9": 1, "MAPCOLOR13": 1, "FIPS": "US40127", "SOV_A3": "US1", "ADM0_A3": "USA", "ADM0_LABEL": 2, "ADMIN": "United States of America", "GEONUNIT": "United States of America", "GU_A3": "USA", "MIN_LABEL": 8, "MAX_LABEL": 10, "MIN_ZOOM": 6.6, "WIKIDATAID": "Q489463", "NE_ID": 1730094257, "latitude": 34.418768, "longitude": -95.333739, "NAME_AR": "بوشماتاها", "NAME_BN": null, "NAME_DE": "Pushmataha", "NAME_EL": null, "NAME_EN": "Pushmataha", "NAME_ES": "Pushmataha", "NAME_FA": "شهرستان پاشماتاها، اکلاهما", "NAME_FR": "Pushmataha", "NAME_HE": "מחוז פושמאטאה", "NAME_HI": null, "NAME_HU": "Pushmataha", "NAME_ID": null, "NAME_IT": "Pushmataha", "NAME_JA": "プッシュマタハ郡", "NAME_KO": "푸시마타하", "NAME_NL": "Pushmataha", "NAME_PL": "Pushmataha", "NAME_PT": "Pushmataha", "NAME_RU": "Пушматаха", "NAME_SV": "Pushmataha", "NAME_TR": "Pushmataha", "NAME_UK": "Пушматага", "NAME_UR": "پشمیٹاہا کاؤنٹی، اوکلاہوما", "NAME_VI": "Pushmataha", "NAME_ZH": "普什马塔哈县", "NAME_ZHT": "普什馬塔哈郡" }, "geometry": { "type": "MultiPolygon", "coordinates": [ [ [ [ -95.778933, 34.156704 ], [ -95.77938, 34.506253 ], [ -95.671693, 34.506793 ], [ -95.671969, 34.593846 ], [ -95.514308, 34.594147 ], [ -95.514507, 34.681136 ], [ -95.250238, 34.680486 ], [ -95.059609, 34.68073 ], [ -94.937745, 34.680871 ], [ -94.937597, 34.506881 ], [ -95.046739, 34.507223 ], [ -95.046578, 34.243665 ], [ -95.151226, 34.2439 ], [ -95.151287, 34.157018 ], [ -95.156524, 34.156956 ], [ -95.362271, 34.156817 ], [ -95.664186, 34.156616 ], [ -95.778933, 34.156704 ] ] ] ] } },
{ "type": "Feature", "properties": { "FEATURECLA": "Admin-2 scale rank", "SCALERANK": 0, "ADM2_CODE": "USA-40069", "ISO_3166_2": "US-40", "ISO_A2": "US", "ADM0_SR": 1, "NAME": "Johnston", "NAME_ALT": "Johnston County", "NAME_LOCAL": null, "TYPE": "County", "TYPE_EN": "County", "CODE_LOCAL": "40069", "REGION": "OK", "REGION_COD": "40", "ABBREV": null, "AREA_SQKM": 1703, "SAMEASCITY": 0, "LABELRANK": 0, "NAME_LEN": 8, "MAPCOLOR9": 1, "MAPCOLOR13": 1, "FIPS": "US40069", "SOV_A3": "US1", "ADM0_A3": "USA", "ADM0_LABEL": 2, "ADMIN": "United States of America", "GEONUNIT": "United States of America", "GU_A3": "USA", "MIN_LABEL": 8, "MAX_LABEL": 10, "MIN_ZOOM": 6.6, "WIKIDATAID": "Q486651", "NE_ID": 1730094193, "latitude": 34.33733, "longitude": -96.665881, "NAME_AR": "جونستون", "NAME_BN": null, "NAME_DE": "Johnston", "NAME_EL": null, "NAME_EN": "Johnston", "NAME_ES": "Johnston", "NAME_FA": "شهرستان جانستون، اکلاهما", "NAME_FR": "Johnston", "NAME_HE": null, "NAME_HI": null, "NAME_HU": "Johnston", "NAME_ID": null, "NAME_IT": "Johnston", "NAME_JA": "ジョンストン郡", "NAME_KO": "존스턴", "NAME_NL": "Johnston", "NAME_PL": "Johnston", "NAME_PT": "Johnston", "NAME_RU": "Джонстон", "NAME_SV": "Johnston", "NAME_TR": "Johnston", "NAME_UK": "Джонстон", "NAME_UR": "جانسٹن کاؤنٹی، اوکلاہوما", "NAME_VI": "Johnston", "NAME_ZH": "约翰斯顿县", "NAME_ZHT": "約翰斯頓郡" }, "geometry": { "type": "MultiPolygon", "coordinates": [ [ [ [ -96.407327, 34.418534 ], [ -96.407633, 34.157311 ], [ -96.453894, 34.157342 ], [ -96.453832, 34.1144 ], [ -96.575577, 34.115785 ], [ -96.611064, 34.148403 ], [ -96.643369, 34.16806 ], [ -96.656139, 34.161188 ], [ -96.669958, 34.172248 ], [ -96.933663, 34.172547 ], [ -96.933449, 34.332655 ], [ -96.880997, 34.332971 ], [ -96.880808, 34.505884 ], [ -96.82728, 34.505983 ], [ -96.513858, 34.505383 ], [ -96.513782, 34.419621 ], [ -96.407327, 34.418534 ] ] ] ] } },
{ "type": "Feature", "properties": { "FEATURECLA": "Admin-2 scale rank", "SCALERANK": 0, "ADM2_CODE": "USA-40029", "ISO_3166_2": "US-40", "ISO_A2": "US", "ADM0_SR": 1, "NAME": "Coal", "NAME_ALT": "Coal County", "NAME_LOCAL": null, "TYPE": "County", "TYPE_EN": "County", "CODE_LOCAL": "40029", "REGION": "OK", "REGION_COD": "40", "ABBREV": null, "AREA_SQKM": 1351, "SAMEASCITY": 0, "LABELRANK": 0, "NAME_LEN": 4, "MAPCOLOR9": 1, "MAPCOLOR13": 1, "FIPS": "US40029", "SOV_A3": "US1", "ADM0_A3": "USA", "ADM0_LABEL": 2, "ADMIN": "United States of America", "GEONUNIT": "United States of America", "GU_A3": "USA", "MIN_LABEL": 8, "MAX_LABEL": 10, "MIN_ZOOM": 6.6, "WIKIDATAID": "Q490727", "NE_ID": 1730094149, "latitude": 34.575828, "longitude": -96.286502, "NAME_AR": "كوال، أوكلاهوما", "NAME_BN": null, "NAME_DE": "Coal", "NAME_EL": null, "NAME_EN": "Coal", "NAME_ES": "Coal", "NAME_FA": "شهرستان کوول، اکلاهما", "NAME_FR": "Coal", "NAME_HE": "מחוז קול", "NAME_HI": null, "NAME_HU": "Coal", "NAME_ID": null, "NAME_IT": "Coal", "NAME_JA": "コール郡", "NAME_KO": "콜", "NAME_NL": "Coal", "NAME_PL": "Coal", "NAME_PT": "Coal", "NAME_RU": "Коал", "NAME_SV": "Coal", "NAME_TR": "Coal", "NAME_UK": "Коул", "NAME_UR": "کول کاؤنٹی، اوکلاہوما", "NAME_VI": "Coal", "NAME_ZH": "科尔县", "NAME_ZHT": "科爾縣" }, "geometry": { "type": "MultiPolygon", "coordinates": [ [ [ [ -96.092162, 34.68058 ], [ -96.091866, 34.506149 ], [ -96.144966, 34.506086 ], [ -96.145089, 34.418671 ], [ -96.407327, 34.418534 ], [ -96.513782, 34.419621 ], [ -96.513858, 34.505383 ], [ -96.511965, 34.527335 ], [ -96.512123, 34.68001 ], [ -96.406493, 34.680157 ], [ -96.406476, 34.767584 ], [ -96.295074, 34.766785 ], [ -96.091986, 34.767588 ], [ -96.092162, 34.68058 ] ] ] ] } },
{ "type": "Feature", "properties": { "FEATURECLA": "Admin-2 scale rank", "SCALERANK": 0, "ADM2_CODE": "USA-40121", "ISO_3166_2": "US-40", "ISO_A2": "US", "ADM0_SR": 1, "NAME": "Pittsburg", "NAME_ALT": "Pittsburg County", "NAME_LOCAL": null, "TYPE": "County", "TYPE_EN": "County", "CODE_LOCAL": "40121", "REGION": "OK", "REGION_COD": "40", "ABBREV": null, "AREA_SQKM": 3618, "SAMEASCITY": 0, "LABELRANK": 0, "NAME_LEN": 9, "MAPCOLOR9": 1, "MAPCOLOR13": 1, "FIPS": "US40121", "SOV_A3": "US1", "ADM0_A3": "USA", "ADM0_LABEL": 2, "ADMIN": "United States of America", "GEONUNIT": "United States of America", "GU_A3": "USA", "MIN_LABEL": 8, "MAX_LABEL": 10, "MIN_ZOOM": 6.6, "WIKIDATAID": "Q495479", "NE_ID": 1730094249, "latitude": 34.917163, "longitude": -95.754645, "NAME_AR": "بيتسبيرغ", "NAME_BN": null, "NAME_DE": "Pittsburg", "NAME_EL": null, "NAME_EN": "Pittsburg", "NAME_ES": "Pittsburg", "NAME_FA": "شهرستان پیتزبورگ، اکلاهما", "NAME_FR": "Pittsburg", "NAME_HE": "מחוז פיטסבורג", "NAME_HI": null, "NAME_HU": "Pittsburg", "NAME_ID": null, "NAME_IT": "Pittsburg", "NAME_JA": "ピッツバーグ郡", "NAME_KO": "피츠버그", "NAME_NL": "Pittsburg", "NAME_PL": "Pittsburg", "NAME_PT": "Pittsburg", "NAME_RU": "Питтсбург", "NAME_SV": "Pittsburg", "NAME_TR": "Pittsburg", "NAME_UK": "Піттсбург", "NAME_UR": "پٹسبرگ کاؤنٹی، اوکلاہوما", "NAME_VI": "Pittsburg", "NAME_ZH": "匹兹堡县", "NAME_ZHT": "匹茲堡縣" }, "geometry": { "type": "MultiPolygon", "coordinates": [ [ [ [ -95.671969, 34.593846 ], [ -95.882164, 34.593515 ], [ -95.882096, 34.680469 ], [ -96.092162, 34.68058 ], [ -96.091986, 34.767588 ], [ -96.09187, 34.85453 ], [ -96.089001, 34.85473 ], [ -96.089915, 35.060655 ], [ -96.077789, 35.068183 ], [ -96.062001, 35.072862 ], [ -96.05134, 35.08588 ], [ -96.047922, 35.097602 ], [ -96.040598, 35.109198 ], [ -96.033111, 35.113471 ], [ -96.01476, 35.118598 ], [ -96.006459, 35.123399 ], [ -96.001454, 35.129828 ], [ -95.992177, 35.150173 ], [ -95.981842, 35.157009 ], [ -95.913645, 35.150173 ], [ -95.896962, 35.156846 ], [ -95.85558, 35.197943 ], [ -95.838531, 35.202948 ], [ -95.812408, 35.207058 ], [ -95.786448, 35.207587 ], [ -95.771363, 35.201564 ], [ -95.753, 35.197821 ], [ -95.727406, 35.20307 ], [ -95.671151, 35.222853 ], [ -95.561147, 35.261176 ], [ -95.506711, 35.291534 ], [ -95.494293, 35.299262 ], [ -95.457346, 35.309394 ], [ -95.45127, 35.294615 ], [ -95.450749, 35.202791 ], [ -95.454949, 35.160491 ], [ -95.349344, 35.160291 ], [ -95.349226, 35.058508 ], [ -95.34943, 35.02937 ], [ -95.507647, 35.028612 ], [ -95.50752, 34.854931 ], [ -95.513704, 34.854915 ], [ -95.514507, 34.681136 ], [ -95.514308, 34.594147 ], [ -95.671969, 34.593846 ] ] ] ] } },
{ "type": "Feature", "properties": { "FEATURECLA": "Admin-2 scale rank", "SCALERANK": 0, "ADM2_CODE": "USA-40039", "ISO_3166_2": "US-40", "ISO_A2": "US", "ADM0_SR": 1, "NAME": "Custer", "NAME_ALT": "Custer County", "NAME_LOCAL": null, "TYPE": "County", "TYPE_EN": "County", "CODE_LOCAL": "40039", "REGION": "OK", "REGION_COD": "40", "ABBREV": null, "AREA_SQKM": 2596, "SAMEASCITY": 0, "LABELRANK": 0, "NAME_LEN": 6, "MAPCOLOR9": 1, "MAPCOLOR13": 1, "FIPS": "US40039", "SOV_A3": "US1", "ADM0_A3": "USA", "ADM0_LABEL": 2, "ADMIN": "United States of America", "GEONUNIT": "United States of America", "GU_A3": "USA", "MIN_LABEL": 8, "MAX_LABEL": 10, "MIN_ZOOM": 6.6, "WIKIDATAID": "Q490716", "NE_ID": 1730094159, "latitude": 35.638726, "longitude": -99.001366, "NAME_AR": "كستر، أوكلاهوما", "NAME_BN": null, "NAME_DE": "Custer", "NAME_EL": null, "NAME_EN": "Custer", "NAME_ES": "Custer", "NAME_FA": "شهرستان کاستر، اوکلاهاما", "NAME_FR": "Custer", "NAME_HE": "מחוז קאסטר", "NAME_HI": null, "NAME_HU": "Custer", "NAME_ID": null, "NAME_IT": "Custer", "NAME_JA": "カスター郡", "NAME_KO": "커스터", "NAME_NL": "Custer", "NAME_PL": "Custer", "NAME_PT": "Custer", "NAME_RU": "Кастер", "NAME_SV": "Custer", "NAME_TR": "Custer", "NAME_UK": "Кастер", "NAME_UR": "کیسٹر کاؤنٹی، اوکلاہوما", "NAME_VI": "Custer", "NAME_ZH": "卡斯特县", "NAME_ZHT": "卡斯特縣" }, "geometry": { "type": "MultiPolygon", "coordinates": [ [ [ [ -99.364209, 35.465322 ], [ -99.364133, 35.508787 ], [ -99.364104, 35.550171 ], [ -99.377044, 35.551735 ], [ -99.375809, 35.812182 ], [ -99.028662, 35.812275 ], [ -98.831401, 35.812851 ], [ -98.631977, 35.812396 ], [ -98.632064, 35.551932 ], [ -98.623141, 35.551591 ], [ -98.623328, 35.464219 ], [ -98.835612, 35.46508 ], [ -99.103794, 35.465107 ], [ -99.364209, 35.465322 ] ] ] ] } },
{ "type": "Feature", "properties": { "FEATURECLA": "Admin-2 scale rank", "SCALERANK": 0, "ADM2_CODE": "USA-40149", "ISO_3166_2": "US-40", "ISO_A2": "US", "ADM0_SR": 1, "NAME": "Washita", "NAME_ALT": "Washita County", "NAME_LOCAL": null, "TYPE": "County", "TYPE_EN": "County", "CODE_LOCAL": "40149", "REGION": "OK", "REGION_COD": "40", "ABBREV": null, "AREA_SQKM": 2589, "SAMEASCITY": 0, "LABELRANK": 0, "NAME_LEN": 7, "MAPCOLOR9": 1, "MAPCOLOR13": 1, "FIPS": "US40149", "SOV_A3": "US1", "ADM0_A3": "USA", "ADM0_LABEL": 2, "ADMIN": "United States of America", "GEONUNIT": "United States of America", "GU_A3": "USA", "MIN_LABEL": 8, "MAX_LABEL": 10, "MIN_ZOOM": 6.6, "WIKIDATAID": "Q495958", "NE_ID": 1730094281, "latitude": 35.290764, "longitude": -98.993992, "NAME_AR": "واشيتا، أوكلاهوما", "NAME_BN": null, "NAME_DE": "Washita", "NAME_EL": null, "NAME_EN": "Washita", "NAME_ES": "Washita", "NAME_FA": "شهرستان وشیتا، اکلاهما", "NAME_FR": "Washita", "NAME_HE": "מחוז וושיטה", "NAME_HI": null, "NAME_HU": "Washita", "NAME_ID": null, "NAME_IT": "Washita", "NAME_JA": "ウォシタ郡", "NAME_KO": "워시토", "NAME_NL": "Washita", "NAME_PL": "Washita", "NAME_PT": "Washita", "NAME_RU": "Уошито", "NAME_SV": "Washita", "NAME_TR": "Washita", "NAME_UK": "Вошіта", "NAME_UR": "واشیٹا کاؤنٹی، اوکلاہوما", "NAME_VI": "Washita", "NAME_ZH": "沃希托县", "NAME_ZHT": "沃希托縣" }, "geometry": { "type": "MultiPolygon", "coordinates": [ [ [ [ -99.360218, 35.116732 ], [ -99.360211, 35.204458 ], [ -99.364281, 35.20446 ], [ -99.364209, 35.465322 ], [ -99.103794, 35.465107 ], [ -98.835612, 35.46508 ], [ -98.623328, 35.464219 ], [ -98.623852, 35.204403 ], [ -98.618066, 35.201117 ], [ -98.6183, 35.154111 ], [ -98.617828, 35.134223 ], [ -98.632883, 35.12934 ], [ -98.649078, 35.128282 ], [ -98.682932, 35.129421 ], [ -98.699574, 35.12755 ], [ -98.732818, 35.120388 ], [ -98.926834, 35.116377 ], [ -99.360218, 35.116732 ] ] ] ] } },
{ "type": "Feature", "properties": { "FEATURECLA": "Admin-2 scale rank", "SCALERANK": 0, "ADM2_CODE": "USA-40075", "ISO_3166_2": "US-40", "ISO_A2": "US", "ADM0_SR": 1, "NAME": "Kiowa", "NAME_ALT": "Kiowa County", "NAME_LOCAL": null, "TYPE": "County", "TYPE_EN": "County", "CODE_LOCAL": "40075", "REGION": "OK", "REGION_COD": "40", "ABBREV": null, "AREA_SQKM": 2644, "SAMEASCITY": 0, "LABELRANK": 0, "NAME_LEN": 5, "MAPCOLOR9": 1, "MAPCOLOR13": 1, "FIPS": "US40075", "SOV_A3": "US1", "ADM0_A3": "USA", "ADM0_LABEL": 2, "ADMIN": "United States of America", "GEONUNIT": "United States of America", "GU_A3": "USA", "MIN_LABEL": 8, "MAX_LABEL": 10, "MIN_ZOOM": 6.6, "WIKIDATAID": "Q485006", "NE_ID": 1730094199, "latitude": 34.922322, "longitude": -98.979574, "NAME_AR": "كيوا، أوكلاهوما", "NAME_BN": null, "NAME_DE": "Kiowa", "NAME_EL": null, "NAME_EN": "Kiowa", "NAME_ES": "Condado kiowa", "NAME_FA": "شهرستان کیووا، اکلاهما", "NAME_FR": "Kiowa", "NAME_HE": "מחוז קיוואה", "NAME_HI": null, "NAME_HU": "Kiowa", "NAME_ID": null, "NAME_IT": "Kiowa", "NAME_JA": "カイオワ郡", "NAME_KO": "카이오와", "NAME_NL": "Kiowa", "NAME_PL": "Kiowa", "NAME_PT": "Kiowa", "NAME_RU": "Кайова", "NAME_SV": "Kiowa", "NAME_TR": "Kiowa", "NAME_UK": "Кайова", "NAME_UR": "کآئیووا کاؤنٹی، اوکلاہوما", "NAME_VI": "Kiowa", "NAME_ZH": "凯厄瓦县", "NAME_ZHT": "凱厄瓦縣" }, "geometry": { "type": "MultiPolygon", "coordinates": [ [ [ [ -99.398668, 35.114503 ], [ -99.360218, 35.116732 ], [ -98.926834, 35.116377 ], [ -98.732818, 35.120388 ], [ -98.699574, 35.12755 ], [ -98.682932, 35.129421 ], [ -98.649078, 35.128282 ], [ -98.632883, 35.12934 ], [ -98.617828, 35.134223 ], [ -98.619808, 34.854947 ], [ -98.826116, 34.85546 ], [ -98.826, 34.594407 ], [ -99.001099, 34.59436 ], [ -99.001226, 34.637868 ], [ -99.087218, 34.639123 ], [ -99.09557, 34.650458 ], [ -99.098053, 34.658881 ], [ -99.09496, 34.666571 ], [ -99.070861, 34.691119 ], [ -99.061594, 34.707302 ], [ -99.065582, 34.7178 ], [ -99.111399, 34.711615 ], [ -99.122914, 34.711493 ], [ -99.133127, 34.713731 ], [ -99.1433, 34.718085 ], [ -99.160634, 34.730984 ], [ -99.165842, 34.738308 ], [ -99.16808, 34.746283 ], [ -99.168121, 34.755194 ], [ -99.15567, 34.818386 ], [ -99.154408, 34.836778 ], [ -99.156809, 34.855414 ], [ -99.159151, 34.860362 ], [ -99.168309, 34.864294 ], [ -99.183339, 34.869167 ], [ -99.19518, 34.86933 ], [ -99.204742, 34.8664 ], [ -99.237416, 34.83869 ], [ -99.245168, 34.835984 ], [ -99.256072, 34.836335 ], [ -99.273671, 34.846259 ], [ -99.297511, 34.862673 ], [ -99.315439, 34.877956 ], [ -99.31725, 34.886827 ], [ -99.302398, 34.929755 ], [ -99.305458, 34.977137 ], [ -99.346995, 35.063788 ], [ -99.381215, 35.099473 ], [ -99.398668, 35.114503 ] ] ] ] } },
{ "type": "Feature", "properties": { "FEATURECLA": "Admin-2 scale rank", "SCALERANK": 0, "ADM2_CODE": "USA-40055", "ISO_3166_2": "US-40", "ISO_A2": "US", "ADM0_SR": 1, "NAME": "Greer", "NAME_ALT": "Greer County", "NAME_LOCAL": null, "TYPE": "County", "TYPE_EN": "County", "CODE_LOCAL": "40055", "REGION": "OK", "REGION_COD": "40", "ABBREV": null, "AREA_SQKM": 1697, "SAMEASCITY": 0, "LABELRANK": 0, "NAME_LEN": 5, "MAPCOLOR9": 1, "MAPCOLOR13": 1, "FIPS": "US40055", "SOV_A3": "US1", "ADM0_A3": "USA", "ADM0_LABEL": 2, "ADMIN": "United States of America", "GEONUNIT": "United States of America", "GU_A3": "USA", "MIN_LABEL": 8, "MAX_LABEL": 10, "MIN_ZOOM": 6.6, "WIKIDATAID": "Q111968", "NE_ID": 1730094177, "latitude": 34.939175, "longitude": -99.550958, "NAME_AR": "غرير", "NAME_BN": null, "NAME_DE": "Greer", "NAME_EL": null, "NAME_EN": "Greer", "NAME_ES": "Greer", "NAME_FA": "شهرستان گریر، اکلاهما", "NAME_FR": "Greer", "NAME_HE": "מחוז גריר", "NAME_HI": null, "NAME_HU": "Greer", "NAME_ID": null, "NAME_IT": "Greer", "NAME_JA": "グリアー郡", "NAME_KO": "그리어", "NAME_NL": "Greer", "NAME_PL": "Greer", "NAME_PT": "Greer", "NAME_RU": "Грир", "NAME_SV": "Greer", "NAME_TR": "Greer", "NAME_UK": "Грір", "NAME_UR": "گریر کاؤنٹی، اوکلاہوما", "NAME_VI": "Greer", "NAME_ZH": "格里尔县", "NAME_ZHT": "格里爾郡" }, "geometry": { "type": "MultiPolygon", "coordinates": [ [ [ [ -99.888563, 35.030256 ], [ -99.782941, 35.030105 ], [ -99.782719, 35.116774 ], [ -99.451766, 35.116831 ], [ -99.43999, 35.109098 ], [ -99.398668, 35.114503 ], [ -99.381215, 35.099473 ], [ -99.346995, 35.063788 ], [ -99.305458, 34.977137 ], [ -99.302398, 34.929755 ], [ -99.31725, 34.886827 ], [ -99.315439, 34.877956 ], [ -99.297511, 34.862673 ], [ -99.273671, 34.846259 ], [ -99.256072, 34.836335 ], [ -99.245168, 34.835984 ], [ -99.250353, 34.812729 ], [ -99.404765, 34.813039 ], [ -99.406021, 34.769029 ], [ -99.434971, 34.769122 ], [ -99.440369, 34.762093 ], [ -99.437033, 34.736458 ], [ -99.423193, 34.725014 ], [ -99.666841, 34.724549 ], [ -99.667137, 34.753736 ], [ -99.684704, 34.753738 ], [ -99.685151, 34.76838 ], [ -99.720058, 34.768444 ], [ -99.719992, 34.857027 ], [ -99.731039, 34.856979 ], [ -99.73188, 34.944059 ], [ -99.888417, 34.94394 ], [ -99.888563, 35.030256 ] ] ] ] } },
{ "type": "Feature", "properties": { "FEATURECLA": "Admin-2 scale rank", "SCALERANK": 0, "ADM2_CODE": "USA-40011", "ISO_3166_2": "US-40", "ISO_A2": "US", "ADM0_SR": 1, "NAME": "Blaine", "NAME_ALT": "Blaine County", "NAME_LOCAL": null, "TYPE": "County", "TYPE_EN": "County", "CODE_LOCAL": "40011", "REGION": "OK", "REGION_COD": "40", "ABBREV": null, "AREA_SQKM": 2431, "SAMEASCITY": 0, "LABELRANK": 0, "NAME_LEN": 6, "MAPCOLOR9": 1, "MAPCOLOR13": 1, "FIPS": "US40011", "SOV_A3": "US1", "ADM0_A3": "USA", "ADM0_LABEL": 2, "ADMIN": "United States of America", "GEONUNIT": "United States of America", "GU_A3": "USA", "MIN_LABEL": 8, "MAX_LABEL": 10, "MIN_ZOOM": 6.6, "WIKIDATAID": "Q491623", "NE_ID": 1730094127, "latitude": 35.90979, "longitude": -98.421805, "NAME_AR": "بلاين", "NAME_BN": null, "NAME_DE": "Blaine", "NAME_EL": null, "NAME_EN": "Blaine", "NAME_ES": "Blaine", "NAME_FA": "شهرستان بلین، اکلاهما", "NAME_FR": "Blaine", "NAME_HE": "מחוז בליין", "NAME_HI": null, "NAME_HU": "Blaine", "NAME_ID": null, "NAME_IT": "Blaine", "NAME_JA": "ブレイン郡", "NAME_KO": "블레인", "NAME_NL": "Blaine", "NAME_PL": "Blaine", "NAME_PT": "Blaine", "NAME_RU": "Блэйн", "NAME_SV": "Blaine", "NAME_TR": "Blaine", "NAME_UK": "Блейн", "NAME_UR": "بلیئن کاؤنٹی، اوکلاہوما", "NAME_VI": null, "NAME_ZH": "布莱恩县", "NAME_ZHT": "布萊恩縣" }, "geometry": { "type": "MultiPolygon", "coordinates": [ [ [ [ -98.210536, 36.164884 ], [ -98.209977, 35.898584 ], [ -98.206814, 35.897606 ], [ -98.207096, 35.725134 ], [ -98.313368, 35.72493 ], [ -98.313243, 35.551517 ], [ -98.623141, 35.551591 ], [ -98.632064, 35.551932 ], [ -98.631977, 35.812396 ], [ -98.632296, 35.898783 ], [ -98.636141, 35.898802 ], [ -98.636892, 36.164891 ], [ -98.210536, 36.164884 ] ] ] ] } },
{ "type": "Feature", "properties": { "FEATURECLA": "Admin-2 scale rank", "SCALERANK": 0, "ADM2_CODE": "USA-40073", "ISO_3166_2": "US-40", "ISO_A2": "US", "ADM0_SR": 1, "NAME": "Kingfisher", "NAME_ALT": "Kingfisher County", "NAME_LOCAL": null, "TYPE": "County", "TYPE_EN": "County", "CODE_LOCAL": "40073", "REGION": "OK", "REGION_COD": "40", "ABBREV": null, "AREA_SQKM": 2347, "SAMEASCITY": 0, "LABELRANK": 0, "NAME_LEN": 10, "MAPCOLOR9": 1, "MAPCOLOR13": 1, "FIPS": "US40073", "SOV_A3": "US1", "ADM0_A3": "USA", "ADM0_LABEL": 2, "ADMIN": "United States of America", "GEONUNIT": "United States of America", "GU_A3": "USA", "MIN_LABEL": 8, "MAX_LABEL": 10, "MIN_ZOOM": 6.6, "WIKIDATAID": "Q267164", "NE_ID": 1730094197, "latitude": 35.945128, "longitude": -97.941642, "NAME_AR": "كينغفيشر، أوكلاهوما", "NAME_BN": null, "NAME_DE": "Kingfisher", "NAME_EL": null, "NAME_EN": "Kingfisher", "NAME_ES": "Kingfisher", "NAME_FA": "شهرستان کینگفیشر، اکلاهما", "NAME_FR": "Kingfisher", "NAME_HE": "מחוז קינגפישר", "NAME_HI": null, "NAME_HU": "Kingfisher", "NAME_ID": null, "NAME_IT": "Kingfisher", "NAME_JA": "キングフィッシャー郡", "NAME_KO": "킹피셔", "NAME_NL": "Kingfisher", "NAME_PL": "Kingfisher", "NAME_PT": "Kingfisher", "NAME_RU": "Кингфишер", "NAME_SV": "Kingfisher", "NAME_TR": "Kingfisher", "NAME_UK": "Кінґфішер", "NAME_UR": "کنگفشر کاؤنٹی، اوکلاہوما", "NAME_VI": "Kingfisher", "NAME_ZH": "金菲舍縣", "NAME_ZHT": "金菲舍縣" }, "geometry": { "type": "MultiPolygon", "coordinates": [ [ [ [ -98.207096, 35.725134 ], [ -98.206814, 35.897606 ], [ -98.209977, 35.898584 ], [ -98.210536, 36.164884 ], [ -98.103896, 36.164871 ], [ -97.920721, 36.164669 ], [ -97.675613, 36.164657 ], [ -97.67576, 35.957982 ], [ -97.674524, 35.898485 ], [ -97.674018, 35.725964 ], [ -97.993439, 35.725486 ], [ -98.207096, 35.725134 ] ] ] ] } },
{ "type": "Feature", "properties": { "FEATURECLA": "Admin-2 scale rank", "SCALERANK": 0, "ADM2_CODE": "USA-40017", "ISO_3166_2": "US-40", "ISO_A2": "US", "ADM0_SR": 1, "NAME": "Canadian", "NAME_ALT": "Canadian County", "NAME_LOCAL": null, "TYPE": "County", "TYPE_EN": "County", "CODE_LOCAL": "40017", "REGION": "OK", "REGION_COD": "40", "ABBREV": null, "AREA_SQKM": 2324, "SAMEASCITY": 0, "LABELRANK": 0, "NAME_LEN": 8, "MAPCOLOR9": 1, "MAPCOLOR13": 1, "FIPS": "US40017", "SOV_A3": "US1", "ADM0_A3": "USA", "ADM0_LABEL": 2, "ADMIN": "United States of America", "GEONUNIT": "United States of America", "GU_A3": "USA", "MIN_LABEL": 8, "MAX_LABEL": 10, "MIN_ZOOM": 6.6, "WIKIDATAID": "Q486614", "NE_ID": 1730094135, "latitude": 35.548206, "longitude": -97.983609, "NAME_AR": "كنيديان، أوكلاهوما", "NAME_BN": null, "NAME_DE": "Canadian", "NAME_EL": null, "NAME_EN": "Canadian", "NAME_ES": "Canadian", "NAME_FA": "شهرستان کانادا، اکلاهما", "NAME_FR": "Canadian", "NAME_HE": "מחוז קנדיאן", "NAME_HI": null, "NAME_HU": "Canadian", "NAME_ID": null, "NAME_IT": "Canadian", "NAME_JA": "カナディアン郡", "NAME_KO": "캐나디안", "NAME_NL": "Canadian", "NAME_PL": "Canadian", "NAME_PT": "Canadian", "NAME_RU": "Канейдиан", "NAME_SV": "Canadian", "NAME_TR": "Canadian", "NAME_UK": "Канадіян", "NAME_UR": "کینیڈین کاؤنٹی، اوکلاہوما", "NAME_VI": null, "NAME_ZH": "加拿大人县", "NAME_ZHT": "加拿大人縣" }, "geometry": { "type": "MultiPolygon", "coordinates": [ [ [ [ -98.313243, 35.551517 ], [ -98.313368, 35.72493 ], [ -98.207096, 35.725134 ], [ -97.993439, 35.725486 ], [ -97.674018, 35.725964 ], [ -97.674312, 35.565648 ], [ -97.671312, 35.551048 ], [ -97.67297, 35.377694 ], [ -97.673841, 35.342246 ], [ -97.67516, 35.343126 ], [ -97.685943, 35.340888 ], [ -97.704823, 35.331122 ], [ -97.71581, 35.328925 ], [ -97.912262, 35.357978 ], [ -97.933665, 35.366563 ], [ -97.945465, 35.3699 ], [ -97.957387, 35.370795 ], [ -97.970693, 35.368964 ], [ -97.980214, 35.3699 ], [ -98.008398, 35.378298 ], [ -98.096006, 35.377747 ], [ -98.236474, 35.376631 ], [ -98.306318, 35.377233 ], [ -98.30628, 35.516327 ], [ -98.313243, 35.551517 ] ] ] ] } },
{ "type": "Feature", "properties": { "FEATURECLA": "Admin-2 scale rank", "SCALERANK": 0, "ADM2_CODE": "USA-40015", "ISO_3166_2": "US-40", "ISO_A2": "US", "ADM0_SR": 1, "NAME": "Caddo", "NAME_ALT": "Caddo County", "NAME_LOCAL": null, "TYPE": "County", "TYPE_EN": "County", "CODE_LOCAL": "40015", "REGION": "OK", "REGION_COD": "40", "ABBREV": null, "AREA_SQKM": 3338, "SAMEASCITY": 0, "LABELRANK": 0, "NAME_LEN": 5, "MAPCOLOR9": 1, "MAPCOLOR13": 1, "FIPS": "US40015", "SOV_A3": "US1", "ADM0_A3": "USA", "ADM0_LABEL": 2, "ADMIN": "United States of America", "GEONUNIT": "United States of America", "GU_A3": "USA", "MIN_LABEL": 8, "MAX_LABEL": 10, "MIN_ZOOM": 6.6, "WIKIDATAID": "Q491590", "NE_ID": 1730094133, "latitude": 35.118062, "longitude": -98.353622, "NAME_AR": "كادو", "NAME_BN": null, "NAME_DE": "Caddo", "NAME_EL": null, "NAME_EN": "Caddo", "NAME_ES": "Caddo", "NAME_FA": "شهرستان کدو، اکلاهما", "NAME_FR": "Caddo", "NAME_HE": "מחוז קאדו", "NAME_HI": null, "NAME_HU": "Caddo", "NAME_ID": null, "NAME_IT": "Caddo", "NAME_JA": "カドー郡", "NAME_KO": "캐도", "NAME_NL": "Caddo", "NAME_PL": "Caddo", "NAME_PT": "Caddo", "NAME_RU": "Каддо", "NAME_SV": "Caddo", "NAME_TR": "Caddo", "NAME_UK": "Каддо", "NAME_UR": "کاڈو کاؤنٹی، اوکلاہوما", "NAME_VI": null, "NAME_ZH": "卡多县", "NAME_ZHT": "卡多縣" }, "geometry": { "type": "MultiPolygon", "coordinates": [ [ [ [ -98.623141, 35.551591 ], [ -98.313243, 35.551517 ], [ -98.30628, 35.516327 ], [ -98.306318, 35.377233 ], [ -98.236474, 35.376631 ], [ -98.096006, 35.377747 ], [ -98.094969, 35.203714 ], [ -98.091332, 35.203724 ], [ -98.091086, 35.088677 ], [ -98.092971, 35.087931 ], [ -98.092637, 34.854913 ], [ -98.244623, 34.855139 ], [ -98.619808, 34.854947 ], [ -98.617828, 35.134223 ], [ -98.6183, 35.154111 ], [ -98.618066, 35.201117 ], [ -98.623852, 35.204403 ], [ -98.623328, 35.464219 ], [ -98.623141, 35.551591 ] ] ] ] } },
{ "type": "Feature", "properties": { "FEATURECLA": "Admin-2 scale rank", "SCALERANK": 0, "ADM2_CODE": "USA-40043", "ISO_3166_2": "US-40", "ISO_A2": "US", "ADM0_SR": 1, "NAME": "Dewey", "NAME_ALT": "Dewey County", "NAME_LOCAL": null, "TYPE": "County", "TYPE_EN": "County", "CODE_LOCAL": "40043", "REGION": "OK", "REGION_COD": "40", "ABBREV": null, "AREA_SQKM": 2611, "SAMEASCITY": 0, "LABELRANK": 0, "NAME_LEN": 5, "MAPCOLOR9": 1, "MAPCOLOR13": 1, "FIPS": "US40043", "SOV_A3": "US1", "ADM0_A3": "USA", "ADM0_LABEL": 2, "ADMIN": "United States of America", "GEONUNIT": "United States of America", "GU_A3": "USA", "MIN_LABEL": 8, "MAX_LABEL": 10, "MIN_ZOOM": 6.6, "WIKIDATAID": "Q490722", "NE_ID": 1730094163, "latitude": 35.987055, "longitude": -99.008291, "NAME_AR": "ديوي", "NAME_BN": null, "NAME_DE": "Dewey", "NAME_EL": null, "NAME_EN": "Dewey", "NAME_ES": "Dewey", "NAME_FA": "شهرستان دیویی، اکلاهما", "NAME_FR": "Dewey", "NAME_HE": "מחוז דיואי", "NAME_HI": null, "NAME_HU": "Dewey", "NAME_ID": null, "NAME_IT": "Dewey", "NAME_JA": "デューイ郡", "NAME_KO": "듀이", "NAME_NL": "Dewey", "NAME_PL": "Dewey", "NAME_PT": "Dewey", "NAME_RU": "Дьюи", "NAME_SV": "Dewey", "NAME_TR": "Dewey", "NAME_UK": "Дьюї", "NAME_UR": "ڈیوی کاؤنٹی، اوکلاہوما", "NAME_VI": "Dewey", "NAME_ZH": "杜威县", "NAME_ZHT": "杜威縣" }, "geometry": { "type": "MultiPolygon", "coordinates": [ [ [ [ -98.636892, 36.164891 ], [ -98.636141, 35.898802 ], [ -98.632296, 35.898783 ], [ -98.631977, 35.812396 ], [ -98.831401, 35.812851 ], [ -99.028662, 35.812275 ], [ -99.375809, 35.812182 ], [ -99.375823, 35.898748 ], [ -99.381074, 35.898824 ], [ -99.381441, 36.022748 ], [ -99.382066, 36.164295 ], [ -99.277304, 36.16421 ], [ -99.125568, 36.162237 ], [ -98.955841, 36.161571 ], [ -98.860071, 36.161252 ], [ -98.636892, 36.164891 ] ] ] ] } },
{ "type": "Feature", "properties": { "FEATURECLA": "Admin-2 scale rank", "SCALERANK": 0, "ADM2_CODE": "USA-40051", "ISO_3166_2": "US-40", "ISO_A2": "US", "ADM0_SR": 1, "NAME": "Grady", "NAME_ALT": "Grady County", "NAME_LOCAL": null, "TYPE": "County", "TYPE_EN": "County", "CODE_LOCAL": "40051", "REGION": "OK", "REGION_COD": "40", "ABBREV": null, "AREA_SQKM": 2879, "SAMEASCITY": 0, "LABELRANK": 0, "NAME_LEN": 5, "MAPCOLOR9": 1, "MAPCOLOR13": 1, "FIPS": "US40051", "SOV_A3": "US1", "ADM0_A3": "USA", "ADM0_LABEL": 2, "ADMIN": "United States of America", "GEONUNIT": "United States of America", "GU_A3": "USA", "MIN_LABEL": 8, "MAX_LABEL": 10, "MIN_ZOOM": 6.6, "WIKIDATAID": "Q484600", "NE_ID": 1730094173, "latitude": 35.017528, "longitude": -97.881457, "NAME_AR": "غرادي", "NAME_BN": null, "NAME_DE": "Grady", "NAME_EL": null, "NAME_EN": "Grady", "NAME_ES": "Grady", "NAME_FA": "شهرستان گریدی، اکلاهما", "NAME_FR": "Grady", "NAME_HE": "מחוז גריידי", "NAME_HI": null, "NAME_HU": "Grady", "NAME_ID": null, "NAME_IT": "Grady", "NAME_JA": "グレイディ郡", "NAME_KO": "그래디", "NAME_NL": "Grady", "NAME_PL": "Grady", "NAME_PT": "Grady", "NAME_RU": "Грэди", "NAME_SV": "Grady", "NAME_TR": "Grady", "NAME_UK": "Ґрейді", "NAME_UR": "گریڈی کاؤنٹی، اوکلاہوما", "NAME_VI": "Grady", "NAME_ZH": "格雷迪县", "NAME_ZHT": "格雷迪郡" }, "geometry": { "type": "MultiPolygon", "coordinates": [ [ [ [ -98.092637, 34.854913 ], [ -98.092971, 35.087931 ], [ -98.091086, 35.088677 ], [ -98.091332, 35.203724 ], [ -98.094969, 35.203714 ], [ -98.096006, 35.377747 ], [ -98.008398, 35.378298 ], [ -97.980214, 35.3699 ], [ -97.970693, 35.368964 ], [ -97.957387, 35.370795 ], [ -97.945465, 35.3699 ], [ -97.933665, 35.366563 ], [ -97.912262, 35.357978 ], [ -97.71581, 35.328925 ], [ -97.704823, 35.331122 ], [ -97.685943, 35.340888 ], [ -97.67516, 35.343126 ], [ -97.670383, 35.203305 ], [ -97.67053, 34.855303 ], [ -97.668091, 34.855158 ], [ -97.668418, 34.681338 ], [ -97.996783, 34.681795 ], [ -98.089087, 34.681394 ], [ -98.089028, 34.840712 ], [ -98.092637, 34.854913 ] ] ] ] } },
{ "type": "Feature", "properties": { "FEATURECLA": "Admin-2 scale rank", "SCALERANK": 0, "ADM2_CODE": "USA-40031", "ISO_3166_2": "US-40", "ISO_A2": "US", "ADM0_SR": 1, "NAME": "Comanche", "NAME_ALT": "Comanche County", "NAME_LOCAL": null, "TYPE": "County", "TYPE_EN": "County", "CODE_LOCAL": "40031", "REGION": "OK", "REGION_COD": "40", "ABBREV": null, "AREA_SQKM": 2805, "SAMEASCITY": 0, "LABELRANK": 0, "NAME_LEN": 8, "MAPCOLOR9": 1, "MAPCOLOR13": 1, "FIPS": "US40031", "SOV_A3": "US1", "ADM0_A3": "USA", "ADM0_LABEL": 2, "ADMIN": "United States of America", "GEONUNIT": "United States of America", "GU_A3": "USA", "MIN_LABEL": 8, "MAX_LABEL": 10, "MIN_ZOOM": 6.6, "WIKIDATAID": "Q484590", "NE_ID": 1730094151, "latitude": 34.652186, "longitude": -98.471657, "NAME_AR": "كومانتشي، أوكلاهوما", "NAME_BN": null, "NAME_DE": "Comanche", "NAME_EL": null, "NAME_EN": "Comanche", "NAME_ES": "Condado comanche", "NAME_FA": "شهرستان کومانچی، اکلاهما", "NAME_FR": "Comanche", "NAME_HE": null, "NAME_HI": null, "NAME_HU": "Comanche", "NAME_ID": null, "NAME_IT": "Comanche", "NAME_JA": "コマンチ郡", "NAME_KO": "코만치", "NAME_NL": "Comanche", "NAME_PL": "Comanche", "NAME_PT": "Comanche", "NAME_RU": "Команче", "NAME_SV": "Comanche", "NAME_TR": "Comanche", "NAME_UK": "Команчі", "NAME_UR": "کومانچے کاؤنٹی، اوکلاہوما", "NAME_VI": "Comanche", "NAME_ZH": "科曼奇县", "NAME_ZHT": "科曼奇縣" }, "geometry": { "type": "MultiPolygon", "coordinates": [ [ [ [ -98.619808, 34.854947 ], [ -98.244623, 34.855139 ], [ -98.092637, 34.854913 ], [ -98.089028, 34.840712 ], [ -98.089087, 34.681394 ], [ -98.141791, 34.681152 ], [ -98.14214, 34.506988 ], [ -98.244112, 34.507115 ], [ -98.244144, 34.463717 ], [ -98.295879, 34.463529 ], [ -98.29592, 34.449037 ], [ -98.50495, 34.449408 ], [ -98.50498, 34.42042 ], [ -98.609553, 34.420617 ], [ -98.609528, 34.406137 ], [ -98.661948, 34.405942 ], [ -98.662332, 34.507454 ], [ -98.826066, 34.507364 ], [ -98.826, 34.594407 ], [ -98.826116, 34.85546 ], [ -98.619808, 34.854947 ] ] ] ] } },
{ "type": "Feature", "properties": { "FEATURECLA": "Admin-2 scale rank", "SCALERANK": 0, "ADM2_CODE": "USA-40109", "ISO_3166_2": "US-40", "ISO_A2": "US", "ADM0_SR": 1, "NAME": "Oklahoma", "NAME_ALT": "Oklahoma County", "NAME_LOCAL": null, "TYPE": "County", "TYPE_EN": "County", "CODE_LOCAL": "40109", "REGION": "OK", "REGION_COD": "40", "ABBREV": null, "AREA_SQKM": 1861, "SAMEASCITY": 0, "LABELRANK": 0, "NAME_LEN": 8, "MAPCOLOR9": 1, "MAPCOLOR13": 1, "FIPS": "US40109", "SOV_A3": "US1", "ADM0_A3": "USA", "ADM0_LABEL": 2, "ADMIN": "United States of America", "GEONUNIT": "United States of America", "GU_A3": "USA", "MIN_LABEL": 8, "MAX_LABEL": 10, "MIN_ZOOM": 6.6, "WIKIDATAID": "Q485038", "NE_ID": 1730094235, "latitude": 35.551123, "longitude": -97.407274, "NAME_AR": "أوكلاهوما", "NAME_BN": null, "NAME_DE": "Oklahoma", "NAME_EL": null, "NAME_EN": "Oklahoma", "NAME_ES": "Oklahoma", "NAME_FA": "شهرستان اکلاهما، اکلاهما", "NAME_FR": "'Oklahoma", "NAME_HE": "מחוז אוקלהומה", "NAME_HI": null, "NAME_HU": "Oklahoma", "NAME_ID": null, "NAME_IT": "Oklahoma", "NAME_JA": "オクラホマ郡", "NAME_KO": "오클라호마", "NAME_NL": "Oklahoma", "NAME_PL": "Oklahoma", "NAME_PT": "Oklahoma", "NAME_RU": "Оклахома", "NAME_SV": "Oklahoma", "NAME_TR": "Oklahoma", "NAME_UK": "Оклахома", "NAME_UR": "اوکلاہوما کاؤنٹی، اوکلاہوما", "NAME_VI": "Oklahoma", "NAME_ZH": "俄克拉何马县", "NAME_ZHT": "奧克拉荷馬郡" }, "geometry": { "type": "MultiPolygon", "coordinates": [ [ [ [ -97.67297, 35.377694 ], [ -97.671312, 35.551048 ], [ -97.674312, 35.565648 ], [ -97.674018, 35.725964 ], [ -97.427924, 35.725118 ], [ -97.141069, 35.724253 ], [ -97.141225, 35.463978 ], [ -97.141817, 35.376812 ], [ -97.337002, 35.377058 ], [ -97.67297, 35.377694 ] ] ] ] } },
{ "type": "Feature", "properties": { "FEATURECLA": "Admin-2 scale rank", "SCALERANK": 0, "ADM2_CODE": "USA-40027", "ISO_3166_2": "US-40", "ISO_A2": "US", "ADM0_SR": 1, "NAME": "Cleveland", "NAME_ALT": "Cleveland County", "NAME_LOCAL": null, "TYPE": "County", "TYPE_EN": "County", "CODE_LOCAL": "40027", "REGION": "OK", "REGION_COD": "40", "ABBREV": null, "AREA_SQKM": 1354, "SAMEASCITY": 0, "LABELRANK": 0, "NAME_LEN": 9, "MAPCOLOR9": 1, "MAPCOLOR13": 1, "FIPS": "US40027", "SOV_A3": "US1", "ADM0_A3": "USA", "ADM0_LABEL": 2, "ADMIN": "United States of America", "GEONUNIT": "United States of America", "GU_A3": "USA", "MIN_LABEL": 8, "MAX_LABEL": 10, "MIN_ZOOM": 6.6, "WIKIDATAID": "Q484603", "NE_ID": 1730094145, "latitude": 35.230669, "longitude": -97.29383, "NAME_AR": "كليفلاند، أوكلاهوما", "NAME_BN": null, "NAME_DE": "Cleveland", "NAME_EL": null, "NAME_EN": "Cleveland", "NAME_ES": "Cleveland", "NAME_FA": "شهرستان کلیولند، اکلاهما", "NAME_FR": "Cleveland", "NAME_HE": "מחוז קליבלנד", "NAME_HI": null, "NAME_HU": "Cleveland", "NAME_ID": null, "NAME_IT": "Cleveland", "NAME_JA": "クリーブランド郡", "NAME_KO": "클리블랜드", "NAME_NL": "Cleveland", "NAME_PL": "Cleveland", "NAME_PT": "Cleveland", "NAME_RU": "Кливленд", "NAME_SV": "Cleveland", "NAME_TR": "Cleveland", "NAME_UK": "Клівленд", "NAME_UR": "کلیولینڈ کاؤنٹی، اوکلاہوما", "NAME_VI": "Cleveland", "NAME_ZH": "克里夫兰县", "NAME_ZHT": "克里夫蘭縣" }, "geometry": { "type": "MultiPolygon", "coordinates": [ [ [ [ -97.673841, 35.342246 ], [ -97.67297, 35.377694 ], [ -97.337002, 35.377058 ], [ -97.141817, 35.376812 ], [ -97.142215, 35.190225 ], [ -97.14182, 34.940098 ], [ -97.249337, 34.957894 ], [ -97.315338, 34.966091 ], [ -97.339711, 34.977729 ], [ -97.349599, 35.003038 ], [ -97.346669, 35.068468 ], [ -97.353993, 35.093573 ], [ -97.376861, 35.08869 ], [ -97.394358, 35.09866 ], [ -97.397288, 35.108344 ], [ -97.395131, 35.120144 ], [ -97.397369, 35.136501 ], [ -97.422271, 35.171902 ], [ -97.52774, 35.233262 ], [ -97.53893, 35.252631 ], [ -97.55191, 35.315253 ], [ -97.623118, 35.316189 ], [ -97.643788, 35.321479 ], [ -97.649566, 35.326483 ], [ -97.654856, 35.333808 ], [ -97.662465, 35.340359 ], [ -97.673841, 35.342246 ] ] ] ] } },
{ "type": "Feature", "properties": { "FEATURECLA": "Admin-2 scale rank", "SCALERANK": 0, "ADM2_CODE": "USA-40087", "ISO_3166_2": "US-40", "ISO_A2": "US", "ADM0_SR": 1, "NAME": "McClain", "NAME_ALT": "McClain County", "NAME_LOCAL": null, "TYPE": "County", "TYPE_EN": "County", "CODE_LOCAL": "40087", "REGION": "OK", "REGION_COD": "40", "ABBREV": null, "AREA_SQKM": 1613, "SAMEASCITY": 0, "LABELRANK": 0, "NAME_LEN": 7, "MAPCOLOR9": 1, "MAPCOLOR13": 1, "FIPS": "US40087", "SOV_A3": "US1", "ADM0_A3": "USA", "ADM0_LABEL": 2, "ADMIN": "United States of America", "GEONUNIT": "United States of America", "GU_A3": "USA", "MIN_LABEL": 8, "MAX_LABEL": 10, "MIN_ZOOM": 6.6, "WIKIDATAID": "Q495862", "NE_ID": 1730094211, "latitude": 35.004115, "longitude": -97.506624, "NAME_AR": "ماكلاين، أوكلاهوما", "NAME_BN": null, "NAME_DE": "McClain", "NAME_EL": null, "NAME_EN": "McClain", "NAME_ES": "McClain", "NAME_FA": "شهرستان مککلین، اکلاهما", "NAME_FR": "McClain", "NAME_HE": "מחוז קליין", "NAME_HI": null, "NAME_HU": "McClain", "NAME_ID": null, "NAME_IT": "McClain", "NAME_JA": "マクレーン郡", "NAME_KO": "맥클레인", "NAME_NL": "McClain", "NAME_PL": "McClain", "NAME_PT": "McClain", "NAME_RU": "Мак-Клейн", "NAME_SV": "McClain", "NAME_TR": "McClain", "NAME_UK": "Макклейн", "NAME_UR": "مککلیئن کاؤنٹی، اوکلاہوما", "NAME_VI": "McClain", "NAME_ZH": "麦克莱恩县", "NAME_ZHT": "麥克萊恩郡" }, "geometry": { "type": "MultiPolygon", "coordinates": [ [ [ [ -97.67516, 35.343126 ], [ -97.673841, 35.342246 ], [ -97.662465, 35.340359 ], [ -97.654856, 35.333808 ], [ -97.649566, 35.326483 ], [ -97.643788, 35.321479 ], [ -97.623118, 35.316189 ], [ -97.55191, 35.315253 ], [ -97.53893, 35.252631 ], [ -97.52774, 35.233262 ], [ -97.422271, 35.171902 ], [ -97.397369, 35.136501 ], [ -97.395131, 35.120144 ], [ -97.397288, 35.108344 ], [ -97.394358, 35.09866 ], [ -97.376861, 35.08869 ], [ -97.353993, 35.093573 ], [ -97.346669, 35.068468 ], [ -97.349599, 35.003038 ], [ -97.339711, 34.977729 ], [ -97.315338, 34.966091 ], [ -97.249337, 34.957894 ], [ -97.14182, 34.940098 ], [ -97.097988, 34.932689 ], [ -97.097239, 34.932563 ], [ -97.064443, 34.922553 ], [ -97.032704, 34.916815 ], [ -97.013783, 34.917344 ], [ -96.991851, 34.926866 ], [ -96.978228, 34.934516 ], [ -96.972808, 34.94127 ], [ -96.969228, 34.949164 ], [ -96.960276, 34.961534 ], [ -96.948883, 34.973171 ], [ -96.9381, 34.978827 ], [ -96.928293, 34.975206 ], [ -96.932621, 34.854467 ], [ -97.315731, 34.85514 ], [ -97.668091, 34.855158 ], [ -97.67053, 34.855303 ], [ -97.670383, 35.203305 ], [ -97.67516, 35.343126 ] ] ] ] } },
{ "type": "Feature", "properties": { "FEATURECLA": "Admin-2 scale rank", "SCALERANK": 0, "ADM2_CODE": "USA-40019", "ISO_3166_2": "US-40", "ISO_A2": "US", "ADM0_SR": 1, "NAME": "Carter", "NAME_ALT": "Carter County", "NAME_LOCAL": null, "TYPE": "County", "TYPE_EN": "County", "CODE_LOCAL": "40019", "REGION": "OK", "REGION_COD": "40", "ABBREV": null, "AREA_SQKM": 2160, "SAMEASCITY": 0, "LABELRANK": 0, "NAME_LEN": 6, "MAPCOLOR9": 1, "MAPCOLOR13": 1, "FIPS": "US40019", "SOV_A3": "US1", "ADM0_A3": "USA", "ADM0_LABEL": 2, "ADMIN": "United States of America", "GEONUNIT": "United States of America", "GU_A3": "USA", "MIN_LABEL": 8, "MAX_LABEL": 10, "MIN_ZOOM": 6.6, "WIKIDATAID": "Q497854", "NE_ID": 1730094137, "latitude": 34.223491, "longitude": -97.2862, "NAME_AR": "كارتر", "NAME_BN": null, "NAME_DE": "Carter", "NAME_EL": null, "NAME_EN": "Carter", "NAME_ES": "Carter", "NAME_FA": "شهرستان کارتر، اکلاهما", "NAME_FR": "Carter", "NAME_HE": "מחוז קרטר", "NAME_HI": null, "NAME_HU": "Carter", "NAME_ID": null, "NAME_IT": "Carter", "NAME_JA": "カーター郡", "NAME_KO": "카터", "NAME_NL": "Carter", "NAME_PL": "Carter", "NAME_PT": "Carter", "NAME_RU": "Картер", "NAME_SV": "Carter", "NAME_TR": "Carter", "NAME_UK": "Картер", "NAME_UR": "کارٹر کاؤنٹی، اوکلاہوما", "NAME_VI": null, "NAME_ZH": "卡特县", "NAME_ZHT": "卡特郡" }, "geometry": { "type": "MultiPolygon", "coordinates": [ [ [ [ -97.352102, 34.506782 ], [ -97.35215, 34.376221 ], [ -97.04154, 34.375551 ], [ -97.028696, 34.332632 ], [ -96.933449, 34.332655 ], [ -96.933663, 34.172547 ], [ -96.968407, 34.172611 ], [ -96.968201, 34.07434 ], [ -96.969998, 34.070824 ], [ -97.230855, 34.070868 ], [ -97.560756, 34.071083 ], [ -97.562715, 34.125088 ], [ -97.562566, 34.289179 ], [ -97.562355, 34.506919 ], [ -97.352102, 34.506782 ] ] ] ] } },
{ "type": "Feature", "properties": { "FEATURECLA": "Admin-2 scale rank", "SCALERANK": 0, "ADM2_CODE": "USA-40099", "ISO_3166_2": "US-40", "ISO_A2": "US", "ADM0_SR": 1, "NAME": "Murray", "NAME_ALT": "Murray County", "NAME_LOCAL": null, "TYPE": "County", "TYPE_EN": "County", "CODE_LOCAL": "40099", "REGION": "OK", "REGION_COD": "40", "ABBREV": null, "AREA_SQKM": 1113, "SAMEASCITY": 0, "LABELRANK": 0, "NAME_LEN": 6, "MAPCOLOR9": 1, "MAPCOLOR13": 1, "FIPS": "US40099", "SOV_A3": "US1", "ADM0_A3": "USA", "ADM0_LABEL": 2, "ADMIN": "United States of America", "GEONUNIT": "United States of America", "GU_A3": "USA", "MIN_LABEL": 8, "MAX_LABEL": 10, "MIN_ZOOM": 6.6, "WIKIDATAID": "Q489477", "NE_ID": 1730094225, "latitude": 34.499738, "longitude": -97.021718, "NAME_AR": "موراي، أوكلاهوما", "NAME_BN": null, "NAME_DE": "Murray", "NAME_EL": null, "NAME_EN": "Murray", "NAME_ES": "Murray", "NAME_FA": "شهرستان مورای، اکلاهما", "NAME_FR": "Murray", "NAME_HE": "מחוז מאריי", "NAME_HI": null, "NAME_HU": "Murray", "NAME_ID": null, "NAME_IT": "Murray", "NAME_JA": "マレー郡", "NAME_KO": "머리", "NAME_NL": "Murray", "NAME_PL": "Murray", "NAME_PT": "Murray", "NAME_RU": "Марри", "NAME_SV": "Murray", "NAME_TR": "Murray", "NAME_UK": "Маррі", "NAME_UR": "مرے کاؤنٹی، اوکلاہوما", "NAME_VI": "Murray", "NAME_ZH": "莫雷县", "NAME_ZHT": "莫雷縣" }, "geometry": { "type": "MultiPolygon", "coordinates": [ [ [ [ -96.933449, 34.332655 ], [ -97.028696, 34.332632 ], [ -97.04154, 34.375551 ], [ -97.35215, 34.376221 ], [ -97.352102, 34.506782 ], [ -97.14911, 34.506083 ], [ -97.163564, 34.526923 ], [ -97.18932, 34.57628 ], [ -97.202382, 34.615302 ], [ -97.203357, 34.623597 ], [ -97.142362, 34.622578 ], [ -97.142663, 34.637026 ], [ -96.932441, 34.636721 ], [ -96.932413, 34.593095 ], [ -96.827282, 34.593164 ], [ -96.82728, 34.505983 ], [ -96.880808, 34.505884 ], [ -96.880997, 34.332971 ], [ -96.933449, 34.332655 ] ] ] ] } },
{ "type": "Feature", "properties": { "FEATURECLA": "Admin-2 scale rank", "SCALERANK": 0, "ADM2_CODE": "USA-40137", "ISO_3166_2": "US-40", "ISO_A2": "US", "ADM0_SR": 1, "NAME": "Stephens", "NAME_ALT": "Stephens County", "NAME_LOCAL": null, "TYPE": "County", "TYPE_EN": "County", "CODE_LOCAL": "40137", "REGION": "OK", "REGION_COD": "40", "ABBREV": null, "AREA_SQKM": 2310, "SAMEASCITY": 0, "LABELRANK": 0, "NAME_LEN": 8, "MAPCOLOR9": 1, "MAPCOLOR13": 1, "FIPS": "US40137", "SOV_A3": "US1", "ADM0_A3": "USA", "ADM0_LABEL": 2, "ADMIN": "United States of America", "GEONUNIT": "United States of America", "GU_A3": "USA", "MIN_LABEL": 8, "MAX_LABEL": 10, "MIN_ZOOM": 6.6, "WIKIDATAID": "Q495581", "NE_ID": 1730094267, "latitude": 34.485351, "longitude": -97.85115, "NAME_AR": "ستيفينز", "NAME_BN": null, "NAME_DE": "Stephens", "NAME_EL": null, "NAME_EN": "Stephens", "NAME_ES": "Stephens", "NAME_FA": "شهرستان استفنز، اکلاهما", "NAME_FR": "Stephens", "NAME_HE": "מחוז סטיבנס", "NAME_HI": null, "NAME_HU": "Stephens", "NAME_ID": null, "NAME_IT": "Stephens", "NAME_JA": "スティーヴンズ郡", "NAME_KO": "스티븐스", "NAME_NL": "Stephens", "NAME_PL": "Stephens", "NAME_PT": "Stephens", "NAME_RU": "Стивенс", "NAME_SV": "Stephens", "NAME_TR": "Stephens", "NAME_UK": "Стівенс", "NAME_UR": "ستیپہینز کاؤنٹی، اوکلاہوما", "NAME_VI": "Stephens", "NAME_ZH": "斯蒂芬斯县", "NAME_ZHT": "斯蒂芬斯郡" }, "geometry": { "type": "MultiPolygon", "coordinates": [ [ [ [ -97.562355, 34.506919 ], [ -97.562566, 34.289179 ], [ -97.998951, 34.289073 ], [ -98.139218, 34.289759 ], [ -98.139226, 34.507012 ], [ -98.14214, 34.506988 ], [ -98.141791, 34.681152 ], [ -98.089087, 34.681394 ], [ -97.996783, 34.681795 ], [ -97.668418, 34.681338 ], [ -97.562749, 34.681141 ], [ -97.562355, 34.506919 ] ] ] ] } },
{ "type": "Feature", "properties": { "FEATURECLA": "Admin-2 scale rank", "SCALERANK": 0, "ADM2_CODE": "USA-40049", "ISO_3166_2": "US-40", "ISO_A2": "US", "ADM0_SR": 1, "NAME": "Garvin", "NAME_ALT": "Garvin County", "NAME_LOCAL": null, "TYPE": "County", "TYPE_EN": "County", "CODE_LOCAL": "40049", "REGION": "OK", "REGION_COD": "40", "ABBREV": null, "AREA_SQKM": 2093, "SAMEASCITY": 0, "LABELRANK": 0, "NAME_LEN": 6, "MAPCOLOR9": 1, "MAPCOLOR13": 1, "FIPS": "US40049", "SOV_A3": "US1", "ADM0_A3": "USA", "ADM0_LABEL": 2, "ADMIN": "United States of America", "GEONUNIT": "United States of America", "GU_A3": "USA", "MIN_LABEL": 8, "MAX_LABEL": 10, "MIN_ZOOM": 6.6, "WIKIDATAID": "Q484616", "NE_ID": 1730094171, "latitude": 34.680971, "longitude": -97.376708, "NAME_AR": "غارفين", "NAME_BN": null, "NAME_DE": "Garvin", "NAME_EL": null, "NAME_EN": "Garvin", "NAME_ES": "Garvin", "NAME_FA": "شهرستان گاروین، اکلاهما", "NAME_FR": "Garvin", "NAME_HE": "מחוז גארבין", "NAME_HI": null, "NAME_HU": "Garvin", "NAME_ID": null, "NAME_IT": "Garvin", "NAME_JA": "ガーヴィン郡", "NAME_KO": "가빈", "NAME_NL": "Garvin", "NAME_PL": "Garvin", "NAME_PT": "Garvin", "NAME_RU": "Гарвин", "NAME_SV": "Garvin", "NAME_TR": "Garvin", "NAME_UK": "Ґарвін", "NAME_UR": "گارون کاؤنٹی، اوکلاہوما", "NAME_VI": "Garvin", "NAME_ZH": "加文县", "NAME_ZHT": "加文郡" }, "geometry": { "type": "MultiPolygon", "coordinates": [ [ [ [ -97.352102, 34.506782 ], [ -97.562355, 34.506919 ], [ -97.562749, 34.681141 ], [ -97.668418, 34.681338 ], [ -97.668091, 34.855158 ], [ -97.315731, 34.85514 ], [ -96.932621, 34.854467 ], [ -96.932441, 34.636721 ], [ -97.142663, 34.637026 ], [ -97.142362, 34.622578 ], [ -97.203357, 34.623597 ], [ -97.202382, 34.615302 ], [ -97.18932, 34.57628 ], [ -97.163564, 34.526923 ], [ -97.14911, 34.506083 ], [ -97.352102, 34.506782 ] ] ] ] } },
{ "type": "Feature", "properties": { "FEATURECLA": "Admin-2 scale rank", "SCALERANK": 0, "ADM2_CODE": "USA-40101", "ISO_3166_2": "US-40", "ISO_A2": "US", "ADM0_SR": 1, "NAME": "Muskogee", "NAME_ALT": "Muskogee County", "NAME_LOCAL": null, "TYPE": "County", "TYPE_EN": "County", "CODE_LOCAL": "40101", "REGION": "OK", "REGION_COD": "40", "ABBREV": null, "AREA_SQKM": 2175, "SAMEASCITY": 0, "LABELRANK": 0, "NAME_LEN": 8, "MAPCOLOR9": 1, "MAPCOLOR13": 1, "FIPS": "US40101", "SOV_A3": "US1", "ADM0_A3": "USA", "ADM0_LABEL": 2, "ADMIN": "United States of America", "GEONUNIT": "United States of America", "GU_A3": "USA", "MIN_LABEL": 8, "MAX_LABEL": 10, "MIN_ZOOM": 6.6, "WIKIDATAID": "Q495867", "NE_ID": 1730094227, "latitude": 35.682768, "longitude": -95.37663, "NAME_AR": "كوسكوغي، أوكلاهوما", "NAME_BN": null, "NAME_DE": "Muskogee", "NAME_EL": null, "NAME_EN": "Muskogee", "NAME_ES": "Muskogee", "NAME_FA": "شهرستان ماسکووگی، اکلاهما", "NAME_FR": "Muskogee", "NAME_HE": "מחוז ממוסקוגי", "NAME_HI": null, "NAME_HU": "Muskogee", "NAME_ID": null, "NAME_IT": "Muskogee", "NAME_JA": "マスコギー郡", "NAME_KO": "머스코지", "NAME_NL": "Muskogee", "NAME_PL": "Muskogee", "NAME_PT": "Muskogee", "NAME_RU": "Маскоги", "NAME_SV": "Muskogee", "NAME_TR": "Muskogee", "NAME_UK": "Маскоґі", "NAME_UR": "مسکوگی کاؤنٹی، اوکلاہوما", "NAME_VI": "Muskogee", "NAME_ZH": "马斯科吉县", "NAME_ZHT": "馬斯科吉郡" }, "geometry": { "type": "MultiPolygon", "coordinates": [ [ [ [ -95.288247, 35.814128 ], [ -95.127156, 35.812749 ], [ -95.127457, 35.638888 ], [ -95.12753, 35.55179 ], [ -95.13243, 35.526687 ], [ -95.111594, 35.506248 ], [ -95.09621, 35.485503 ], [ -95.084494, 35.463024 ], [ -95.061227, 35.465089 ], [ -95.055165, 35.458604 ], [ -95.076039, 35.453925 ], [ -95.084096, 35.44538 ], [ -95.094635, 35.424506 ], [ -95.123272, 35.372318 ], [ -95.139231, 35.37999 ], [ -95.157747, 35.371507 ], [ -95.141516, 35.355149 ], [ -95.15049, 35.345865 ], [ -95.174951, 35.350548 ], [ -95.182542, 35.336851 ], [ -95.171173, 35.31542 ], [ -95.174955, 35.302193 ], [ -95.223012, 35.287787 ], [ -95.241811, 35.277371 ], [ -95.272817, 35.280463 ], [ -95.278944, 35.287765 ], [ -95.28834, 35.295191 ], [ -95.311741, 35.302691 ], [ -95.345137, 35.300503 ], [ -95.345026, 35.551749 ], [ -95.71295, 35.551796 ], [ -95.713074, 35.724529 ], [ -95.766258, 35.725744 ], [ -95.766159, 35.856397 ], [ -95.646505, 35.857184 ], [ -95.641591, 35.81863 ], [ -95.622914, 35.786933 ], [ -95.600209, 35.780056 ], [ -95.578928, 35.783555 ], [ -95.558095, 35.790595 ], [ -95.52595, 35.796698 ], [ -95.505279, 35.806464 ], [ -95.495676, 35.808661 ], [ -95.444814, 35.801215 ], [ -95.425933, 35.803412 ], [ -95.386708, 35.812771 ], [ -95.365631, 35.814887 ], [ -95.348988, 35.812567 ], [ -95.32372, 35.804063 ], [ -95.288247, 35.814128 ] ] ] ] } },
{ "type": "Feature", "properties": { "FEATURECLA": "Admin-2 scale rank", "SCALERANK": 0, "ADM2_CODE": "USA-40145", "ISO_3166_2": "US-40", "ISO_A2": "US", "ADM0_SR": 1, "NAME": "Wagoner", "NAME_ALT": "Wagoner County", "NAME_LOCAL": null, "TYPE": "County", "TYPE_EN": "County", "CODE_LOCAL": "40145", "REGION": "OK", "REGION_COD": "40", "ABBREV": null, "AREA_SQKM": 1520, "SAMEASCITY": 0, "LABELRANK": 0, "NAME_LEN": 7, "MAPCOLOR9": 1, "MAPCOLOR13": 1, "FIPS": "US40145", "SOV_A3": "US1", "ADM0_A3": "USA", "ADM0_LABEL": 2, "ADMIN": "United States of America", "GEONUNIT": "United States of America", "GU_A3": "USA", "MIN_LABEL": 8, "MAX_LABEL": 10, "MIN_ZOOM": 6.6, "WIKIDATAID": "Q489457", "NE_ID": 1730094277, "latitude": 35.938579, "longitude": -95.514924, "NAME_AR": "واغونر، أوكلاهوما", "NAME_BN": null, "NAME_DE": "Wagoner", "NAME_EL": null, "NAME_EN": "Wagoner", "NAME_ES": "Wagoner", "NAME_FA": "شهرستان واگونر، اکلاهما", "NAME_FR": "Wagoner", "NAME_HE": "מחוז וואגונר", "NAME_HI": null, "NAME_HU": "Wagoner", "NAME_ID": null, "NAME_IT": "Wagoner", "NAME_JA": "ワゴナー郡", "NAME_KO": "웨거너", "NAME_NL": "Wagoner", "NAME_PL": "Wagoner", "NAME_PT": "Wagoner", "NAME_RU": "Вэгонир", "NAME_SV": "Wagoner", "NAME_TR": "Wagoner", "NAME_UK": "Ваґонер", "NAME_UR": "ویگنر کاؤنٹی، اوکلاہوما", "NAME_VI": "Wagoner", "NAME_ZH": "瓦戈纳县", "NAME_ZHT": "瓦戈納郡" }, "geometry": { "type": "MultiPolygon", "coordinates": [ [ [ [ -95.207939, 36.074702 ], [ -95.207959, 36.039873 ], [ -95.225334, 36.039835 ], [ -95.225459, 36.009194 ], [ -95.23843, 35.987993 ], [ -95.256407, 35.985492 ], [ -95.27538, 35.988349 ], [ -95.279286, 35.949286 ], [ -95.261708, 35.916083 ], [ -95.239491, 35.881456 ], [ -95.236318, 35.857611 ], [ -95.274526, 35.835557 ], [ -95.278188, 35.822089 ], [ -95.288247, 35.814128 ], [ -95.32372, 35.804063 ], [ -95.348988, 35.812567 ], [ -95.365631, 35.814887 ], [ -95.386708, 35.812771 ], [ -95.425933, 35.803412 ], [ -95.444814, 35.801215 ], [ -95.495676, 35.808661 ], [ -95.505279, 35.806464 ], [ -95.52595, 35.796698 ], [ -95.558095, 35.790595 ], [ -95.578928, 35.783555 ], [ -95.600209, 35.780056 ], [ -95.622914, 35.786933 ], [ -95.641591, 35.81863 ], [ -95.646505, 35.857184 ], [ -95.766159, 35.856397 ], [ -95.819957, 35.855894 ], [ -95.819448, 35.901089 ], [ -95.761656, 35.900993 ], [ -95.76164, 36.162734 ], [ -95.618523, 36.16269 ], [ -95.60658, 36.135149 ], [ -95.586009, 36.133295 ], [ -95.565273, 36.109722 ], [ -95.545237, 36.08808 ], [ -95.571518, 36.075276 ], [ -95.44011, 36.07522 ], [ -95.207939, 36.074702 ] ] ] ] } },
{ "type": "Feature", "properties": { "FEATURECLA": "Admin-2 scale rank", "SCALERANK": 0, "ADM2_CODE": "USA-40097", "ISO_3166_2": "US-40", "ISO_A2": "US", "ADM0_SR": 1, "NAME": "Mayes", "NAME_ALT": "Mayes County", "NAME_LOCAL": null, "TYPE": "County", "TYPE_EN": "County", "CODE_LOCAL": "40097", "REGION": "OK", "REGION_COD": "40", "ABBREV": null, "AREA_SQKM": 1770, "SAMEASCITY": 0, "LABELRANK": 0, "NAME_LEN": 5, "MAPCOLOR9": 1, "MAPCOLOR13": 1, "FIPS": "US40097", "SOV_A3": "US1", "ADM0_A3": "USA", "ADM0_LABEL": 2, "ADMIN": "United States of America", "GEONUNIT": "United States of America", "GU_A3": "USA", "MIN_LABEL": 8, "MAX_LABEL": 10, "MIN_ZOOM": 6.6, "WIKIDATAID": "Q495937", "NE_ID": 1730094223, "latitude": 36.309813, "longitude": -95.233859, "NAME_AR": "مايز، أوكلاهوما", "NAME_BN": null, "NAME_DE": "Mayes", "NAME_EL": null, "NAME_EN": "Mayes", "NAME_ES": "Mayes", "NAME_FA": "شهرستان مایز، اکلاهما", "NAME_FR": "Mayes", "NAME_HE": "מחוז מאייס", "NAME_HI": null, "NAME_HU": "Mayes", "NAME_ID": null, "NAME_IT": "Mayes", "NAME_JA": "メイズ郡", "NAME_KO": "메이스", "NAME_NL": "Mayes", "NAME_PL": "Mayes", "NAME_PT": "Mayes", "NAME_RU": "Мэйс", "NAME_SV": "Mayes", "NAME_TR": "Mayes", "NAME_UK": "Мейз", "NAME_UR": "میئز کاؤنٹی، اوکلاہوما", "NAME_VI": "Mayes", "NAME_ZH": "梅斯县", "NAME_ZHT": "梅斯郡" }, "geometry": { "type": "MultiPolygon", "coordinates": [ [ [ [ -95.011296, 36.161792 ], [ -95.11845, 36.161632 ], [ -95.118191, 36.074425 ], [ -95.207939, 36.074702 ], [ -95.44011, 36.07522 ], [ -95.439965, 36.24933 ], [ -95.435599, 36.249309 ], [ -95.435503, 36.510148 ], [ -95.328021, 36.510256 ], [ -95.005711, 36.509772 ], [ -95.005965, 36.250083 ], [ -95.011372, 36.249462 ], [ -95.011296, 36.161792 ] ] ] ] } },
{ "type": "Feature", "properties": { "FEATURECLA": "Admin-2 scale rank", "SCALERANK": 0, "ADM2_CODE": "USA-40125", "ISO_3166_2": "US-40", "ISO_A2": "US", "ADM0_SR": 1, "NAME": "Pottawatomie", "NAME_ALT": "Pottawatomie County", "NAME_LOCAL": null, "TYPE": "County", "TYPE_EN": "County", "CODE_LOCAL": "40125", "REGION": "OK", "REGION_COD": "40", "ABBREV": null, "AREA_SQKM": 1982, "SAMEASCITY": 0, "LABELRANK": 0, "NAME_LEN": 12, "MAPCOLOR9": 1, "MAPCOLOR13": 1, "FIPS": "US40125", "SOV_A3": "US1", "ADM0_A3": "USA", "ADM0_LABEL": 2, "ADMIN": "United States of America", "GEONUNIT": "United States of America", "GU_A3": "USA", "MIN_LABEL": 8, "MAX_LABEL": 10, "MIN_ZOOM": 6.6, "WIKIDATAID": "Q495880", "NE_ID": 1730094253, "latitude": 35.213341, "longitude": -96.958784, "NAME_AR": "بوتاواتومي", "NAME_BN": null, "NAME_DE": "Pottawatomie", "NAME_EL": null, "NAME_EN": "Pottawatomie", "NAME_ES": "Pottawatomie", "NAME_FA": "شهرستان پوتاواتومی، اکلاهما", "NAME_FR": "Pottawatomie", "NAME_HE": "מחוז פוטאווטומי", "NAME_HI": null, "NAME_HU": "Pottawatomie", "NAME_ID": null, "NAME_IT": "Pottawatomie", "NAME_JA": "ポタワトミー郡", "NAME_KO": "포타와토미", "NAME_NL": "Pottawatomie", "NAME_PL": "Pottawatomie", "NAME_PT": "Pottawatomie", "NAME_RU": "Поттаватоми", "NAME_SV": "Pottawatomie", "NAME_TR": "Pottawatomie", "NAME_UK": "Поттаватомі", "NAME_UR": "پوٹاواٹومی کاؤنٹی، اوکلاہوما", "NAME_VI": "Pottawatomie", "NAME_ZH": "波特瓦特米县", "NAME_ZHT": "波特瓦特米縣" }, "geometry": { "type": "MultiPolygon", "coordinates": [ [ [ [ -97.14182, 34.940098 ], [ -97.142215, 35.190225 ], [ -97.141817, 35.376812 ], [ -97.141225, 35.463978 ], [ -96.841736, 35.4634 ], [ -96.622068, 35.46233 ], [ -96.620269, 35.418769 ], [ -96.636586, 35.41828 ], [ -96.65274, 35.420844 ], [ -96.733388, 35.439724 ], [ -96.749623, 35.439276 ], [ -96.782053, 35.430772 ], [ -96.776909, 35.173718 ], [ -96.775618, 35.132363 ], [ -96.774794, 34.912268 ], [ -96.799713, 34.938992 ], [ -96.811431, 34.944688 ], [ -96.869862, 34.945136 ], [ -96.907053, 34.951483 ], [ -96.916759, 34.959533 ], [ -96.928293, 34.975206 ], [ -96.9381, 34.978827 ], [ -96.948883, 34.973171 ], [ -96.960276, 34.961534 ], [ -96.969228, 34.949164 ], [ -96.972808, 34.94127 ], [ -96.978228, 34.934516 ], [ -96.991851, 34.926866 ], [ -97.013783, 34.917344 ], [ -97.032704, 34.916815 ], [ -97.064443, 34.922553 ], [ -97.097239, 34.932563 ], [ -97.097988, 34.932689 ], [ -97.14182, 34.940098 ] ] ] ] } },
{ "type": "Feature", "properties": { "FEATURECLA": "Admin-2 scale rank", "SCALERANK": 0, "ADM2_CODE": "USA-40123", "ISO_3166_2": "US-40", "ISO_A2": "US", "ADM0_SR": 1, "NAME": "Pontotoc", "NAME_ALT": "Pontotoc County", "NAME_LOCAL": null, "TYPE": "County", "TYPE_EN": "County", "CODE_LOCAL": "40123", "REGION": "OK", "REGION_COD": "40", "ABBREV": null, "AREA_SQKM": 1944, "SAMEASCITY": 0, "LABELRANK": 0, "NAME_LEN": 8, "MAPCOLOR9": 1, "MAPCOLOR13": 1, "FIPS": "US40123", "SOV_A3": "US1", "ADM0_A3": "USA", "ADM0_LABEL": 2, "ADMIN": "United States of America", "GEONUNIT": "United States of America", "GU_A3": "USA", "MIN_LABEL": 8, "MAX_LABEL": 10, "MIN_ZOOM": 6.6, "WIKIDATAID": "Q495856", "NE_ID": 1730094251, "latitude": 34.710272, "longitude": -96.688385, "NAME_AR": "بانتوتوك", "NAME_BN": null, "NAME_DE": "Pontotoc", "NAME_EL": null, "NAME_EN": "Pontotoc", "NAME_ES": "Pontotoc", "NAME_FA": "شهرستان پانتوتوک، اکلاهما", "NAME_FR": "Pontotoc", "NAME_HE": "מחוז פונטוטוק", "NAME_HI": null, "NAME_HU": "Pontotoc", "NAME_ID": null, "NAME_IT": "Pontotoc", "NAME_JA": "ポントトク郡", "NAME_KO": "폰토톡", "NAME_NL": "Pontotoc", "NAME_PL": "Pontotoc", "NAME_PT": "Pontotoc", "NAME_RU": "Понтоток", "NAME_SV": "Pontotoc", "NAME_TR": "Pontotoc", "NAME_UK": "Понтоток", "NAME_UR": "پونٹوٹاک کاؤنٹی، اوکلاہوما", "NAME_VI": "Pontotoc", "NAME_ZH": "庞托托克县", "NAME_ZHT": "龐托托克郡" }, "geometry": { "type": "MultiPolygon", "coordinates": [ [ [ [ -96.406476, 34.767584 ], [ -96.406493, 34.680157 ], [ -96.512123, 34.68001 ], [ -96.511965, 34.527335 ], [ -96.513858, 34.505383 ], [ -96.82728, 34.505983 ], [ -96.827282, 34.593164 ], [ -96.932413, 34.593095 ], [ -96.932441, 34.636721 ], [ -96.932621, 34.854467 ], [ -96.928293, 34.975206 ], [ -96.916759, 34.959533 ], [ -96.907053, 34.951483 ], [ -96.869862, 34.945136 ], [ -96.811431, 34.944688 ], [ -96.799713, 34.938992 ], [ -96.774794, 34.912268 ], [ -96.762995, 34.901433 ], [ -96.745521, 34.889716 ], [ -96.719797, 34.878201 ], [ -96.694732, 34.877712 ], [ -96.677398, 34.896918 ], [ -96.692494, 34.915635 ], [ -96.698313, 34.926866 ], [ -96.698476, 34.937852 ], [ -96.691762, 34.94538 ], [ -96.682729, 34.944607 ], [ -96.660146, 34.935736 ], [ -96.639312, 34.925116 ], [ -96.63329, 34.920762 ], [ -96.621571, 34.916124 ], [ -96.575022, 34.92418 ], [ -96.553131, 34.917751 ], [ -96.535959, 34.90644 ], [ -96.520375, 34.899685 ], [ -96.503285, 34.906806 ], [ -96.491218, 34.914538 ], [ -96.482574, 34.919379 ], [ -96.465688, 34.919298 ], [ -96.447743, 34.915635 ], [ -96.424184, 34.917344 ], [ -96.406183, 34.932574 ], [ -96.406476, 34.767584 ] ] ] ] } },
{ "type": "Feature", "properties": { "FEATURECLA": "Admin-2 scale rank", "SCALERANK": 0, "ADM2_CODE": "USA-40063", "ISO_3166_2": "US-40", "ISO_A2": "US", "ADM0_SR": 1, "NAME": "Hughes", "NAME_ALT": "Hughes County", "NAME_LOCAL": null, "TYPE": "County", "TYPE_EN": "County", "CODE_LOCAL": "40063", "REGION": "OK", "REGION_COD": "40", "ABBREV": null, "AREA_SQKM": 2107, "SAMEASCITY": 0, "LABELRANK": 0, "NAME_LEN": 6, "MAPCOLOR9": 1, "MAPCOLOR13": 1, "FIPS": "US40063", "SOV_A3": "US1", "ADM0_A3": "USA", "ADM0_LABEL": 2, "ADMIN": "United States of America", "GEONUNIT": "United States of America", "GU_A3": "USA", "MIN_LABEL": 8, "MAX_LABEL": 10, "MIN_ZOOM": 6.6, "WIKIDATAID": "Q489327", "NE_ID": 1730094187, "latitude": 35.05756, "longitude": -96.269892, "NAME_AR": "هوغيز، أوكلاهوما", "NAME_BN": null, "NAME_DE": "Hughes", "NAME_EL": null, "NAME_EN": "Hughes", "NAME_ES": "Hughes", "NAME_FA": "شهرستان هاگز، اکلاهما", "NAME_FR": "Hughes", "NAME_HE": "מחוז היוז", "NAME_HI": null, "NAME_HU": "Hughes", "NAME_ID": null, "NAME_IT": "Hughes", "NAME_JA": "ヒューズ郡", "NAME_KO": "휴스", "NAME_NL": "Hughes", "NAME_PL": "Hughes", "NAME_PT": "Hughes", "NAME_RU": "Хьюс", "NAME_SV": "Hughes", "NAME_TR": "Hughes", "NAME_UK": "Х'юз", "NAME_UR": "ہیوز کاؤنٹی، اوکلاہوما", "NAME_VI": "Hughes", "NAME_ZH": "休斯县", "NAME_ZHT": "休斯郡" }, "geometry": { "type": "MultiPolygon", "coordinates": [ [ [ [ -96.091986, 34.767588 ], [ -96.295074, 34.766785 ], [ -96.406476, 34.767584 ], [ -96.406183, 34.932574 ], [ -96.424184, 34.917344 ], [ -96.447743, 34.915635 ], [ -96.465688, 34.919298 ], [ -96.482574, 34.919379 ], [ -96.491218, 34.914538 ], [ -96.490426, 35.115852 ], [ -96.441394, 35.115764 ], [ -96.441359, 35.290089 ], [ -96.11392, 35.289805 ], [ -95.981369, 35.289893 ], [ -95.981137, 35.215551 ], [ -95.981842, 35.157009 ], [ -95.992177, 35.150173 ], [ -96.001454, 35.129828 ], [ -96.006459, 35.123399 ], [ -96.01476, 35.118598 ], [ -96.033111, 35.113471 ], [ -96.040598, 35.109198 ], [ -96.047922, 35.097602 ], [ -96.05134, 35.08588 ], [ -96.062001, 35.072862 ], [ -96.077789, 35.068183 ], [ -96.089915, 35.060655 ], [ -96.089001, 34.85473 ], [ -96.09187, 34.85453 ], [ -96.091986, 34.767588 ] ] ] ] } },
{ "type": "Feature", "properties": { "FEATURECLA": "Admin-2 scale rank", "SCALERANK": 0, "ADM2_CODE": "USA-40131", "ISO_3166_2": "US-40", "ISO_A2": "US", "ADM0_SR": 1, "NAME": "Rogers", "NAME_ALT": "Rogers County", "NAME_LOCAL": null, "TYPE": "County", "TYPE_EN": "County", "CODE_LOCAL": "40131", "REGION": "OK", "REGION_COD": "40", "ABBREV": null, "AREA_SQKM": 1840, "SAMEASCITY": 0, "LABELRANK": 0, "NAME_LEN": 6, "MAPCOLOR9": 1, "MAPCOLOR13": 1, "FIPS": "US40131", "SOV_A3": "US1", "ADM0_A3": "USA", "ADM0_LABEL": 2, "ADMIN": "United States of America", "GEONUNIT": "United States of America", "GU_A3": "USA", "MIN_LABEL": 8, "MAX_LABEL": 10, "MIN_ZOOM": 6.6, "WIKIDATAID": "Q495912", "NE_ID": 1730094261, "latitude": 36.369098, "longitude": -95.608972, "NAME_AR": "روجرز", "NAME_BN": null, "NAME_DE": "Rogers", "NAME_EL": null, "NAME_EN": "Rogers", "NAME_ES": "Rogers", "NAME_FA": "شهرستان راجرز، اکلاهما", "NAME_FR": "Rogers", "NAME_HE": "רוג'רס", "NAME_HI": null, "NAME_HU": "Rogers", "NAME_ID": null, "NAME_IT": "Rogers", "NAME_JA": "ロジャーズ郡", "NAME_KO": "로저스", "NAME_NL": "Rogers", "NAME_PL": "Rogers", "NAME_PT": "Rogers", "NAME_RU": "Роджерс", "NAME_SV": "Rogers", "NAME_TR": "Rogers", "NAME_UK": "Роджерс", "NAME_UR": "راجرز کاؤنٹی، اوکلاہوما", "NAME_VI": "Rogers", "NAME_ZH": "罗杰斯县", "NAME_ZHT": "羅傑斯郡" }, "geometry": { "type": "MultiPolygon", "coordinates": [ [ [ [ -95.431502, 36.597545 ], [ -95.328411, 36.597566 ], [ -95.328021, 36.510256 ], [ -95.435503, 36.510148 ], [ -95.435599, 36.249309 ], [ -95.439965, 36.24933 ], [ -95.44011, 36.07522 ], [ -95.571518, 36.075276 ], [ -95.545237, 36.08808 ], [ -95.565273, 36.109722 ], [ -95.586009, 36.133295 ], [ -95.60658, 36.135149 ], [ -95.618523, 36.16269 ], [ -95.76164, 36.162734 ], [ -95.815383, 36.162702 ], [ -95.815345, 36.249498 ], [ -95.812058, 36.249583 ], [ -95.81204, 36.394337 ], [ -95.794262, 36.394499 ], [ -95.794574, 36.423545 ], [ -95.812673, 36.423554 ], [ -95.812441, 36.59751 ], [ -95.80961, 36.59747 ], [ -95.431502, 36.597545 ] ] ] ] } },
{ "type": "Feature", "properties": { "FEATURECLA": "Admin-2 scale rank", "SCALERANK": 0, "ADM2_CODE": "USA-40037", "ISO_3166_2": "US-40", "ISO_A2": "US", "ADM0_SR": 1, "NAME": "Creek", "NAME_ALT": "Creek County", "NAME_LOCAL": null, "TYPE": "County", "TYPE_EN": "County", "CODE_LOCAL": "40037", "REGION": "OK", "REGION_COD": "40", "ABBREV": null, "AREA_SQKM": 2513, "SAMEASCITY": 0, "LABELRANK": 0, "NAME_LEN": 5, "MAPCOLOR9": 1, "MAPCOLOR13": 1, "FIPS": "US40037", "SOV_A3": "US1", "ADM0_A3": "USA", "ADM0_LABEL": 2, "ADMIN": "United States of America", "GEONUNIT": "United States of America", "GU_A3": "USA", "MIN_LABEL": 8, "MAX_LABEL": 10, "MIN_ZOOM": 6.6, "WIKIDATAID": "Q484596", "NE_ID": 1730094157, "latitude": 35.884112, "longitude": -96.405904, "NAME_AR": "كريك", "NAME_BN": null, "NAME_DE": "Creek", "NAME_EL": null, "NAME_EN": "Creek", "NAME_ES": "Creek", "NAME_FA": "شهرستان کریک، اکلاهما", "NAME_FR": "Creek", "NAME_HE": "מחוז קריק", "NAME_HI": null, "NAME_HU": "Creek", "NAME_ID": null, "NAME_IT": "Creek", "NAME_JA": "クリーク郡", "NAME_KO": "크릭", "NAME_NL": "Creek", "NAME_PL": "Creek", "NAME_PT": "Creek", "NAME_RU": "Крик", "NAME_SV": "Creek", "NAME_TR": "Creek", "NAME_UK": "Крік", "NAME_UR": "کریک کاؤنٹی، اوکلاہوما", "NAME_VI": "Creek", "NAME_ZH": "克里县", "NAME_ZHT": "克里縣" }, "geometry": { "type": "MultiPolygon", "coordinates": [ [ [ [ -96.29788, 36.162273 ], [ -96.297493, 36.075765 ], [ -96.029562, 36.075355 ], [ -96.029577, 35.901114 ], [ -96.033111, 35.856818 ], [ -96.192475, 35.857015 ], [ -96.192556, 35.639081 ], [ -96.62064, 35.638999 ], [ -96.619467, 35.915731 ], [ -96.621089, 35.941513 ], [ -96.622362, 36.001362 ], [ -96.621433, 36.159923 ], [ -96.621325, 36.163547 ], [ -96.499625, 36.163741 ], [ -96.29788, 36.162273 ] ] ] ] } },
{ "type": "Feature", "properties": { "FEATURECLA": "Admin-2 scale rank", "SCALERANK": 0, "ADM2_CODE": "USA-40143", "ISO_3166_2": "US-40", "ISO_A2": "US", "ADM0_SR": 1, "NAME": "Tulsa", "NAME_ALT": "Tulsa County", "NAME_LOCAL": null, "TYPE": "County", "TYPE_EN": "County", "CODE_LOCAL": "40143", "REGION": "OK", "REGION_COD": "40", "ABBREV": null, "AREA_SQKM": 1521, "SAMEASCITY": 0, "LABELRANK": 0, "NAME_LEN": 5, "MAPCOLOR9": 1, "MAPCOLOR13": 1, "FIPS": "US40143", "SOV_A3": "US1", "ADM0_A3": "USA", "ADM0_LABEL": 2, "ADMIN": "United States of America", "GEONUNIT": "United States of America", "GU_A3": "USA", "MIN_LABEL": 8, "MAX_LABEL": 10, "MIN_ZOOM": 6.6, "WIKIDATAID": "Q489481", "NE_ID": 1730094275, "latitude": 36.066805, "longitude": -95.900967, "NAME_AR": "تلسا", "NAME_BN": null, "NAME_DE": "Tulsa", "NAME_EL": null, "NAME_EN": "Tulsa", "NAME_ES": "Tulsa", "NAME_FA": "شهرستان تالسا، اکلاهما", "NAME_FR": "Tulsa", "NAME_HE": "מחוז טולסה", "NAME_HI": null, "NAME_HU": "Tulsa", "NAME_ID": null, "NAME_IT": "Tulsa", "NAME_JA": "タルサ郡", "NAME_KO": "털사", "NAME_NL": "Tulsa", "NAME_PL": "Tulsa", "NAME_PT": "Tulsa", "NAME_RU": "Талса", "NAME_SV": "Tulsa", "NAME_TR": "Tulsa", "NAME_UK": "Талса", "NAME_UR": "تالسا کاؤنٹی، اوکلاہوما", "NAME_VI": "Tulsa", "NAME_ZH": "塔尔萨县", "NAME_ZHT": "土爾沙郡" }, "geometry": { "type": "MultiPolygon", "coordinates": [ [ [ [ -96.033111, 35.856818 ], [ -96.029577, 35.901114 ], [ -96.029562, 36.075355 ], [ -96.297493, 36.075765 ], [ -96.29788, 36.162273 ], [ -96.263539, 36.16413 ], [ -96.161475, 36.160979 ], [ -96.001611, 36.161309 ], [ -96.001165, 36.42368 ], [ -95.812673, 36.423554 ], [ -95.794574, 36.423545 ], [ -95.794262, 36.394499 ], [ -95.81204, 36.394337 ], [ -95.812058, 36.249583 ], [ -95.815345, 36.249498 ], [ -95.815383, 36.162702 ], [ -95.76164, 36.162734 ], [ -95.761656, 35.900993 ], [ -95.819448, 35.901089 ], [ -95.819957, 35.855894 ], [ -96.033111, 35.856818 ] ] ] ] } },
{ "type": "Feature", "properties": { "FEATURECLA": "Admin-2 scale rank", "SCALERANK": 0, "ADM2_CODE": "USA-40111", "ISO_3166_2": "US-40", "ISO_A2": "US", "ADM0_SR": 1, "NAME": "Okmulgee", "NAME_ALT": "Okmulgee County", "NAME_LOCAL": null, "TYPE": "County", "TYPE_EN": "County", "CODE_LOCAL": "40111", "REGION": "OK", "REGION_COD": "40", "ABBREV": null, "AREA_SQKM": 1818, "SAMEASCITY": 0, "LABELRANK": 0, "NAME_LEN": 8, "MAPCOLOR9": 1, "MAPCOLOR13": 1, "FIPS": "US40111", "SOV_A3": "US1", "ADM0_A3": "USA", "ADM0_LABEL": 2, "ADMIN": "United States of America", "GEONUNIT": "United States of America", "GU_A3": "USA", "MIN_LABEL": 8, "MAX_LABEL": 10, "MIN_ZOOM": 6.6, "WIKIDATAID": "Q495930", "NE_ID": 1730094239, "latitude": 35.671494, "longitude": -95.959787, "NAME_AR": "أوكمولغي", "NAME_BN": null, "NAME_DE": "Okmulgee", "NAME_EL": null, "NAME_EN": "Okmulgee", "NAME_ES": "Okmulgee", "NAME_FA": "شهرستان اوکمالگی، اکلاهما", "NAME_FR": "'Okmulgee", "NAME_HE": "מחוז אוקמולגי", "NAME_HI": null, "NAME_HU": "Okmulgee", "NAME_ID": null, "NAME_IT": "Okmulgee", "NAME_JA": "オクマルギー郡", "NAME_KO": "옥멀지", "NAME_NL": "Okmulgee", "NAME_PL": "Okmulgee", "NAME_PT": "Okmulgee", "NAME_RU": "Окмалги", "NAME_SV": "Okmulgee", "NAME_TR": "Okmulgee", "NAME_UK": "Окмалґі", "NAME_UR": "اوکمولگی کاؤنٹی، اوکلاہوما", "NAME_VI": "Okmulgee", "NAME_ZH": "奥克马尔吉县", "NAME_ZHT": "奧克馬爾吉縣" }, "geometry": { "type": "MultiPolygon", "coordinates": [ [ [ [ -96.192556, 35.639081 ], [ -96.192475, 35.857015 ], [ -96.033111, 35.856818 ], [ -95.819957, 35.855894 ], [ -95.766159, 35.856397 ], [ -95.766258, 35.725744 ], [ -95.713074, 35.724529 ], [ -95.71295, 35.551796 ], [ -95.822354, 35.551687 ], [ -95.823389, 35.463963 ], [ -95.875565, 35.463619 ], [ -95.875619, 35.376716 ], [ -95.9813, 35.376822 ], [ -96.087523, 35.376871 ], [ -96.087788, 35.552113 ], [ -96.192837, 35.551896 ], [ -96.192556, 35.639081 ] ] ] ] } },
{ "type": "Feature", "properties": { "FEATURECLA": "Admin-2 scale rank", "SCALERANK": 0, "ADM2_CODE": "USA-40107", "ISO_3166_2": "US-40", "ISO_A2": "US", "ADM0_SR": 1, "NAME": "Okfuskee", "NAME_ALT": "Okfuskee County", "NAME_LOCAL": null, "TYPE": "County", "TYPE_EN": "County", "CODE_LOCAL": "40107", "REGION": "OK", "REGION_COD": "40", "ABBREV": null, "AREA_SQKM": 1585, "SAMEASCITY": 0, "LABELRANK": 0, "NAME_LEN": 8, "MAPCOLOR9": 1, "MAPCOLOR13": 1, "FIPS": "US40107", "SOV_A3": "US1", "ADM0_A3": "USA", "ADM0_LABEL": 2, "ADMIN": "United States of America", "GEONUNIT": "United States of America", "GU_A3": "USA", "MIN_LABEL": 8, "MAX_LABEL": 10, "MIN_ZOOM": 6.6, "WIKIDATAID": "Q495885", "NE_ID": 1730094233, "latitude": 35.446202, "longitude": -96.290899, "NAME_AR": "أوكفوسكي", "NAME_BN": null, "NAME_DE": "Okfuskee", "NAME_EL": null, "NAME_EN": "Okfuskee", "NAME_ES": "Okfuskee", "NAME_FA": "شهرستان اوکفسکی، اکلاهما", "NAME_FR": "'Okfuskee", "NAME_HE": "מחוז אוקפאסקי", "NAME_HI": null, "NAME_HU": "Okfuskee", "NAME_ID": null, "NAME_IT": "Okfuskee", "NAME_JA": "オクフスキー郡", "NAME_KO": "옥퍼스키", "NAME_NL": "Okfuskee", "NAME_PL": "Okfuskee", "NAME_PT": "Okfuskee", "NAME_RU": "Окфаски", "NAME_SV": "Okfuskee", "NAME_TR": "Okfuskee", "NAME_UK": "Окфаскі", "NAME_UR": "اوکفوسکی کاؤنٹی، اوکلاہوما", "NAME_VI": "Okfuskee", "NAME_ZH": "奥克福斯基县", "NAME_ZHT": "奧克福斯基郡" }, "geometry": { "type": "MultiPolygon", "coordinates": [ [ [ [ -96.62064, 35.638999 ], [ -96.192556, 35.639081 ], [ -96.192837, 35.551896 ], [ -96.087788, 35.552113 ], [ -96.087523, 35.376871 ], [ -95.9813, 35.376822 ], [ -95.981369, 35.289893 ], [ -96.11392, 35.289805 ], [ -96.441359, 35.290089 ], [ -96.440256, 35.471137 ], [ -96.449941, 35.472602 ], [ -96.480702, 35.468126 ], [ -96.514068, 35.470771 ], [ -96.531117, 35.467231 ], [ -96.548207, 35.46129 ], [ -96.558746, 35.453233 ], [ -96.553538, 35.440212 ], [ -96.543853, 35.426459 ], [ -96.55012, 35.421088 ], [ -96.587229, 35.423692 ], [ -96.620269, 35.418769 ], [ -96.622068, 35.46233 ], [ -96.621843, 35.549575 ], [ -96.62064, 35.638999 ] ] ] ] } },
{ "type": "Feature", "properties": { "FEATURECLA": "Admin-2 scale rank", "SCALERANK": 0, "ADM2_CODE": "USA-40081", "ISO_3166_2": "US-40", "ISO_A2": "US", "ADM0_SR": 1, "NAME": "Lincoln", "NAME_ALT": "Lincoln County", "NAME_LOCAL": null, "TYPE": "County", "TYPE_EN": "County", "CODE_LOCAL": "40081", "REGION": "OK", "REGION_COD": "40", "ABBREV": null, "AREA_SQKM": 2561, "SAMEASCITY": 0, "LABELRANK": 0, "NAME_LEN": 7, "MAPCOLOR9": 1, "MAPCOLOR13": 1, "FIPS": "US40081", "SOV_A3": "US1", "ADM0_A3": "USA", "ADM0_LABEL": 2, "ADMIN": "United States of America", "GEONUNIT": "United States of America", "GU_A3": "USA", "MIN_LABEL": 8, "MAX_LABEL": 10, "MIN_ZOOM": 6.6, "WIKIDATAID": "Q495899", "NE_ID": 1730094205, "latitude": 35.706327, "longitude": -96.883703, "NAME_AR": "لينكون، أوكلاهوما", "NAME_BN": null, "NAME_DE": "Lincoln", "NAME_EL": null, "NAME_EN": "Lincoln", "NAME_ES": "Lincoln", "NAME_FA": "شهرستان لینکلن، اکلاهما", "NAME_FR": "Lincoln", "NAME_HE": "מחוז לינקולן", "NAME_HI": null, "NAME_HU": "Lincoln", "NAME_ID": null, "NAME_IT": "Lincoln", "NAME_JA": "リンカーン郡", "NAME_KO": "링컨", "NAME_NL": "Lincoln", "NAME_PL": "Lincoln", "NAME_PT": "Lincoln", "NAME_RU": "Линкольн", "NAME_SV": "Lincoln", "NAME_TR": "Lincoln", "NAME_UK": "Лінкольн", "NAME_UR": "لنکن کاؤنٹی، اوکلاہوما", "NAME_VI": "Lincoln", "NAME_ZH": "林肯县", "NAME_ZHT": "林肯縣" }, "geometry": { "type": "MultiPolygon", "coordinates": [ [ [ [ -96.621089, 35.941513 ], [ -96.619467, 35.915731 ], [ -96.62064, 35.638999 ], [ -96.621843, 35.549575 ], [ -96.622068, 35.46233 ], [ -96.841736, 35.4634 ], [ -97.141225, 35.463978 ], [ -97.141069, 35.724253 ], [ -97.141485, 35.895349 ], [ -97.142035, 35.973931 ], [ -96.874735, 35.948314 ], [ -96.621089, 35.941513 ] ] ] ] } },
{ "type": "Feature", "properties": { "FEATURECLA": "Admin-2 scale rank", "SCALERANK": 0, "ADM2_CODE": "USA-40119", "ISO_3166_2": "US-40", "ISO_A2": "US", "ADM0_SR": 1, "NAME": "Payne", "NAME_ALT": "Payne County", "NAME_LOCAL": null, "TYPE": "County", "TYPE_EN": "County", "CODE_LOCAL": "40119", "REGION": "OK", "REGION_COD": "40", "ABBREV": null, "AREA_SQKM": 1708, "SAMEASCITY": 0, "LABELRANK": 0, "NAME_LEN": 5, "MAPCOLOR9": 1, "MAPCOLOR13": 1, "FIPS": "US40119", "SOV_A3": "US1", "ADM0_A3": "USA", "ADM0_LABEL": 2, "ADMIN": "United States of America", "GEONUNIT": "United States of America", "GU_A3": "USA", "MIN_LABEL": 8, "MAX_LABEL": 10, "MIN_ZOOM": 6.6, "WIKIDATAID": "Q495873", "NE_ID": 1730094247, "latitude": 36.101541, "longitude": -96.961422, "NAME_AR": "بايين", "NAME_BN": null, "NAME_DE": "Payne", "NAME_EL": null, "NAME_EN": "Payne", "NAME_ES": "Payne", "NAME_FA": "شهرستان پین، اوکلاهاما", "NAME_FR": "Payne", "NAME_HE": "מחוז פיין", "NAME_HI": null, "NAME_HU": "Payne", "NAME_ID": null, "NAME_IT": "Payne", "NAME_JA": "ペイン郡", "NAME_KO": "페인", "NAME_NL": "Payne", "NAME_PL": "Payne", "NAME_PT": "Payne", "NAME_RU": "Пейн", "NAME_SV": "Payne", "NAME_TR": "Payne", "NAME_UK": "Пейн", "NAME_UR": "پیئن کاؤنٹی، اوکلاہوما", "NAME_VI": "Payne", "NAME_ZH": "佩恩县", "NAME_ZHT": "佩恩郡" }, "geometry": { "type": "MultiPolygon", "coordinates": [ [ [ [ -96.621433, 36.159923 ], [ -96.622362, 36.001362 ], [ -96.621089, 35.941513 ], [ -96.874735, 35.948314 ], [ -97.142035, 35.973931 ], [ -97.151112, 35.972235 ], [ -97.202138, 35.968329 ], [ -97.218577, 35.969346 ], [ -97.233551, 35.973578 ], [ -97.273834, 35.998725 ], [ -97.319895, 36.022406 ], [ -97.333323, 36.02558 ], [ -97.34439, 36.026557 ], [ -97.353499, 36.026049 ], [ -97.354139, 36.159074 ], [ -97.141428, 36.159212 ], [ -97.14096, 36.246429 ], [ -96.925061, 36.246468 ], [ -96.81896, 36.246472 ], [ -96.818995, 36.159137 ], [ -96.621433, 36.159923 ] ] ] ] } },
{ "type": "Feature", "properties": { "FEATURECLA": "Admin-2 scale rank", "SCALERANK": 0, "ADM2_CODE": "USA-40117", "ISO_3166_2": "US-40", "ISO_A2": "US", "ADM0_SR": 1, "NAME": "Pawnee", "NAME_ALT": "Pawnee County", "NAME_LOCAL": null, "TYPE": "County", "TYPE_EN": "County", "CODE_LOCAL": "40117", "REGION": "OK", "REGION_COD": "40", "ABBREV": null, "AREA_SQKM": 1609, "SAMEASCITY": 0, "LABELRANK": 0, "NAME_LEN": 6, "MAPCOLOR9": 1, "MAPCOLOR13": 1, "FIPS": "US40117", "SOV_A3": "US1", "ADM0_A3": "USA", "ADM0_LABEL": 2, "ADMIN": "United States of America", "GEONUNIT": "United States of America", "GU_A3": "USA", "MIN_LABEL": 8, "MAX_LABEL": 10, "MIN_ZOOM": 6.6, "WIKIDATAID": "Q489471", "NE_ID": 1730094245, "latitude": 36.300431, "longitude": -96.689183, "NAME_AR": "باوني", "NAME_BN": null, "NAME_DE": "Pawnee", "NAME_EL": null, "NAME_EN": "Pawnee", "NAME_ES": "Pawnee", "NAME_FA": "شهرستان پونی، اکلاهما", "NAME_FR": "Pawnee", "NAME_HE": "מחוז פוני", "NAME_HI": null, "NAME_HU": "Pawnee", "NAME_ID": null, "NAME_IT": "Pawnee", "NAME_JA": "ポーニー郡", "NAME_KO": "포니", "NAME_NL": "Pawnee", "NAME_PL": "Pawnee", "NAME_PT": "Pawnee", "NAME_RU": "Пауни", "NAME_SV": "Pawnee", "NAME_TR": "Pawnee", "NAME_UK": "Поні", "NAME_UR": "پاونی کاؤنٹی، اوکلاہوما", "NAME_VI": "Pawnee", "NAME_ZH": "波尼县", "NAME_ZHT": "波尼郡" }, "geometry": { "type": "MultiPolygon", "coordinates": [ [ [ [ -96.29788, 36.162273 ], [ -96.499625, 36.163741 ], [ -96.621325, 36.163547 ], [ -96.621433, 36.159923 ], [ -96.818995, 36.159137 ], [ -96.81896, 36.246472 ], [ -96.925061, 36.246468 ], [ -96.924928, 36.333338 ], [ -97.03197, 36.333348 ], [ -97.032136, 36.50616 ], [ -97.002024, 36.505886 ], [ -96.989735, 36.485216 ], [ -96.979115, 36.473456 ], [ -96.938547, 36.459581 ], [ -96.901235, 36.467475 ], [ -96.867055, 36.488593 ], [ -96.777415, 36.565294 ], [ -96.758209, 36.572089 ], [ -96.741363, 36.559597 ], [ -96.718414, 36.521267 ], [ -96.711741, 36.506293 ], [ -96.707784, 36.490518 ], [ -96.705434, 36.449246 ], [ -96.695139, 36.439399 ], [ -96.622874, 36.432481 ], [ -96.608225, 36.421739 ], [ -96.591461, 36.40412 ], [ -96.574208, 36.391059 ], [ -96.557973, 36.394314 ], [ -96.53893, 36.406806 ], [ -96.532216, 36.398017 ], [ -96.534169, 36.377997 ], [ -96.548085, 36.33865 ], [ -96.550852, 36.320665 ], [ -96.542633, 36.306952 ], [ -96.516998, 36.30154 ], [ -96.510365, 36.305772 ], [ -96.492421, 36.32453 ], [ -96.482574, 36.328884 ], [ -96.462717, 36.328681 ], [ -96.455149, 36.326931 ], [ -96.444692, 36.322618 ], [ -96.442209, 36.320624 ], [ -96.440745, 36.318427 ], [ -96.437856, 36.316433 ], [ -96.43106, 36.315212 ], [ -96.429026, 36.304633 ], [ -96.379633, 36.26298 ], [ -96.36144, 36.252468 ], [ -96.338938, 36.246649 ], [ -96.293853, 36.240058 ], [ -96.269154, 36.232489 ], [ -96.257151, 36.223009 ], [ -96.253163, 36.209174 ], [ -96.252919, 36.188544 ], [ -96.255971, 36.176378 ], [ -96.261383, 36.169867 ], [ -96.263539, 36.16413 ], [ -96.29788, 36.162273 ] ] ] ] } },
{ "type": "Feature", "properties": { "FEATURECLA": "Admin-2 scale rank", "SCALERANK": 0, "ADM2_CODE": "USA-40153", "ISO_3166_2": "US-40", "ISO_A2": "US", "ADM0_SR": 1, "NAME": "Woodward", "NAME_ALT": "Woodward County", "NAME_LOCAL": null, "TYPE": "County", "TYPE_EN": "County", "CODE_LOCAL": "40153", "REGION": "OK", "REGION_COD": "40", "ABBREV": null, "AREA_SQKM": 3270, "SAMEASCITY": 0, "LABELRANK": 0, "NAME_LEN": 8, "MAPCOLOR9": 1, "MAPCOLOR13": 1, "FIPS": "US40153", "SOV_A3": "US1", "ADM0_A3": "USA", "ADM0_LABEL": 2, "ADMIN": "United States of America", "GEONUNIT": "United States of America", "GU_A3": "USA", "MIN_LABEL": 8, "MAX_LABEL": 10, "MIN_ZOOM": 6.6, "WIKIDATAID": "Q489447", "NE_ID": 1730094285, "latitude": 36.381902, "longitude": -99.289896, "NAME_AR": "وودوارد، أوكلاهوما", "NAME_BN": null, "NAME_DE": "Woodward", "NAME_EL": null, "NAME_EN": "Woodward", "NAME_ES": "Woodward", "NAME_FA": "شهرستان وودوارد، اکلاهما", "NAME_FR": "Woodward", "NAME_HE": "מחוז וודוורד", "NAME_HI": null, "NAME_HU": "Woodward", "NAME_ID": null, "NAME_IT": "Woodward", "NAME_JA": "ウッドワード郡", "NAME_KO": "우드워드", "NAME_NL": "Woodward", "NAME_PL": "Woodward", "NAME_PT": "Woodward", "NAME_RU": "Вудворд", "NAME_SV": "Woodward", "NAME_TR": "Woodward", "NAME_UK": "Вудворд", "NAME_UR": "ووڈورڈ کاؤنٹی، اوکلاہوما", "NAME_VI": "Woodward", "NAME_ZH": "伍德沃德县", "NAME_ZHT": "伍德沃德郡" }, "geometry": { "type": "MultiPolygon", "coordinates": [ [ [ [ -98.955841, 36.161571 ], [ -99.125568, 36.162237 ], [ -99.277304, 36.16421 ], [ -99.382066, 36.164295 ], [ -99.59595, 36.164053 ], [ -99.595817, 36.246695 ], [ -99.604778, 36.246623 ], [ -99.605597, 36.34808 ], [ -99.604937, 36.50003 ], [ -99.605557, 36.592747 ], [ -99.295249, 36.595117 ], [ -99.295494, 36.824937 ], [ -99.284983, 36.820095 ], [ -99.24942, 36.804226 ], [ -99.236037, 36.803548 ], [ -99.220123, 36.805732 ], [ -99.188547, 36.806098 ], [ -99.169667, 36.800238 ], [ -99.136464, 36.786973 ], [ -99.100942, 36.753363 ], [ -99.092356, 36.741075 ], [ -99.044993, 36.696153 ], [ -99.028717, 36.663926 ], [ -99.022776, 36.65823 ], [ -98.999664, 36.64643 ], [ -98.985463, 36.626654 ], [ -98.959968, 36.610173 ], [ -98.960326, 36.506908 ], [ -98.960877, 36.246766 ], [ -98.955935, 36.246742 ], [ -98.955841, 36.161571 ] ] ] ] } },
{ "type": "Feature", "properties": { "FEATURECLA": "Admin-2 scale rank", "SCALERANK": 0, "ADM2_CODE": "USA-40103", "ISO_3166_2": "US-40", "ISO_A2": "US", "ADM0_SR": 1, "NAME": "Noble", "NAME_ALT": "Noble County", "NAME_LOCAL": null, "TYPE": "County", "TYPE_EN": "County", "CODE_LOCAL": "40103", "REGION": "OK", "REGION_COD": "40", "ABBREV": null, "AREA_SQKM": 1923, "SAMEASCITY": 0, "LABELRANK": 0, "NAME_LEN": 5, "MAPCOLOR9": 1, "MAPCOLOR13": 1, "FIPS": "US40103", "SOV_A3": "US1", "ADM0_A3": "USA", "ADM0_LABEL": 2, "ADMIN": "United States of America", "GEONUNIT": "United States of America", "GU_A3": "USA", "MIN_LABEL": 8, "MAX_LABEL": 10, "MIN_ZOOM": 6.6, "WIKIDATAID": "Q495570", "NE_ID": 1730094229, "latitude": 36.408616, "longitude": -97.230658, "NAME_AR": "نوبيل، أوكلاهوما", "NAME_BN": null, "NAME_DE": "Noble", "NAME_EL": null, "NAME_EN": "Noble", "NAME_ES": "Noble", "NAME_FA": "شهرستان نوبل، اکلاهما", "NAME_FR": "Noble", "NAME_HE": "מחוז נובל", "NAME_HI": null, "NAME_HU": "Noble", "NAME_ID": null, "NAME_IT": "Noble", "NAME_JA": "ノーブル郡", "NAME_KO": "노블", "NAME_NL": "Noble", "NAME_PL": "Noble", "NAME_PT": "Noble", "NAME_RU": "Нобл", "NAME_SV": "Noble", "NAME_TR": "Noble", "NAME_UK": "Нобл", "NAME_UR": "نوبل کاؤنٹی، اوکلاہوما", "NAME_VI": "Noble", "NAME_ZH": "诺布尔县", "NAME_ZHT": "諾布爾郡" }, "geometry": { "type": "MultiPolygon", "coordinates": [ [ [ [ -97.460779, 36.164456 ], [ -97.461055, 36.361754 ], [ -97.461595, 36.593631 ], [ -97.068858, 36.593847 ], [ -97.034413, 36.5963 ], [ -96.993886, 36.587592 ], [ -96.93871, 36.592108 ], [ -96.898793, 36.590115 ], [ -96.904042, 36.561591 ], [ -96.919789, 36.549628 ], [ -96.942494, 36.541083 ], [ -96.967437, 36.535956 ], [ -96.98998, 36.534247 ], [ -97.005605, 36.52558 ], [ -97.002024, 36.505886 ], [ -97.032136, 36.50616 ], [ -97.03197, 36.333348 ], [ -96.924928, 36.333338 ], [ -96.925061, 36.246468 ], [ -97.14096, 36.246429 ], [ -97.141428, 36.159212 ], [ -97.354139, 36.159074 ], [ -97.353928, 36.164298 ], [ -97.460779, 36.164456 ] ] ] ] } },
{ "type": "Feature", "properties": { "FEATURECLA": "Admin-2 scale rank", "SCALERANK": 0, "ADM2_CODE": "USA-40083", "ISO_3166_2": "US-40", "ISO_A2": "US", "ADM0_SR": 1, "NAME": "Logan", "NAME_ALT": "Logan County", "NAME_LOCAL": null, "TYPE": "County", "TYPE_EN": "County", "CODE_LOCAL": "40083", "REGION": "OK", "REGION_COD": "40", "ABBREV": null, "AREA_SQKM": 1979, "SAMEASCITY": 0, "LABELRANK": 0, "NAME_LEN": 5, "MAPCOLOR9": 1, "MAPCOLOR13": 1, "FIPS": "US40083", "SOV_A3": "US1", "ADM0_A3": "USA", "ADM0_LABEL": 2, "ADMIN": "United States of America", "GEONUNIT": "United States of America", "GU_A3": "USA", "MIN_LABEL": 8, "MAX_LABEL": 10, "MIN_ZOOM": 6.6, "WIKIDATAID": "Q495906", "NE_ID": 1730094207, "latitude": 35.902107, "longitude": -97.478578, "NAME_AR": "لوغان، أوكلاهوما", "NAME_BN": null, "NAME_DE": "Logan", "NAME_EL": null, "NAME_EN": "Logan", "NAME_ES": "Logan", "NAME_FA": "شهرستان لوگان، اکلاهما", "NAME_FR": "Logan", "NAME_HE": "מחוז לוגאן", "NAME_HI": null, "NAME_HU": "Logan", "NAME_ID": null, "NAME_IT": "Logan", "NAME_JA": "ローガン郡", "NAME_KO": "로건", "NAME_NL": "Logan", "NAME_PL": "Logan", "NAME_PT": "Logan", "NAME_RU": "Логан", "NAME_SV": "Logan", "NAME_TR": "Logan", "NAME_UK": "Лоґан", "NAME_UR": "لوگن کاؤنٹی، اوکلاہوما", "NAME_VI": "Logan", "NAME_ZH": "洛根县", "NAME_ZHT": "洛根郡" }, "geometry": { "type": "MultiPolygon", "coordinates": [ [ [ [ -97.675613, 36.164657 ], [ -97.460779, 36.164456 ], [ -97.353928, 36.164298 ], [ -97.354139, 36.159074 ], [ -97.353499, 36.026049 ], [ -97.34439, 36.026557 ], [ -97.333323, 36.02558 ], [ -97.319895, 36.022406 ], [ -97.273834, 35.998725 ], [ -97.233551, 35.973578 ], [ -97.218577, 35.969346 ], [ -97.202138, 35.968329 ], [ -97.151112, 35.972235 ], [ -97.142035, 35.973931 ], [ -97.141485, 35.895349 ], [ -97.141069, 35.724253 ], [ -97.427924, 35.725118 ], [ -97.674018, 35.725964 ], [ -97.674524, 35.898485 ], [ -97.67576, 35.957982 ], [ -97.675613, 36.164657 ] ] ] ] } },
{ "type": "Feature", "properties": { "FEATURECLA": "Admin-2 scale rank", "SCALERANK": 0, "ADM2_CODE": "USA-40061", "ISO_3166_2": "US-40", "ISO_A2": "US", "ADM0_SR": 1, "NAME": "Haskell", "NAME_ALT": "Haskell County", "NAME_LOCAL": null, "TYPE": "County", "TYPE_EN": "County", "CODE_LOCAL": "40061", "REGION": "OK", "REGION_COD": "40", "ABBREV": null, "AREA_SQKM": 1641, "SAMEASCITY": 0, "LABELRANK": 0, "NAME_LEN": 7, "MAPCOLOR9": 1, "MAPCOLOR13": 1, "FIPS": "US40061", "SOV_A3": "US1", "ADM0_A3": "USA", "ADM0_LABEL": 2, "ADMIN": "United States of America", "GEONUNIT": "United States of America", "GU_A3": "USA", "MIN_LABEL": 8, "MAX_LABEL": 10, "MIN_ZOOM": 6.6, "WIKIDATAID": "Q490690", "NE_ID": 1730094185, "latitude": 35.199911, "longitude": -95.077304, "NAME_AR": "هاسكيل، أوكلاهوما", "NAME_BN": null, "NAME_DE": "Haskell", "NAME_EL": null, "NAME_EN": "Haskell", "NAME_ES": "Haskell", "NAME_FA": "شهرستان هسکل، اکلاهما", "NAME_FR": "Haskell", "NAME_HE": "מחוז האסקל", "NAME_HI": null, "NAME_HU": "Haskell", "NAME_ID": null, "NAME_IT": "Haskell", "NAME_JA": "ハスケル郡", "NAME_KO": "해스켈", "NAME_NL": "Haskell", "NAME_PL": "Haskell", "NAME_PT": "Haskell", "NAME_RU": "Хаскелл", "NAME_SV": "Haskell", "NAME_TR": "Haskell", "NAME_UK": "Гаскелл", "NAME_UR": "ہیسکل کاؤنٹی، اوکلاہوما", "NAME_VI": "Haskell", "NAME_ZH": "哈斯克尔县", "NAME_ZHT": "哈斯克爾郡" }, "geometry": { "type": "MultiPolygon", "coordinates": [ [ [ [ -94.813622, 35.323338 ], [ -94.814907, 35.202331 ], [ -94.927935, 35.201999 ], [ -94.927856, 35.058273 ], [ -95.099133, 35.057491 ], [ -95.349226, 35.058508 ], [ -95.349344, 35.160291 ], [ -95.454949, 35.160491 ], [ -95.450749, 35.202791 ], [ -95.45127, 35.294615 ], [ -95.457346, 35.309394 ], [ -95.415598, 35.311835 ], [ -95.369008, 35.307807 ], [ -95.345137, 35.300503 ], [ -95.311741, 35.302691 ], [ -95.28834, 35.295191 ], [ -95.278944, 35.287765 ], [ -95.272817, 35.280463 ], [ -95.241811, 35.277371 ], [ -95.223012, 35.287787 ], [ -95.174955, 35.302193 ], [ -95.171173, 35.31542 ], [ -95.182542, 35.336851 ], [ -95.174951, 35.350548 ], [ -95.15049, 35.345865 ], [ -95.141516, 35.355149 ], [ -95.157747, 35.371507 ], [ -95.139231, 35.37999 ], [ -95.123272, 35.372318 ], [ -95.094635, 35.424506 ], [ -95.084096, 35.44538 ], [ -95.076039, 35.453925 ], [ -95.055165, 35.458604 ], [ -95.024926, 35.453089 ], [ -95.019886, 35.439989 ], [ -94.922375, 35.393093 ], [ -94.901825, 35.397934 ], [ -94.89465, 35.372976 ], [ -94.915307, 35.358644 ], [ -94.901973, 35.346703 ], [ -94.86215, 35.358399 ], [ -94.841458, 35.370914 ], [ -94.828965, 35.36154 ], [ -94.827453, 35.337406 ], [ -94.813622, 35.323338 ] ] ] ] } },
{ "type": "Feature", "properties": { "FEATURECLA": "Admin-2 scale rank", "SCALERANK": 0, "ADM2_CODE": "USA-40077", "ISO_3166_2": "US-40", "ISO_A2": "US", "ADM0_SR": 1, "NAME": "Latimer", "NAME_ALT": "Latimer County", "NAME_LOCAL": null, "TYPE": "County", "TYPE_EN": "County", "CODE_LOCAL": "40077", "REGION": "OK", "REGION_COD": "40", "ABBREV": null, "AREA_SQKM": 1889, "SAMEASCITY": 0, "LABELRANK": 0, "NAME_LEN": 7, "MAPCOLOR9": 1, "MAPCOLOR13": 1, "FIPS": "US40077", "SOV_A3": "US1", "ADM0_A3": "USA", "ADM0_LABEL": 2, "ADMIN": "United States of America", "GEONUNIT": "United States of America", "GU_A3": "USA", "MIN_LABEL": 8, "MAX_LABEL": 10, "MIN_ZOOM": 6.6, "WIKIDATAID": "Q848649", "NE_ID": 1730094203, "latitude": 34.869296, "longitude": -95.250241, "NAME_AR": "لاتيمر، أوكلاهوما", "NAME_BN": null, "NAME_DE": "Latimer", "NAME_EL": null, "NAME_EN": "Latimer", "NAME_ES": "Latimer", "NAME_FA": "شهرستان لاتیمر، اکلاهما", "NAME_FR": "Latimer", "NAME_HE": "מחוז לאטימר", "NAME_HI": null, "NAME_HU": "Latimer", "NAME_ID": null, "NAME_IT": "Latimer", "NAME_JA": "ラティマー郡", "NAME_KO": "라티머", "NAME_NL": "Latimer", "NAME_PL": "Latimer", "NAME_PT": "Latimer", "NAME_RU": "Латимер", "NAME_SV": "Latimer", "NAME_TR": "Latimer", "NAME_UK": "Латімер", "NAME_UR": "لاتیمر کاؤنٹی، اوکلاہوما", "NAME_VI": "Latimer", "NAME_ZH": "拉蒂默县", "NAME_ZHT": "拉蒂默郡" }, "geometry": { "type": "MultiPolygon", "coordinates": [ [ [ [ -95.349226, 35.058508 ], [ -95.099133, 35.057491 ], [ -94.927856, 35.058273 ], [ -94.927825, 34.942207 ], [ -94.998151, 34.94133 ], [ -94.997808, 34.855049 ], [ -95.059505, 34.855013 ], [ -95.059609, 34.68073 ], [ -95.250238, 34.680486 ], [ -95.514507, 34.681136 ], [ -95.513704, 34.854915 ], [ -95.50752, 34.854931 ], [ -95.507647, 35.028612 ], [ -95.34943, 35.02937 ], [ -95.349226, 35.058508 ] ] ] ] } },
{ "type": "Feature", "properties": { "FEATURECLA": "Admin-2 scale rank", "SCALERANK": 0, "ADM2_CODE": "USA-40091", "ISO_3166_2": "US-40", "ISO_A2": "US", "ADM0_SR": 1, "NAME": "McIntosh", "NAME_ALT": "McIntosh County", "NAME_LOCAL": null, "TYPE": "County", "TYPE_EN": "County", "CODE_LOCAL": "40091", "REGION": "OK", "REGION_COD": "40", "ABBREV": null, "AREA_SQKM": 1798, "SAMEASCITY": 0, "LABELRANK": 0, "NAME_LEN": 8, "MAPCOLOR9": 1, "MAPCOLOR13": 1, "FIPS": "US40091", "SOV_A3": "US1", "ADM0_A3": "USA", "ADM0_LABEL": 2, "ADMIN": "United States of America", "GEONUNIT": "United States of America", "GU_A3": "USA", "MIN_LABEL": 8, "MAX_LABEL": 10, "MIN_ZOOM": 6.6, "WIKIDATAID": "Q495951", "NE_ID": 1730094215, "latitude": 35.387308, "longitude": -95.671228, "NAME_AR": "ماكونتوش، أوكلاهوما", "NAME_BN": null, "NAME_DE": "McIntosh", "NAME_EL": null, "NAME_EN": "McIntosh", "NAME_ES": "McIntosh", "NAME_FA": "شهرستان مکاینتاش، اکلاهما", "NAME_FR": "McIntosh", "NAME_HE": "מחוז מקינטוש", "NAME_HI": null, "NAME_HU": "McIntosh", "NAME_ID": null, "NAME_IT": "McIntosh", "NAME_JA": "マッキントッシュ郡", "NAME_KO": "매킨토시", "NAME_NL": "McIntosh", "NAME_PL": "McIntosh", "NAME_PT": "McIntosh", "NAME_RU": "Мак-Интош", "NAME_SV": "McIntosh", "NAME_TR": "McIntosh", "NAME_UK": "Макінтош", "NAME_UR": "ماکنتاش کاؤنٹی، اوکلاہوما", "NAME_VI": "McIntosh", "NAME_ZH": "麦金托什县", "NAME_ZHT": "麥金托什郡" }, "geometry": { "type": "MultiPolygon", "coordinates": [ [ [ [ -95.345137, 35.300503 ], [ -95.369008, 35.307807 ], [ -95.415598, 35.311835 ], [ -95.457346, 35.309394 ], [ -95.494293, 35.299262 ], [ -95.506711, 35.291534 ], [ -95.561147, 35.261176 ], [ -95.671151, 35.222853 ], [ -95.727406, 35.20307 ], [ -95.753, 35.197821 ], [ -95.771363, 35.201564 ], [ -95.786448, 35.207587 ], [ -95.812408, 35.207058 ], [ -95.838531, 35.202948 ], [ -95.85558, 35.197943 ], [ -95.896962, 35.156846 ], [ -95.913645, 35.150173 ], [ -95.981842, 35.157009 ], [ -95.981137, 35.215551 ], [ -95.981369, 35.289893 ], [ -95.9813, 35.376822 ], [ -95.875619, 35.376716 ], [ -95.875565, 35.463619 ], [ -95.823389, 35.463963 ], [ -95.822354, 35.551687 ], [ -95.71295, 35.551796 ], [ -95.345026, 35.551749 ], [ -95.345137, 35.300503 ] ] ] ] } },
{ "type": "Feature", "properties": { "FEATURECLA": "Admin-2 scale rank", "SCALERANK": 0, "ADM2_CODE": "USA-40133", "ISO_3166_2": "US-40", "ISO_A2": "US", "ADM0_SR": 1, "NAME": "Seminole", "NAME_ALT": "Seminole County", "NAME_LOCAL": null, "TYPE": "County", "TYPE_EN": "County", "CODE_LOCAL": "40133", "REGION": "OK", "REGION_COD": "40", "ABBREV": null, "AREA_SQKM": 1699, "SAMEASCITY": 0, "LABELRANK": 0, "NAME_LEN": 8, "MAPCOLOR9": 1, "MAPCOLOR13": 1, "FIPS": "US40133", "SOV_A3": "US1", "ADM0_A3": "USA", "ADM0_LABEL": 2, "ADMIN": "United States of America", "GEONUNIT": "United States of America", "GU_A3": "USA", "MIN_LABEL": 8, "MAX_LABEL": 10, "MIN_ZOOM": 6.6, "WIKIDATAID": "Q495891", "NE_ID": 1730094263, "latitude": 35.227338, "longitude": -96.612911, "NAME_AR": "سيمينول", "NAME_BN": null, "NAME_DE": "Seminole", "NAME_EL": null, "NAME_EN": "Seminole", "NAME_ES": "Seminole", "NAME_FA": "شهرستان سمینول، اکلاهما", "NAME_FR": "Seminole", "NAME_HE": "מחוז סמינול", "NAME_HI": null, "NAME_HU": "Seminole", "NAME_ID": null, "NAME_IT": "Seminole", "NAME_JA": "セミノール郡", "NAME_KO": "세미놀", "NAME_NL": "Seminole", "NAME_PL": "Seminole", "NAME_PT": "Seminole", "NAME_RU": "Семинол", "NAME_SV": "Seminole", "NAME_TR": "Seminole", "NAME_UK": "Семінол", "NAME_UR": "سیمینول کاؤنٹی، اوکلاہوما", "NAME_VI": "Seminole", "NAME_ZH": "塞米诺尔县", "NAME_ZHT": "塞米諾爾縣" }, "geometry": { "type": "MultiPolygon", "coordinates": [ [ [ [ -96.441359, 35.290089 ], [ -96.441394, 35.115764 ], [ -96.490426, 35.115852 ], [ -96.491218, 34.914538 ], [ -96.503285, 34.906806 ], [ -96.520375, 34.899685 ], [ -96.535959, 34.90644 ], [ -96.553131, 34.917751 ], [ -96.575022, 34.92418 ], [ -96.621571, 34.916124 ], [ -96.63329, 34.920762 ], [ -96.639312, 34.925116 ], [ -96.660146, 34.935736 ], [ -96.682729, 34.944607 ], [ -96.691762, 34.94538 ], [ -96.698476, 34.937852 ], [ -96.698313, 34.926866 ], [ -96.692494, 34.915635 ], [ -96.677398, 34.896918 ], [ -96.694732, 34.877712 ], [ -96.719797, 34.878201 ], [ -96.745521, 34.889716 ], [ -96.762995, 34.901433 ], [ -96.774794, 34.912268 ], [ -96.775618, 35.132363 ], [ -96.776909, 35.173718 ], [ -96.782053, 35.430772 ], [ -96.749623, 35.439276 ], [ -96.733388, 35.439724 ], [ -96.65274, 35.420844 ], [ -96.636586, 35.41828 ], [ -96.620269, 35.418769 ], [ -96.587229, 35.423692 ], [ -96.55012, 35.421088 ], [ -96.543853, 35.426459 ], [ -96.553538, 35.440212 ], [ -96.558746, 35.453233 ], [ -96.548207, 35.46129 ], [ -96.531117, 35.467231 ], [ -96.514068, 35.470771 ], [ -96.480702, 35.468126 ], [ -96.449941, 35.472602 ], [ -96.440256, 35.471137 ], [ -96.441359, 35.290089 ] ] ] ] } }
]
}
